bank,branch,service,street,city,state,zip,latitude,longitude
Regions Bank,2381 Taylor Rd Montgomery,Full Service Brick and Mortar Office,2381 Taylor Road,Montgomery,AL,36117,32.345208,-86.1778845
Regions Bank,84 West Dothan,Full Service Brick and Mortar Office,4080 W. Main Street,Dothan,AL,36305,31.23466858,-85.45324187
Regions Bank,891 Hillcrest Rd Mobile,Full Service Brick and Mortar Office,891 Hillcrest Road,Mobile,AL,36695,30.67245,-88.1899875
Regions Bank,Adams Ave,Full Service Brick and Mortar Office,901 Adams Avenue,Montgomery,AL,36104,32.37556463,-86.29619364
Regions Bank,Airport Mobile,Full Service Brick and Mortar Office,825 Schillinger Road S.,Mobile,AL,36695,30.67337432,-88.22544856
Regions Bank,Airport Rd,Full Service Brick and Mortar Office,700-A Airport Road,Huntsville,AL,35802,34.691931,-86.5739655
Regions Bank,Alabaster Kent Stone Way,Full Service Brick and Mortar Office,33 Kent Stone Way,Alabaster,AL,35007,33.21789434,-86.82427166
Regions Bank,Alabaster Promenade,Full Service Brick and Mortar Office,55 South Colonial Drive,Alabaster,AL,35007,33.22741383,-86.80396873
Regions Bank,Albertville Hwy 431,Full Service Brick and Mortar Office,7330 U.S. Highway 431 N.,Albertville,AL,35950,34.27692742,-86.20670873
Regions Bank,Alexander City,Full Service Brick and Mortar Office,3961 Highway 280,Alexander City,AL,35010,32.9248917,-85.961527
Regions Bank,Anniston Main Remote Drive Thru Bran,Limited Service Facility Office,900 Wilmer Avenue,Anniston,AL,36201,33.65579027,-85.82843681
Regions Bank,Anniston Wilmer Ave Main,Full Service Brick and Mortar Office,930 Wilmer Avenue,Anniston,AL,36201,33.65678633,-85.82843251
Regions Bank,Arab 1199 Brindlee Mountain Pkwy Bra,Full Service Brick and Mortar Office,1199 N. Brindlee Mountain Parkway,Arab,AL,35016,34.33706161,-86.50362124
Regions Bank,Arrowhead,Full Service Brick and Mortar Office,6985 Atlanta Highway,Montgomery,AL,36117,32.3826217,-86.17444555
Regions Bank,Athens W Green St Main,Full Service Brick and Mortar Office,201 W. Green Street,Athens,AL,35611,34.80116795,-86.97121144
Regions Bank,Atmore,Full Service Brick and Mortar Office,598 E. Church Street,Atmore,AL,36502,31.02264451,-87.48721814
Regions Bank,Auburn Main,Full Service Brick and Mortar Office,165 North College Street,Auburn,AL,36830,32.60841689,-85.481758
Regions Bank,Autauga County,Full Service Brick and Mortar Office,1901 E. Main Street,Prattville,AL,36066,32.46052168,-86.41754258
Regions Bank,Bay Minette Courthouse Square,Full Service Brick and Mortar Office,408 Courthouse Square,Bay Minette,AL,36507,30.88253798,-87.77462707
Regions Bank,Bayou La Batre 14020 S Wintzell Ave,Full Service Brick and Mortar Office,14020 S. Wintzell Avenue,Bayou La Batre,AL,36509,30.399444,-88.247889
Regions Bank,Belair,Full Service Brick and Mortar Office,3001 Airport Boulevard,Mobile,AL,36606,30.675699,-88.114869
Regions Bank,Bell Rd,Full Service Brick and Mortar Office,6900 Vaughn Road,Montgomery,AL,36116,32.338998,-86.1956055
Regions Bank,Bessemer N 19th St,Full Service Brick and Mortar Office,330 N. 19th Street,Bessemer,AL,35020,33.40272291,-86.95392226
Regions Bank,Bessemer Remote Drive Thru,Limited Service Facility Office,1801 1st Avenue,Bessemer,AL,35020,33.4006785,-86.95197555
Regions Bank,Birmingham Main Remote Drive Thru Br,Limited Service Facility Office,2200 Fifth Avenue N.,Birmingham,AL,35203,33.51962385,-86.80501023
Regions Bank,Bob Wallace Avenue,Full Service Brick and Mortar Office,902 Bob Wallace Avenue Sw,Huntsville,AL,35801,34.71134943,-86.58847347
Regions Bank,Bradford Creek,Full Service Brick and Mortar Office,8863 Highway 72 W,Madison,AL,35758,34.74751957,-86.78412239
Regions Bank,Brewton,Full Service Brick and Mortar Office,1116 Douglas Avenue,Brewton,AL,36426,31.12382918,-87.06851943
Regions Bank,Broad St Phenix City,Full Service Brick and Mortar Office,1200 Broad Street,Phenix City,AL,36867,32.46932695,-85.00068543
Regions Bank,Cahaba Heights Village,Full Service Brick and Mortar Office,3172 Heights Village,Birmingham,AL,35243,33.45579547,-86.73513201
Regions Bank,Catoma Ridge,Full Service Brick and Mortar Office,3101 Alabama Highway 157,Cullman,AL,35058,34.201683,-86.825808
Regions Bank,Centerpoint 2306 Center Point Rd Bra,Full Service Brick and Mortar Office,2306 Center Point Road,Birmingham,AL,35215,33.64641622,-86.68390375
Regions Bank,Centre Al,Full Service Brick and Mortar Office,110 W. Main Street,Centre,AL,35960,34.15214309,-85.67931245
Regions Bank,Chalkville,Full Service Brick and Mortar Office,2268 Brewster Road,Birmingham,AL,35235,33.65340115,-86.64842479
Regions Bank,Chelsea,Full Service Brick and Mortar Office,16046 Highway 280,Chelsea,AL,35043,33.35035062,-86.61832937
Regions Bank,Chisholm Remote Drive Thru,Limited Service Facility Office,2800 Lower Wetumpka Road,Montgomery,AL,36110,32.41406438,-86.28603611
Regions Bank,Choctaw Main,Full Service Brick and Mortar Office,132 South Mulberry Avenue,Butler,AL,36904,32.08951098,-88.2212232
Regions Bank,Citronelle,Full Service Brick and Mortar Office,7850 State Street,Citronelle,AL,36522,31.09093953,-88.228998
Regions Bank,Clanton Main,Full Service Brick and Mortar Office,100 Seventh Street S.,Clanton,AL,35045,32.83804938,-86.63042087
Regions Bank,Clubview,Full Service Brick and Mortar Office,2001 Rainbow Drive,Gadsden,AL,35901,33.97468291,-86.01525556
Regions Bank,Columbiana,Full Service Brick and Mortar Office,21325 Highway 25,Columbiana,AL,35051,33.18276674,-86.61339265
Regions Bank,Conecuh,Full Service Brick and Mortar Office,525 E. Front Street,Evergreen,AL,36401,31.43292564,-86.9551292
Regions Bank,Covington Andalusia Main Remote Driv,Limited Service Facility Office,208 Church Street,Andalusia,AL,36420,31.30813306,-86.48473204
Regions Bank,Covington County Main,Full Service Brick and Mortar Office,200 Church Street,Andalusia,AL,36420,31.3080955,-86.484492
Regions Bank,Crestline,Full Service Brick and Mortar Office,35 Church Street,Birmingham,AL,35213,33.50139561,-86.75465202
Regions Bank,Crichton,Full Service Brick and Mortar Office,2720 Springhill Avenue,Mobile,AL,36607,30.697646,-88.10582062
Regions Bank,Cullman 711 2nd Ave Main,Full Service Brick and Mortar Office,711 Second Avenue Southwest,Cullman,AL,35055,34.169742,-86.841162
Regions Bank,Daphne,Full Service Brick and Mortar Office,1439 Us Hwy 98,Daphne,AL,36526,30.59899272,-87.89829246
Regions Bank,Dauphin Island Pkwy,Full Service Brick and Mortar Office,2000 Dauphin Island Parkway,Mobile,AL,36605,30.629232,-88.089309
Regions Bank,Dauphin Street,Limited Service Facility Office,3042 Dauphin Street,Mobile,AL,36606,30.68974157,-88.11626705
Regions Bank,Dawes At Cottage Hill,Full Service Brick and Mortar Office,8775 Cottage Hill Road,Mobile,AL,36695,30.63990951,-88.248663
Regions Bank,Decatur 4th Ave Ne Main,Full Service Brick and Mortar Office,108 Fourth Avenue Ne,Decatur,AL,35601,34.605072,-86.982039
Regions Bank,Deerfoot Pkwy,Full Service Brick and Mortar Office,6685 Old Springville Road,Pinson,AL,35126,33.69863997,-86.60792904
Regions Bank,Demopolis,Full Service Brick and Mortar Office,939 U.S. Highway 80 E.,Demopolis,AL,36732,32.50352294,-87.82646871
Regions Bank,Dothan Main,Full Service Brick and Mortar Office,3201 Ross Clark Circle Nw,Dothan,AL,36303,31.23451531,-85.43191205
Regions Bank,East Athens,Full Service Brick and Mortar Office,1101 Us Highway 72 East,Athens,AL,35611,34.78579129,-86.95321679
Regions Bank,East Circle,Full Service Brick and Mortar Office,2140 E. Main Street,Dothan,AL,36301,31.2142433,-85.35973213
Regions Bank,East Tuscaloosa,Full Service Brick and Mortar Office,2735 University Boulevard E.,Tuscaloosa,AL,35404,33.206166,-87.5015685
Regions Bank,Eastbrook,Full Service Brick and Mortar Office,301 Coliseum Boulevard,Montgomery,AL,36109,32.389047,-86.2579305
Regions Bank,Eastdale,Full Service Brick and Mortar Office,320 Eastdale Circle,Montgomery,AL,36117,32.382963,-86.208417
Regions Bank,Eastside,Full Service Brick and Mortar Office,1001 Piedmont Cut-Off,Gadsden,AL,35903,33.99906157,-85.96705786
Regions Bank,Eastwood,Full Service Brick and Mortar Office,1642 Montclair Road,Birmingham,AL,35210,33.52560377,-86.72184285
Regions Bank,Elberta,Full Service Brick and Mortar Office,25013 E. State Street,Elberta,AL,36530,30.41434152,-87.5979585
Regions Bank,Ensley Birmingham,Full Service Brick and Mortar Office,1809 Avenue E,Birmingham,AL,35218,33.51389433,-86.89627079
Regions Bank,Enterprise,Full Service Brick and Mortar Office,110 E. College Street,Enterprise,AL,36330,31.314618,-85.8528135
Regions Bank,Fairfield Valley Rd,Full Service Brick and Mortar Office,5701 Valley Road,Fairfield,AL,35064,33.47989867,-86.92372676
Regions Bank,Fairhope S Greeno Rd,Full Service Brick and Mortar Office,98 Greeno Road S.,Fairhope,AL,36532,30.52043044,-87.88618192
Regions Bank,Fairhope Section Street,Full Service Brick and Mortar Office,55 N Section Street,Fairhope,AL,36532,30.52476878,-87.90301988
Regions Bank,Fayette 2nd Ave Main Remote Drive Th,Limited Service Facility Office,205 2nd Avenue Ne,Fayette,AL,35555,33.6858454,-87.82899719
Regions Bank,Fayette Temple Ave Main,Full Service Brick and Mortar Office,123 Temple Avenue N.,Fayette,AL,35555,33.68492485,-87.83100097
Regions Bank,Five Points,Full Service Brick and Mortar Office,613 Pratt Avenue Northeast,Huntsville,AL,35801,34.7388295,-86.5772235
Regions Bank,Five Points South,Full Service Brick and Mortar Office,941 20th Street South,Birmingham,AL,35205,33.502284,-86.7970935
Regions Bank,Five Points W Lomb Ave,Full Service Brick and Mortar Office,2800 Lomb Avenue,Birmingham,AL,35208,33.50064458,-86.86967965
Regions Bank,Florence Blvd,Full Service Brick and Mortar Office,150 Ana Drive,Florence,AL,35630,34.82993388,-87.63168043
Regions Bank,Florence N Seminary St Main,Full Service Brick and Mortar Office,321 North Seminary Street,Florence,AL,35630,34.80302544,-87.67610524
Regions Bank,Foley W Roosevelt Ave,Full Service Brick and Mortar Office,100 W. Roosevelt Avenue,Foley,AL,36535,30.40192745,-87.68420147
Regions Bank,Forestdale Tomahawk Rd,Full Service Brick and Mortar Office,1304 Tomahawk Road,Birmingham,AL,35214,33.56153945,-86.890965
Regions Bank,Ft Payne Main,Full Service Brick and Mortar Office,"100 Grand Avenue, South",Fort Payne,AL,35967,34.39686626,-85.76447696
Regions Bank,Gadsden Broad St Main,Full Service Brick and Mortar Office,200 Broad Street,Gadsden,AL,35901,34.01186542,-86.00114111
Regions Bank,Galleria Hoover,Full Service Brick and Mortar Office,3065 John Hawkins Parkway,Birmingham,AL,35244,33.374799,-86.8077315
Regions Bank,Gardendale Odum Rd,Full Service Brick and Mortar Office,895 Odum Road,Gardendale,AL,35071,33.64829083,-86.82562615
Regions Bank,Gilbertown,Full Service Brick and Mortar Office,13540 Choctaw Avenue,Gilbertown,AL,36908,31.88016532,-88.32205119
Regions Bank,Glencoe,Full Service Brick and Mortar Office,510 W. Main Street,Gadsden,AL,35905,33.96067663,-85.93892532
Regions Bank,Golden Springs,Full Service Brick and Mortar Office,3420 Greenbrier Dear Road,Anniston,AL,36207,33.62924651,-85.787712
Regions Bank,Graysville,Full Service Brick and Mortar Office,63 Second Avenue Sw,Graysville,AL,35073,33.62809052,-86.9735475
Regions Bank,Green Lantern,Full Service Brick and Mortar Office,2911 Mcgehee Road,Montgomery,AL,36111,32.338026,-86.261157
Regions Bank,Greensprings Valley Avenue,Full Service Brick and Mortar Office,100 Green Springs Highway,Birmingham,AL,35209,33.47052633,-86.82434088
Regions Bank,Greystone,Full Service Brick and Mortar Office,5420 Highway 280,Birmingham,AL,35242,33.41636201,-86.66720899
Regions Bank,Gulf Shores 1400 Gulf Shores Pkwy Br,Full Service Brick and Mortar Office,1400 Gulf Shores Parkway,Gulf Shores,AL,36542,30.26370634,-87.68846819
Regions Bank,Guntersville 2025 Gunter Ave Main Br,Full Service Brick and Mortar Office,2025 Gunter Avenue,Guntersville,AL,35976,34.33785124,-86.31301965
Regions Bank,Hampton Cove,Full Service Brick and Mortar Office,6639 Hwy 431 South,Owens Cross Roads,AL,35763,34.659441,-86.482575
Regions Bank,Hartselle,Full Service Brick and Mortar Office,610 Main Street W.,Hartselle,AL,35640,34.442082,-86.941026
Regions Bank,Helena Hwy 17,Full Service Brick and Mortar Office,4915 Highway 17,Helena,AL,35080,33.27819831,-86.85250787
Regions Bank,Homewood Independence Plaza,Full Service Brick and Mortar Office,1 Independence Plaza,Birmingham,AL,35209,33.47953976,-86.78741257
Regions Bank,Hoover Green Valley,Full Service Brick and Mortar Office,1592 Montgomery Highway,Birmingham,AL,35216,33.402501,-86.8066065
Regions Bank,Hueytown,Full Service Brick and Mortar Office,109 Hueytown Plaza,Bessemer,AL,35023,33.44787038,-86.99629252
Regions Bank,Huffman,Full Service Brick and Mortar Office,9700 Parkway East,Birmingham,AL,35215,33.59970546,-86.69261114
Regions Bank,Hughes Rd,Full Service Brick and Mortar Office,351 Hughes Road,Madison,AL,35758,34.70817946,-86.74199198
Regions Bank,Huntsville Main,Full Service Brick and Mortar Office,200 Clinton Avenue West,Huntsville,AL,35801,34.73056428,-86.58806165
Regions Bank,Hwy 280,Full Service Brick and Mortar Office,3548 Us Highway 431 N.,Phenix City,AL,36867,32.49532268,-85.04082191
Regions Bank,Indian Hills 1549 Mcfarland Blvd Bra,Full Service Brick and Mortar Office,1549 Mcfarland Boulevard N.,Tuscaloosa,AL,35406,33.23319781,-87.53752211
Regions Bank,Industrial Parkway,Full Service Brick and Mortar Office,840 Industrial Parkway,Saraland,AL,36571,30.80087732,-88.09321045
Regions Bank,Inverness Valleydale,Full Service Brick and Mortar Office,102 Inverness Plaza,Birmingham,AL,35242,33.42098431,-86.69711748
Regions Bank,Irondale,Full Service Brick and Mortar Office,1845 Crestwood Boulevard,Birmingham,AL,35210,33.5336494,-86.70205183
Regions Bank,Jackson N College Ave,Full Service Brick and Mortar Office,1831 North College Avenue,Jackson,AL,36545,31.5295882,-87.89195946
Regions Bank,Jacksonville Al,Full Service Brick and Mortar Office,100 Pelham Rd S.,Jacksonville,AL,36265,33.81341341,-85.76126597
Regions Bank,Jasper Mall,Full Service Brick and Mortar Office,310 Highway 78 East,Jasper,AL,35501,33.84965101,-87.27304476
Regions Bank,Jasper Remote Drive Thru,Limited Service Facility Office,1908 First Avenue W,Jasper,AL,35501,33.83215031,-87.27616982
Regions Bank,Jemison,Full Service Brick and Mortar Office,24651 U.S. Highway 31,Jemison,AL,35085,32.95823262,-86.7433323
Regions Bank,Lauderdale,Full Service Brick and Mortar Office,1701 Lee Street,Rogersville,AL,35652,34.82524695,-87.29233554
Regions Bank,Leeds,Full Service Brick and Mortar Office,8049 Parkway Drive,Leeds,AL,35094,33.543423,-86.542263
Regions Bank,Lily Flagg 1015 Memorial Pkwy,Full Service Brick and Mortar Office,10015 S. Memorial Parkway,Huntsville,AL,35803,34.64431063,-86.56648896
Regions Bank,Lincoln,Full Service Brick and Mortar Office,47685 Us Highway 78,Lincoln,AL,35096,33.60393478,-86.11954052
Regions Bank,Livingston Main,Full Service Brick and Mortar Office,105 W. Main Street,Livingston,AL,35470,36.38295,-85.3226955
Regions Bank,Loop,Full Service Brick and Mortar Office,2050 Airport Boulevard,Mobile,AL,36606,30.6765169,-88.09020839
Regions Bank,Madison Al,Full Service Brick and Mortar Office,8926 Madison Boulevard,Madison,AL,35758,34.676964,-86.7523545
Regions Bank,Madison Square,Full Service Brick and Mortar Office,960 Old Monrovia Road Nw,Huntsville,AL,35806,34.739163,-86.661738
Regions Bank,Madison St Huntsville,Full Service Brick and Mortar Office,508 Madison Street,Huntsville,AL,35801,34.72730427,-86.58359151
Regions Bank,Malbis,Full Service Brick and Mortar Office,30083 Woodrow Lane,Spanish Fort,AL,36527,30.66613399,-87.85274234
Regions Bank,Meridianville,Full Service Brick and Mortar Office,12076 Highway 231/431 North,Meridianville,AL,35759,34.8635643,-86.5711542
Regions Bank,Millbrook 3940 Hwy 14,Full Service Brick and Mortar Office,3940 Highway 14,Millbrook,AL,36054,32.51823715,-86.37127612
Regions Bank,Monroeville,Full Service Brick and Mortar Office,1805 S. Alabama Avenue,Monroeville,AL,36460,31.5015083,-87.31866272
Regions Bank,Montevallo,Full Service Brick and Mortar Office,910 North Main Street,Montevallo,AL,35115,33.10160836,-86.860957
Regions Bank,Montgomery Monroe St Main,Full Service Brick and Mortar Office,201 Monroe Street,Montgomery,AL,36104,32.379291,-86.305689
Regions Bank,Moores Mill Rd Auburn,Full Service Brick and Mortar Office,2154 Moores Mill Road,Auburn,AL,36831,32.58468423,-85.44423723
Regions Bank,Moores Mill Rd Huntsville,Full Service Brick and Mortar Office,1031 Winchester Road Ne,Huntsville,AL,35811,34.79880362,-86.53522831
Regions Bank,Morgan Rd Greenmor Dr,Full Service Brick and Mortar Office,1290 Greenmor Drive Se,Bessemer,AL,35022,33.337349,-86.91944406
Regions Bank,Moulton,Full Service Brick and Mortar Office,15262 Court Street,Moulton,AL,35650,34.48244613,-87.27684984
Regions Bank,Mountain Brook,Full Service Brick and Mortar Office,2721 Culver Road,Birmingham,AL,35223,33.48491383,-86.77377812
Regions Bank,Mountain Brook Office Park,Full Service Brick and Mortar Office,101 Office Park Drive,Birmingham,AL,35223,33.478587,-86.774319
Regions Bank,Mt Royal Towers,Limited Service Mobile Office,1118 Royal Tower Drive,Birmingham,AL,35209,33.4656399,-86.76778918
Regions Bank,Muscle Shoals,Full Service Brick and Mortar Office,700 Avalon Avenue,Muscle Shoals,AL,35661,34.74472949,-87.66496222
Regions Bank,Norman Bridge,Full Service Brick and Mortar Office,3720 Norman Bridge Road,Montgomery,AL,36105,32.3333247,-86.29936261
Regions Bank,North Circle,Full Service Brick and Mortar Office,4203 Ross Clark Circle,Dothan,AL,36303,31.25345845,-85.39174972
Regions Bank,North Gault,Full Service Brick and Mortar Office,"1718 Gault Avenue, North",Fort Payne,AL,35967,34.45718975,-85.70852416
Regions Bank,North Madison 7990 Hwy 72,Full Service Brick and Mortar Office,7990 Highway 72 W.,Madison,AL,35758,34.753032,-86.748741
Regions Bank,North Parkway,Full Service Brick and Mortar Office,3027 Memorial Parkway Nw,Huntsville,AL,35810,34.76450176,-86.58868858
Regions Bank,North River Tuscaloosa,Full Service Brick and Mortar Office,1775 New Watermelon Road,Tuscaloosa,AL,35406,33.261552,-87.513165
Regions Bank,North Selma Remote Drive Thru,Limited Service Facility Office,1105 Highland Avenue,Selma,AL,36703,32.43140448,-87.02404103
Regions Bank,North Water St Remote Drive Thru Bra,Limited Service Facility Office,151 N. Water St,Mobile,AL,36602,30.69555775,-88.04005053
Regions Bank,Northport Al,Full Service Brick and Mortar Office,1910 Regions Street,Northport,AL,35476,33.22856707,-87.57670533
Regions Bank,Oneonta Main,Full Service Brick and Mortar Office,201 First Avenue E.,Oneonta,AL,35121,33.94501975,-86.47581439
Regions Bank,Opelika Main Gateway Dr,Full Service Brick and Mortar Office,2401 Gateway Drive,Opelika,AL,36801,32.62197687,-85.40476025
Regions Bank,Orange Beach Blvd,Full Service Brick and Mortar Office,4100 Orange Beach Boulevard,Orange Beach,AL,36561,30.28421642,-87.58094977
Regions Bank,Oxford 804 Quintard Ave,Full Service Brick and Mortar Office,804 Quintard Avenue,Oxford,AL,36203,33.61248094,-85.82749097
Regions Bank,Oxmoor Valley,Full Service Brick and Mortar Office,601 Lakeshore Parkway,Birmingham,AL,35209,33.43910543,-86.84402967
Regions Bank,Pelham 2228 Pelham Pkwy,Full Service Brick and Mortar Office,2228 Pelham Parkway,Pelham,AL,35124,33.33462621,-86.79178579
Regions Bank,Pelham 2964 Pelham Pkwy,Full Service Brick and Mortar Office,2964 Pelham Parkway,Pelham,AL,35124,33.29794052,-86.81090954
Regions Bank,Pell City,Full Service Brick and Mortar Office,1031 Martin Street South,Pell City,AL,35128,33.57955691,-86.27481267
Regions Bank,Pinebrook Shopping Center,Full Service Brick and Mortar Office,3950 Airport Boulevard,Mobile,AL,36608,30.67612868,-88.1491884
Regions Bank,Pinson,Full Service Brick and Mortar Office,6666 Highway 75,Pinson,AL,35126,33.697296,-86.6806335
Regions Bank,Point Mallard Parkway,Full Service Brick and Mortar Office,1209 Point Mallard Pkwy,Decatur,AL,35601,34.56196343,-86.97270058
Regions Bank,Prattville Main,Full Service Brick and Mortar Office,1805 Highway 14 E,Prattville,AL,36066,32.48275484,-86.42003253
Regions Bank,Prichard,Full Service Brick and Mortar Office,524 S. Wilson Avenue,Mobile,AL,36610,30.72066309,-88.08411682
Regions Bank,Rainsville,Full Service Brick and Mortar Office,76 W. Main Street,Rainsville,AL,35986,34.49453378,-85.84819398
Regions Bank,Redstone,Full Service Brick and Mortar Office,"Building 3226, Redstone Arsenal",Huntsville,AL,35808,34.69559,-86.67165
Regions Bank,Regions Bank,Full Service Brick and Mortar Office,1900 Fifth Avenue North,Birmingham,AL,35203,33.517944,-86.809491
Regions Bank,Research Park,Full Service Brick and Mortar Office,443 Wynn Drive Nw,Huntsville,AL,35806,34.73493645,-86.65377802
Regions Bank,Riverchase,Full Service Brick and Mortar Office,1849 Montgomery Highway S,Birmingham,AL,35244,33.36957056,-86.79907004
Regions Bank,Robertsdale Main,Full Service Brick and Mortar Office,22070 Highway 59,Robertsdale,AL,36567,30.54651642,-87.70830893
Regions Bank,Rocky Ridge Remote Drive Thru,Limited Service Facility Office,3390 Morgan Drive,Birmingham,AL,35243,33.42574465,-86.77300286
Regions Bank,Roebuck 9178 Parkway E,Full Service Brick and Mortar Office,9178 Parkway East,Birmingham,AL,35206,33.58671028,-86.70115751
Regions Bank,Rsa Battle House Tower,Full Service Brick and Mortar Office,11 North Water Street,Mobile,AL,36602,30.693015,-88.0404615
Regions Bank,Saks,Full Service Brick and Mortar Office,1420 U.S. Highway 431,Anniston,AL,36206,33.71206585,-85.84200204
Regions Bank,Saraland S Hwy 43,Full Service Brick and Mortar Office,421 Highway 43 S.,Saraland,AL,36571,30.81265384,-88.07137608
Regions Bank,Scottsboro Main,Full Service Brick and Mortar Office,510 E. Laurel Street,Scottsboro,AL,35768,34.67271543,-86.02940609
Regions Bank,Selma Main Church St,Full Service Brick and Mortar Office,101 Church Street,Selma,AL,36701,32.40729195,-87.022176
Regions Bank,Semmes,Full Service Brick and Mortar Office,9001 Moffett Road,Semmes,AL,36575,30.778002,-88.2549675
Regions Bank,Skyland 1225 Skyland Blvd E,Full Service Brick and Mortar Office,1225 Skyland Boulevard E.,Tuscaloosa,AL,35405,33.16818641,-87.5205882
Regions Bank,Skyline 4100 Government Blvd,Full Service Brick and Mortar Office,4100 Government Boulevard,Mobile,AL,36693,30.635685,-88.143939
Regions Bank,Snow Road Airport,Full Service Brick and Mortar Office,9885 Airport Blvd,Mobile,AL,36608,30.670326,-88.275942
Regions Bank,Southside Birmingham,Full Service Brick and Mortar Office,539 Richard Arrington Jr. Boulevard S.,Birmingham,AL,35233,33.50827739,-86.79958547
Regions Bank,Southside Birmingham Remote Drive Th,Limited Service Facility Office,2101 6th Avenue South,Birmingham,AL,35233,33.507862,-86.79883412
Regions Bank,Southside Dothan,Full Service Brick and Mortar Office,2076 Ross Clark Circle,Dothan,AL,36301,31.19025715,-85.39707312
Regions Bank,Southwest Decatur,Full Service Brick and Mortar Office,1833 Beltline Highway Sw,Decatur,AL,35601,34.57618497,-87.01778026
Regions Bank,Spanish Fort,Full Service Brick and Mortar Office,6729-M Spanish Fort Boulevard,Spanish Fort,AL,36527,30.67010826,-87.90652847
Regions Bank,Springhill Mobile,Full Service Brick and Mortar Office,4376 Old Shell Road,Mobile,AL,36608,30.69758881,-88.14273006
Regions Bank,St Vincents Hospital,Full Service Brick and Mortar Office,"2660 10th Avenue S., Suite 103",Birmingham,AL,35205,33.50695454,-86.78786861
Regions Bank,Summit,Full Service Brick and Mortar Office,341 Summit Boulevard,Birmingham,AL,35243,33.45210397,-86.73091455
Regions Bank,Sylacauga,Full Service Brick and Mortar Office,70 James B. Payton Boulevard,Sylacauga,AL,35150,34.50507859,-86.25868766
Regions Bank,Talladega Main,Full Service Brick and Mortar Office,215 North Street W.,Talladega,AL,35160,33.43519029,-86.10436412
Regions Bank,Tannehill Promenade,Full Service Brick and Mortar Office,5041 Bond Blvd,Bessemer,AL,35022,33.333579,-86.994738
Regions Bank,Tarrant,Full Service Brick and Mortar Office,1601 Pinson Street,Birmingham,AL,35217,33.58341,-86.772141
Regions Bank,Taylorville Al,Full Service Brick and Mortar Office,9800 Highway 69 S.,Tuscaloosa,AL,35405,33.116598,-87.552225
Regions Bank,Theodore - Hamilton Blvd,Full Service Brick and Mortar Office,5810 Highway 90,Theodore,AL,36582,30.555396,-88.1727975
Regions Bank,Thirty Second St,Full Service Brick and Mortar Office,"3121 Third Avenue, S.",Birmingham,AL,35233,33.51756565,-86.78667875
Regions Bank,Thomasville,Full Service Brick and Mortar Office,32515 Highway 43,Thomasville,AL,36784,31.91448412,-87.74098185
Regions Bank,Tillmans Corner 5436 Hwy 90,Full Service Brick and Mortar Office,"5436 Highway 90, W.",Mobile,AL,36619,30.587526,-88.170417
Regions Bank,Trace Crossings,Full Service Brick and Mortar Office,2531 John Hawkins Parkway,Birmingham,AL,35244,33.354666,-86.844258
Regions Bank,Trussville Downtown,Full Service Brick and Mortar Office,193 Main Street,Trussville,AL,35173,33.619509,-86.6074635
Regions Bank,Trussville Marketplace,Full Service Brick and Mortar Office,429 Main Street,Trussville,AL,35173,33.61681297,-86.61747427
Regions Bank,Tuscaloosa Main 9th St,Full Service Brick and Mortar Office,2222 9th Street,Tuscaloosa,AL,35401,33.20661137,-87.56478662
Regions Bank,Uab,Full Service Brick and Mortar Office,1900 University Boulevard,Birmingham,AL,35233,33.504939,-86.8007745
Regions Bank,University Huntsville,Full Service Brick and Mortar Office,4003 University Drive,Huntsville,AL,35816,34.734663,-86.6286405
Regions Bank,University Mall,Full Service Brick and Mortar Office,1501 Mcfarland Boulevard E.,Tuscaloosa,AL,35404,33.194088,-87.52293
Regions Bank,University Oaks,Full Service Brick and Mortar Office,5202 Cottage Hill Road,Mobile,AL,36609,30.64820093,-88.16210487
Regions Bank,University South Al,Full Service Brick and Mortar Office,1 S. University Boulevard,Mobile,AL,36608,30.68801351,-88.173462
Regions Bank,University Troy,Full Service Brick and Mortar Office,801 George Wallace Drive,Troy,AL,36081,31.78345742,-85.95351667
Regions Bank,University Tuscaloosa,Full Service Brick and Mortar Office,504 Paul W Bryant Dr,Tuscaloosa,AL,35401,33.20601047,-87.54274506
Regions Bank,Valleydale Marketplace,Full Service Retail Office,2668 Valleydale Road,Birmingham,AL,35244,33.38390066,-86.73950942
Regions Bank,Vaughn East,Full Service Brick and Mortar Office,4750 Vaughn Road,Montgomery,AL,36106,32.344137,-86.2250265
Regions Bank,Vestavia 529 Montgomery Hwy,Full Service Brick and Mortar Office,529 Montgomery Highway,Birmingham,AL,35216,33.449409,-86.7884445
Regions Bank,Village West,Full Service Brick and Mortar Office,4585 Mobile Highway,Montgomery,AL,36108,32.3131149,-86.34984615
Regions Bank,West Lake Bessemer,Full Service Brick and Mortar Office,731 Ninth Avenue N.,Bessemer,AL,35020,33.393744,-86.9709555
Regions Bank,Western,Full Service Brick and Mortar Office,3118 Mobile Highway,Montgomery,AL,36108,32.34635173,-86.33923421
Regions Bank,Westgate Enterprise Remote Drive Thr,Limited Service Facility Office,621 Boll Weevil Circle,Enterprise,AL,36330,31.32127772,-85.83102648
Regions Bank,Wetumpka Us Hwy 231,Full Service Brick and Mortar Office,5100 U.S. Highway 231,Wetumpka,AL,36092,32.51531365,-86.2120773
Regions Bank,Wildwood Center,Full Service Brick and Mortar Office,210 Lakeshore Parkway,Birmingham,AL,35209,33.44824793,-86.82305121
Regions Bank,Woodlawn Birmingham,Full Service Brick and Mortar Office,5428 First Avenue North,Birmingham,AL,35212,33.51421539,-86.80636837
Regions Bank,York,Full Service Brick and Mortar Office,582 Fourth Avenue,York,AL,36925,32.48209796,-88.31523089
Regions Bank,Zelda Rd,Full Service Brick and Mortar Office,2736 Zelda Road,Montgomery,AL,36106,32.362614,-86.2666875
Wells Fargo Bank,280 Bypass,Full Service Brick and Mortar Office,1014 280 Bypass,Phenix City,AL,36867,32.46562961,-85.02571981
Wells Fargo Bank,Abbeville,Full Service Brick and Mortar Office,513 Kirkland Street,Abbeville,AL,36310,31.5612502,-85.25295027
Wells Fargo Bank,Adamsville,Full Service Brick and Mortar Office,2709 Arnett Street,Birmingham,AL,35214,33.582771,-86.9217795
Wells Fargo Bank,Airport Cody,Full Service Brick and Mortar Office,7105 Airport Boulevard,Mobile,AL,36608,30.685617,-88.20801
Wells Fargo Bank,Airport University,Full Service Brick and Mortar Office,4650 Airport Blvd,Mobile,AL,36608,30.676716,-88.170147
Wells Fargo Bank,Albertville,Full Service Brick and Mortar Office,203 West Main Street,Albertville,AL,35950,34.26863641,-86.21089968
Wells Fargo Bank,Andalusia,Full Service Brick and Mortar Office,101 West By-Pass,Andalusia,AL,36420,31.31475884,-86.49885259
Wells Fargo Bank,Anniston Main,Full Service Brick and Mortar Office,1000 Quintard Avenue,Anniston,AL,36201,33.6571683,-85.8269283
Wells Fargo Bank,Atalla,Full Service Brick and Mortar Office,301 Fifth Avenue Nw,Attalla,AL,35954,34.02204856,-86.08839698
Wells Fargo Bank,Auburn,Full Service Brick and Mortar Office,307 North Gay Street,Auburn,AL,36830,32.610816,-85.4803665
Wells Fargo Bank,Azalea Michael,Full Service Brick and Mortar Office,401 Azalea Road,Mobile,AL,36609,30.66965825,-88.15045915
Wells Fargo Bank,Bay Minette Main,Full Service Brick and Mortar Office,119 Courthouse Square,Bay Minette,AL,36507,30.882961,-87.7735962
Wells Fargo Bank,Bell Road,Full Service Brick and Mortar Office,6240 Atlanta Highway,Montgomery,AL,36117,32.381739,-86.1919515
Wells Fargo Bank,Beltline,Full Service Brick and Mortar Office,922 Beltline Rd,Decatur,AL,35601,34.56038235,-87.00259825
Wells Fargo Bank,Bessemer,Full Service Brick and Mortar Office,601 North 19th Street,Bessemer,AL,35020,33.40485,-86.9569875
Wells Fargo Bank,Boaz,Full Service Brick and Mortar Office,201 Billy Dyar Boulevard,Boaz,AL,35957,34.19541864,-86.15293767
Wells Fargo Bank,Brook Highland,Full Service Brick and Mortar Office,5376 Highway 280,Birmingham,AL,35242,33.41902681,-86.67363591
Wells Fargo Bank,Capitol Complex,Full Service Brick and Mortar Office,800 Madison Avenue,Montgomery,AL,36104,32.38018503,-86.29778347
Wells Fargo Bank,Center Point,Full Service Brick and Mortar Office,2424 Center Point Parkway,Birmingham,AL,35215,33.65044523,-86.68331345
Wells Fargo Bank,Circle South,Full Service Brick and Mortar Office,2218 Ross Clark Circle,Dothan,AL,36301,31.19191319,-85.40508251
Wells Fargo Bank,Colonial Promenade,Full Service Brick and Mortar Office,500 Colonial Promenade Parkway,Alabaster,AL,35007,33.23458425,-86.80489751
Wells Fargo Bank,Coosa Valley,Full Service Brick and Mortar Office,3400 Rainbow Drive,Rainbow City,AL,35906,33.95640736,-86.04016907
Wells Fargo Bank,Cornerstone,Full Service Brick and Mortar Office,7690 Vaughn Rd,Montgomery,AL,36116,32.33851845,-86.18392582
Wells Fargo Bank,Cottage Hill,Full Service Brick and Mortar Office,6391 Cottage Hill Road,Mobile,AL,36609,30.64015193,-88.19031438
Wells Fargo Bank,Cullman Main,Full Service Brick and Mortar Office,300 2nd Avenue Southwest,Cullman,AL,35055,34.15851,-86.848614
Wells Fargo Bank,Daleville,Full Service Brick and Mortar Office,70 Old Hwy 134,Daleville,AL,36322,31.30723905,-85.71563164
Wells Fargo Bank,Dalraida,Full Service Brick and Mortar Office,3949 Atlanta Highway,Montgomery,AL,36109,32.38275521,-86.24426264
Wells Fargo Bank,Daphne,Full Service Brick and Mortar Office,2535 Highway 98,Daphne,AL,36526,30.61655652,-87.9065805
Wells Fargo Bank,Dauphin Street,Full Service Brick and Mortar Office,3001 Dauphin Street,Mobile,AL,36606,30.689055,-88.1149095
Wells Fargo Bank,Dothan Main,Full Service Brick and Mortar Office,"2999 Ross Clark Circle, Southwest",Dothan,AL,36301,31.22321907,-85.43251009
Wells Fargo Bank,Downtown,Full Service Brick and Mortar Office,423 Broad Street,Selma,AL,36701,32.41174428,-87.02223618
Wells Fargo Bank,Downtown,Full Service Brick and Mortar Office,409 Madison Street,Huntsville,AL,35801,34.728201,-86.583897
Wells Fargo Bank,East Lake,Full Service Brick and Mortar Office,"7524 First Avenue, North",Birmingham,AL,35206,33.55998875,-86.73036297
Wells Fargo Bank,Eastchase,Full Service Brick and Mortar Office,7315 Eastchase Pkwy,Montgomery,AL,36117,32.36074822,-86.16443711
Wells Fargo Bank,Eastside,Full Service Brick and Mortar Office,"1125 Ross Clark Circle, Southeast",Dothan,AL,36301,31.21402996,-85.36151976
Wells Fargo Bank,Eastwood,Full Service Brick and Mortar Office,1644 Montclair Road,Birmingham,AL,35210,33.52595562,-86.72099329
Wells Fargo Bank,Elba Main,Full Service Brick and Mortar Office,402 Collier Street,Elba,AL,36323,31.416372,-86.066118
Wells Fargo Bank,Enterprise Westgate,Full Service Brick and Mortar Office,619 Boll Weevil Circle,Enterprise,AL,36330,31.31822672,-85.83061349
Wells Fargo Bank,Fairhope,Full Service Brick and Mortar Office,50 North Section Street,Fairhope,AL,36532,30.52468733,-87.90295708
Wells Fargo Bank,Five Points West,Full Service Brick and Mortar Office,2136 Bessemer Road,Birmingham,AL,35208,33.49504066,-86.87933146
Wells Fargo Bank,Flintridge,Full Service Brick and Mortar Office,6552 Aaron Aronov Drive,Fairfield,AL,35064,33.47250346,-86.92209988
Wells Fargo Bank,Florala,Full Service Brick and Mortar Office,22769 Lakeshore Boulevard,Florala,AL,36442,31.00274074,-86.32608035
Wells Fargo Bank,Florence Main,Full Service Brick and Mortar Office,102 E Dr Hicks Boulevard,Florence,AL,35630,34.79777177,-87.67334802
Wells Fargo Bank,Florence Square,Full Service Brick and Mortar Office,2716 Florence Boulevard,Florence,AL,35630,34.82997482,-87.62754655
Wells Fargo Bank,Foley,Full Service Brick and Mortar Office,700 South Mckenzie Street,Foley,AL,36535,30.39911072,-87.68333237
Wells Fargo Bank,Gadsden Main,Full Service Brick and Mortar Office,250 South 7th Street,Gadsden,AL,35901,34.01255774,-86.00878727
Wells Fargo Bank,Gardendale,Full Service Brick and Mortar Office,665 Fieldstown Road,Gardendale,AL,35071,33.65229455,-86.82314185
Wells Fargo Bank,Government Boulevard,Full Service Brick and Mortar Office,2745 Government Boulevard,Mobile,AL,36606,30.663261,-88.106418
Wells Fargo Bank,Greensprings,Full Service Brick and Mortar Office,325 West Valley Avenue,Birmingham,AL,35209,33.468615,-86.82939
Wells Fargo Bank,Guin,Full Service Brick and Mortar Office,7577 U.S. Highway 43,Guin,AL,35563,33.96560364,-87.91365689
Wells Fargo Bank,Gulf Shores,Full Service Brick and Mortar Office,1617 Gulf Shores Parkway,Gulf Shores,AL,36542,30.26904096,-87.68834567
Wells Fargo Bank,Guntersville,Full Service Brick and Mortar Office,600 Gunter Avenue,Guntersville,AL,35976,34.35657623,-86.2956867
Wells Fargo Bank,Hamilton Main,Full Service Brick and Mortar Office,320 Bexar Avenue West,Hamilton,AL,35570,34.14325672,-87.99241285
Wells Fargo Bank,Hartselle,Full Service Brick and Mortar Office,"611 West Chestnut Street, Northwest",Hartselle,AL,35640,34.443198,-86.9404455
Wells Fargo Bank,Highway 78,Full Service Brick and Mortar Office,2721 Hwy 78 East,Jasper,AL,35501,33.84238804,-87.24279096
Wells Fargo Bank,Homewood,Full Service Brick and Mortar Office,"1725 28th Avenue, South",Birmingham,AL,35209,33.48076038,-86.79284135
Wells Fargo Bank,Hoover,Full Service Brick and Mortar Office,1600 Montgomery Highway,Birmingham,AL,35216,33.400494,-86.806047
Wells Fargo Bank,Hueytown,Full Service Brick and Mortar Office,2900 Allison Bonnett Mem Dr,Bessemer,AL,35023,33.453126,-86.9710275
Wells Fargo Bank,Indian Hills,Full Service Brick and Mortar Office,1201 Mcfarland Boulevard North,Tuscaloosa,AL,35406,33.23732323,-87.56990664
Wells Fargo Bank,Inverness,Full Service Brick and Mortar Office,4651 Highway 280,Birmingham,AL,35242,33.42505067,-86.70324281
Wells Fargo Bank,Jacksonville Main,Full Service Brick and Mortar Office,1527 Pelham Road South,Jacksonville,AL,36265,33.79279954,-85.76136212
Wells Fargo Bank,Jones Valley,Full Service Brick and Mortar Office,2754 Carl T Jones Parkway,Huntsville,AL,35802,34.67622462,-86.5425104
Wells Fargo Bank,Loxley,Full Service Brick and Mortar Office,3625 South Hickory Street,Loxley,AL,36551,30.61706662,-87.7529459
Wells Fargo Bank,Madison Boulevard,Full Service Brick and Mortar Office,9044 Madison Boulevard,Madison,AL,35758,34.67500509,-86.75614207
Wells Fargo Bank,Madison Highway 72,Full Service Brick and Mortar Office,7796 Highway 72 West,Madison,AL,35758,34.754445,-86.741469
Wells Fargo Bank,Marketplace,Full Service Brick and Mortar Office,4316 Highway 280,Alexander City,AL,35010,32.92075496,-85.95788003
Wells Fargo Bank,Mcclellan,Full Service Brick and Mortar Office,21 Bill Robinson Parkway,Anniston,AL,36206,33.72189588,-85.81836045
Wells Fargo Bank,Medical Center,Full Service Brick and Mortar Office,1763 Springhill Avenue,Mobile,AL,36607,30.69187155,-88.08215739
Wells Fargo Bank,Metro,Full Service Brick and Mortar Office,2520 Eastern Bypass,Montgomery,AL,36117,32.34796305,-86.2223425
Wells Fargo Bank,Moffat Road,Full Service Brick and Mortar Office,4725 Moffat Road,Mobile,AL,36618,30.71210806,-88.13172262
Wells Fargo Bank,Mountain Brook,Full Service Brick and Mortar Office,2843 Cahaba Road,Birmingham,AL,35223,33.482367,-86.7725145
Wells Fargo Bank,North Birmingham,Full Service Brick and Mortar Office,"2921 26th Street, North",Birmingham,AL,35207,33.551694,-86.8174875
Wells Fargo Bank,North Parkway,Full Service Brick and Mortar Office,"2525 Memorial Parkway, Northwest",Huntsville,AL,35810,34.75760082,-86.59322143
Wells Fargo Bank,North Shelby,Full Service Brick and Mortar Office,3350 Pelham Parkway,Pelham,AL,35124,33.27561325,-86.81159735
Wells Fargo Bank,Northport,Full Service Brick and Mortar Office,2200 Mcfarland Boulevard,Northport,AL,35476,33.2398969,-87.57890838
Wells Fargo Bank,Northside,Full Service Brick and Mortar Office,3051 Montgomery Highway,Dothan,AL,36303,31.25128045,-85.42726102
Wells Fargo Bank,Oak Mountain,Full Service Brick and Mortar Office,2261 Highway 31 South,Pelham,AL,35124,33.33315676,-86.7917611
Wells Fargo Bank,Opelika,Full Service Brick and Mortar Office,603 South Sixth Street,Opelika,AL,36801,32.64509433,-85.37176006
Wells Fargo Bank,Opp Main,Full Service Brick and Mortar Office,110 Main Street,Opp,AL,36467,31.28249627,-86.25573751
Wells Fargo Bank,Oxford,Full Service Brick and Mortar Office,409 East Choccolocco Street,Oxford,AL,36203,33.61508045,-85.82869708
Wells Fargo Bank,Ozark Main,Full Service Brick and Mortar Office,293 Andrews Avenue,Ozark,AL,36360,31.45825046,-85.64335145
Wells Fargo Bank,Pinson,Full Service Brick and Mortar Office,4394 Main Street,Pinson,AL,35126,33.69132345,-86.68202513
Wells Fargo Bank,Plaza North,Full Service Brick and Mortar Office,1943 Reeves Street,Dothan,AL,36303,31.25036283,-85.39013007
Wells Fargo Bank,Prattville Town Center,Full Service Brick and Mortar Office,2783 Legends Pkwy,Prattville,AL,36066,32.45869546,-86.39504044
Wells Fargo Bank,Research Park,Full Service Brick and Mortar Office,6244 University Drive Nw,Huntsville,AL,35806,34.745742,-86.6812185
Wells Fargo Bank,Riverchase,Full Service Brick and Mortar Office,3089 Highway 150,Birmingham,AL,35244,33.37630537,-86.80502813
Wells Fargo Bank,Riverchase Galleria Nd,Limited Service Messenger Office,3000 Riverchase Galleria,Birmingham,AL,35244,33.37733756,-86.81052769
Wells Fargo Bank,Roanoke,Full Service Brick and Mortar Office,607 Main St,Roanoke,AL,36274,33.15081383,-85.36982273
Wells Fargo Bank,Rocky Ridge,Full Service Brick and Mortar Office,2527 Rocky Ridge Road,Birmingham,AL,35243,33.42562838,-86.77275456
Wells Fargo Bank,Roebuck,Full Service Brick and Mortar Office,9300 Parkway East,Birmingham,AL,35215,33.58914505,-86.69808884
Wells Fargo Bank,Saraland,Full Service Brick and Mortar Office,907 South Highway 43,Saraland,AL,36571,30.80188261,-88.07201812
Wells Fargo Bank,Selma Main,Full Service Brick and Mortar Office,2605 Citizens Parkway,Selma,AL,36701,32.4356573,-87.02359882
Wells Fargo Bank,Skyland Promenade,Full Service Brick and Mortar Office,1301 Skyland Boulevard,Tuscaloosa,AL,35405,33.16823401,-87.51992687
Wells Fargo Bank,South,Full Service Brick and Mortar Office,1606 Town Square Southwest,Cullman,AL,35055,34.16146724,-86.83588036
Wells Fargo Bank,Spanish Fort Town Center,Full Service Brick and Mortar Office,10000 Town Center Ave,Spanish Fort,AL,36527,30.66502953,-87.90974092
Wells Fargo Bank,Summit,Full Service Brick and Mortar Office,301 Summit Blvd,Birmingham,AL,35243,33.44999025,-86.729714
Wells Fargo Bank,Sylacauga,Full Service Brick and Mortar Office,911 West Fort Williams Street,Sylacauga,AL,35150,33.16733151,-86.26449094
Wells Fargo Bank,Tannehill,Full Service Brick and Mortar Office,4901 Promenade Pkwy,Bessemer,AL,35022,33.33293658,-86.99046807
Wells Fargo Bank,Thirteenth Street Phenix City,Full Service Brick and Mortar Office,616 13th Street,Phenix City,AL,36867,32.47091646,-85.00180019
Wells Fargo Bank,Tillmans Corner,Full Service Brick and Mortar Office,5417 Highway 90 West,Mobile,AL,36619,30.588966,-88.169094
Wells Fargo Bank,Tower,Full Service Brick and Mortar Office,420 North 20th St,Birmingham,AL,35203,33.51784167,-86.80809455
Wells Fargo Bank,Tower Remote Mb,Limited Service Facility Office,401 19th Street North,Birmingham,AL,35203,33.51660657,-86.80891497
Wells Fargo Bank,Trace Crossing,Full Service Brick and Mortar Office,2527 John Hawkins Pkwy,Birmingham,AL,35244,33.354693,-86.844924
Wells Fargo Bank,Troy Main,Full Service Brick and Mortar Office,855 Highway 231 S,Troy,AL,36081,31.78697032,-85.96777634
Wells Fargo Bank,Trussville,Full Service Brick and Mortar Office,5953 Chalkville Mountain Lane,Birmingham,AL,35235,33.63904798,-86.62250536
Wells Fargo Bank,Tuscaloosa Main,Full Service Brick and Mortar Office,1427 Greensboro Avenue,Tuscaloosa,AL,35401,33.200361,-87.5639025
Wells Fargo Bank,Uab,Full Service Brick and Mortar Office,316 18th St South,Birmingham,AL,35233,33.507765,-86.8052475
Wells Fargo Bank,University,Full Service Brick and Mortar Office,4012 University Drive,Huntsville,AL,35816,34.73506849,-86.629779
Wells Fargo Bank,Vestavia,Full Service Brick and Mortar Office,641 Montgomery Highway,Birmingham,AL,35216,33.447375,-86.7898755
Wells Fargo Bank,Village Mall,Full Service Brick and Mortar Office,2001 University Drive,Auburn,AL,36830,32.62434657,-85.448667
Wells Fargo Bank,Zelda Road,Full Service Brick and Mortar Office,2773 Zelda Road,Montgomery,AL,36106,32.36254708,-86.26569783
BBVA USA,31 & Valleydale,Full Service Brick and Mortar Office,1950 Highway 31 South,Birmingham,AL,35244,33.34845547,-86.7955312
BBVA USA,Albertville,Full Service Brick and Mortar Office,300 West Main Street,Albertville,AL,35950,34.26877551,-86.21146987
BBVA USA,Anniston,Full Service Brick and Mortar Office,801 Noble Street,Anniston,AL,36201,33.65493231,-85.82972806
BBVA USA,Athens East,Full Service Brick and Mortar Office,1003 Highway 72 East,Athens,AL,35611,34.78698648,-86.95980738
BBVA USA,Athens Main,Full Service Brick and Mortar Office,105 West Green Street,Athens,AL,35611,34.80111849,-86.97011576
BBVA USA,Auburn Main,Full Service Brick and Mortar Office,101 South College Street,Auburn,AL,36830,32.606316,-85.481388
BBVA USA,Bbva Usa,Full Service Brick and Mortar Office,15 20th Street S,Birmingham,AL,35233,33.51273582,-86.80442244
BBVA USA,Bel Air,Full Service Brick and Mortar Office,321 Bel Air Boulevard,Mobile,AL,36606,30.674691,-88.11791454
BBVA USA,Birmingham Financial Center,Full Service Brick and Mortar Office,505 North 20th Street,Birmingham,AL,35203,33.518646,-86.807952
BBVA USA,Brookwood,Full Service Brick and Mortar Office,501 Shades Creek Parkway,Birmingham,AL,35209,33.468777,-86.775372
BBVA USA,Cahaba Heights,Full Service Brick and Mortar Office,3960 Crosshaven Drive,Birmingham,AL,35243,33.46075696,-86.73125903
BBVA USA,Chickasaw,Full Service Brick and Mortar Office,365 North Craft Highway,Mobile,AL,36611,30.770568,-88.0757955
BBVA USA,Cloverleaf Plaza,Full Service Brick and Mortar Office,5399 Highway 90 West,Mobile,AL,36619,30.590721,-88.1685495
BBVA USA,Cornerstone,Full Service Brick and Mortar Office,7870 Vaughn Road,Montgomery,AL,36116,32.33857346,-86.18157897
BBVA USA,Cottage Hill,Full Service Brick and Mortar Office,2290 Hillcrest Road,Mobile,AL,36695,30.642705,-88.19080751
BBVA USA,Cox Creek,Full Service Brick and Mortar Office,210 Cox Creek Parkway,Florence,AL,35630,34.83174378,-87.62825015
BBVA USA,Craft Farms,Full Service Brick and Mortar Office,3830 Gulf Shores Parkway,Gulf Shores,AL,36542,30.303882,-87.68291971
BBVA USA,Crestline,Full Service Brick and Mortar Office,117 Euclid Avenue,Birmingham,AL,35213,33.503733,-86.7560895
BBVA USA,Crichton,Full Service Brick and Mortar Office,2901 Springhill Avenue,Mobile,AL,36607,30.69903474,-88.10941995
BBVA USA,Cullman Main,Full Service Brick and Mortar Office,1715 Second Avenue Southwest,Cullman,AL,35055,34.15752221,-86.8346687
BBVA USA,Daphne,Full Service Brick and Mortar Office,28000 Us Highway 98,Daphne,AL,36526,30.63265576,-87.91127883
BBVA USA,Dauphin Island Parkway,Full Service Brick and Mortar Office,2607 Dauphin Island Parkway,Mobile,AL,36605,30.61781513,-88.07442699
BBVA USA,Decatur Beltline,Full Service Brick and Mortar Office,2009-C Beltline Road Southwest,Decatur,AL,35601,34.576821,-87.019947
BBVA USA,Decatur Main,Full Service Brick and Mortar Office,404 Well Street Northeast,Decatur,AL,35601,34.60694061,-86.98221045
BBVA USA,Dothan Main,Full Service Brick and Mortar Office,1263 West Main Street,Dothan,AL,36301,31.22665354,-85.40835167
BBVA USA,Dothan West,Full Service Brick and Mortar Office,2872 West Main Street,Dothan,AL,36305,31.22858853,-85.43366054
BBVA USA,Eastdale Mall,Full Service Brick and Mortar Office,3508 Eastdale Circle,Montgomery,AL,36117,32.38430067,-86.20288542
BBVA USA,Eastwood Village,Full Service Brick and Mortar Office,1668 Montclair Road,Birmingham,AL,35210,33.52711222,-86.71821387
BBVA USA,Eight Mile,Full Service Brick and Mortar Office,4565 Saint Stephens Road,Eight Mile,AL,36613,30.764709,-88.1286975
BBVA USA,Eufaula Main,Full Service Brick and Mortar Office,223 East Broad Street,Eufaula,AL,36027,31.89286797,-85.14344636
BBVA USA,Eufaula Square,Full Service Brick and Mortar Office,1009 South Eufaula Avenue,Eufaula,AL,36027,31.87963216,-85.14763667
BBVA USA,Fairhope Main,Full Service Brick and Mortar Office,36 North Section Street,Fairhope,AL,36532,30.52458294,-87.90293978
BBVA USA,Florence Main,Full Service Brick and Mortar Office,412 North Court Street,Florence,AL,35630,34.80319475,-87.67780243
BBVA USA,Forest Hills,Full Service Brick and Mortar Office,3460 Atlanta Highway,Montgomery,AL,36109,32.38515738,-86.25798096
BBVA USA,Fort Payne Main,Full Service Brick and Mortar Office,200 Gault Avenue North,Fort Payne,AL,35967,34.4417376,-85.72202481
BBVA USA,Gadsden Main,Full Service Brick and Mortar Office,601 Broad Street,Gadsden,AL,35901,34.01447266,-86.00638836
BBVA USA,Governors Drive,Full Service Brick and Mortar Office,"114 Governors Drive, Southeast",Huntsville,AL,35801,34.72008235,-86.57785527
BBVA USA,Green Springs,Full Service Brick and Mortar Office,198 Green Springs Highway,Birmingham,AL,35209,33.46777678,-86.82313491
BBVA USA,Greeno Road,Full Service Brick and Mortar Office,920 Fairhope Avenue,Fairhope,AL,36532,30.52361848,-87.88378016
BBVA USA,Haysland Square,Full Service Brick and Mortar Office,"100 Cameron Road, Southwest",Huntsville,AL,35802,34.64990659,-86.56820502
BBVA USA,Homewood,Full Service Brick and Mortar Office,1908 29th Avenue South,Birmingham,AL,35209,33.47960586,-86.78913462
BBVA USA,Hoover,Full Service Brick and Mortar Office,1560 Montgomery Highway,Birmingham,AL,35216,33.406578,-86.807448
BBVA USA,Huntsville Northwest,Full Service Brick and Mortar Office,"2004 Country Club Avenue, Northwest",Huntsville,AL,35816,34.74489834,-86.60243619
BBVA USA,Inverness,Full Service Brick and Mortar Office,104 Inverness Plaza,Birmingham,AL,35242,33.42085583,-86.6972211
BBVA USA,Jacksonville Square,Full Service Brick and Mortar Office,817 South Pelham Road,Jacksonville,AL,36265,33.80449463,-85.76135501
BBVA USA,Jasper Main,Full Service Brick and Mortar Office,1713 Alabama Avenue,Jasper,AL,35501,33.8346956,-87.2745627
BBVA USA,Jordan Lane,Full Service Brick and Mortar Office,"1002 Jordan Lane, Northwest",Huntsville,AL,35816,34.73614028,-86.6272369
BBVA USA,Lee,Full Service Brick and Mortar Office,105 Doug Baker Boulevard,Birmingham,AL,35242,33.40934962,-86.66514501
BBVA USA,Leeds,Full Service Brick and Mortar Office,7925 Parkway Drive Southeast,Leeds,AL,35094,33.543981,-86.5437075
BBVA USA,Liberty Park,Full Service Brick and Mortar Office,8000 Liberty Parkway,Birmingham,AL,35242,33.4755,-86.678694
BBVA USA,Marketplace,Full Service Brick and Mortar Office,1916 Forestdale Boulevard,Birmingham,AL,35214,33.57376733,-86.90523685
BBVA USA,Mcfarland,Full Service Brick and Mortar Office,2390 Mcfarland Boulevard East,Tuscaloosa,AL,35404,33.18748316,-87.52622561
BBVA USA,Midcity,Full Service Brick and Mortar Office,5901 University Drive Nw,Huntsville,AL,35806,34.74022425,-86.66358554
BBVA USA,Midfair,Full Service Brick and Mortar Office,7200 Aaron Aronov Drive,Fairfield,AL,35064,33.46513798,-86.91403273
BBVA USA,Mobile Financial Center,Full Service Brick and Mortar Office,101 Dauphin Street,Mobile,AL,36602,30.69212315,-88.04121641
BBVA USA,Mobile Regency,Full Service Brick and Mortar Office,4685 Airport Boulevard,Mobile,AL,36608,30.67592148,-88.1729055
BBVA USA,Montgomery Downtown,Full Service Brick and Mortar Office,"60 Commerce Street, Suite 110",Montgomery,AL,36104,32.37844542,-86.31024118
BBVA USA,Muscle Shoals,Full Service Brick and Mortar Office,606 East Avalon Avenue,Muscle Shoals,AL,35661,34.74475649,-87.66603
BBVA USA,Normandale,Full Service Brick and Mortar Office,500 East Patton Avenue,Montgomery,AL,36111,32.332995,-86.298804
BBVA USA,North Gault,Full Service Brick and Mortar Office,2311 Gault Avenue North,Fort Payne,AL,35967,34.46431438,-85.70179721
BBVA USA,Northport,Full Service Brick and Mortar Office,1400 Mcfarland Boulevard,Northport,AL,35476,33.23782748,-87.57059612
BBVA USA,Oneonta,Full Service Brick and Mortar Office,300 Second Avenue East,Oneonta,AL,35121,33.94646065,-86.47525101
BBVA USA,Opelika,Full Service Brick and Mortar Office,315 South Sixth Street,Opelika,AL,36801,32.64741215,-85.37424073
BBVA USA,Overlook,Full Service Brick and Mortar Office,4823 Overlook Road,Mobile,AL,36618,30.71987848,-88.1549669
BBVA USA,Oxford,Full Service Brick and Mortar Office,720 Quintard Drive,Oxford,AL,36203,33.61313709,-85.82752244
BBVA USA,Pelham,Full Service Brick and Mortar Office,3080 Pelham Parkway,Pelham,AL,35124,33.29337165,-86.81205809
BBVA USA,Rainbow Plaza,Full Service Brick and Mortar Office,3213 Rainbow Drive,Rainbow City,AL,35906,33.96106732,-86.03344691
BBVA USA,Riverchase,Full Service Brick and Mortar Office,1789 Montgomery Highway,Birmingham,AL,35244,33.37771702,-86.80372121
BBVA USA,Roebuck,Full Service Brick and Mortar Office,9208 Parkway East,Birmingham,AL,35206,33.58753142,-86.70008854
BBVA USA,Scottsboro,Full Service Brick and Mortar Office,402 East Laurel Street,Scottsboro,AL,35768,34.67274677,-86.03094773
BBVA USA,Skyline,Full Service Brick and Mortar Office,3959 Government Boulevard,Mobile,AL,36693,30.63715637,-88.14100728
BBVA USA,Spanish Fort,Full Service Brick and Mortar Office,6470 Us Highway 90,Spanish Fort,AL,36527,30.65486022,-87.91074691
BBVA USA,Springhill,Full Service Brick and Mortar Office,4414 Old Shell Rd,Mobile,AL,36608,30.69706796,-88.14408155
BBVA USA,Sullivan Street,Full Service Brick and Mortar Office,3735 Sullivan Street,Madison,AL,35758,34.67879959,-86.75184373
BBVA USA,Sumiton,Full Service Brick and Mortar Office,95 Hull Road,Sumiton,AL,35148,33.75658945,-87.06149083
BBVA USA,The Grove At 150,Full Service Brick and Mortar Office,5576 Grove Boulevard,Birmingham,AL,35226,33.35939541,-86.85204934
BBVA USA,Trussville,Full Service Brick and Mortar Office,5990 Chalkville Mountain Road,Trussville,AL,35173,33.63966363,-86.62114797
BBVA USA,Uab,Full Service Brick and Mortar Office,707 Richard Arrington Jr Blvd S Ste 108,Birmingham,AL,35233,33.50644776,-86.79833913
BBVA USA,University,Full Service Brick and Mortar Office,630 University Boulevard East,Tuscaloosa,AL,35401,33.207021,-87.5280735
BBVA USA,Valleydale,Full Service Brick and Mortar Office,2641 Valleydale Road,Birmingham,AL,35244,33.38333635,-86.74011854
BBVA USA,Vaughn Plaza,Full Service Brick and Mortar Office,2811 Eastern Bypass,Montgomery,AL,36116,32.34371751,-86.22327501
BBVA USA,Village Plains,Full Service Brick and Mortar Office,1433 Opelika Road,Auburn,AL,36830,32.622975,-85.451652
BBVA USA,Warrior,Full Service Brick and Mortar Office,100 Fifth Street East,Warrior,AL,35180,33.817833,-86.807664
BBVA USA,Westgate,Full Service Brick and Mortar Office,1151 Bankhead Highway West,Birmingham,AL,35204,33.532423,-86.85659534
BBVA USA,Whitesburg,Full Service Brick and Mortar Office,"4806 Whitesburg Drive, Southeast",Huntsville,AL,35802,34.69299563,-86.56829945
BBVA USA,Wildwood,Full Service Brick and Mortar Office,201 State Farm Parkway,Birmingham,AL,35209,33.44844258,-86.82458469
BBVA USA,Wiregrass,Full Service Brick and Mortar Office,2936 Montgomery Highway,Dothan,AL,36303,31.24963243,-85.42504788
BBVA USA,Zelda Road,Full Service Brick and Mortar Office,2760 Zelda Road,Montgomery,AL,36106,32.36080337,-86.26542075
Branch Banking and Trust Company,Albertville,Full Service Brick and Mortar Office,629 East Main Street,Albertville,AL,35950,34.26543797,-86.19290025
Branch Banking and Trust Company,Alex City/Cherokee,Full Service Brick and Mortar Office,2055 Cherokee Road,Alexander City,AL,35010,32.91904492,-85.94965817
Branch Banking and Trust Company,Alexandria,Full Service Brick and Mortar Office,6630 Us Highway 431,Alexandria,AL,36250,33.76826546,-85.89264801
Branch Banking and Trust Company,Andalusia,Full Service Brick and Mortar Office,1100 E Three Notch St,Andalusia,AL,36420,31.31041651,-86.46816273
Branch Banking and Trust Company,Anniston,Full Service Brick and Mortar Office,1111 Quintard Avenue,Anniston,AL,36201,33.6592797,-85.82653553
Branch Banking and Trust Company,Ashville,Full Service Brick and Mortar Office,255 5th Street,Ashville,AL,35953,33.8360665,-86.25499209
Branch Banking and Trust Company,Auburn,Full Service Brick and Mortar Office,325 North Gay Street,Auburn,AL,36830,32.611635,-85.480407
Branch Banking and Trust Company,Bessemer,Full Service Brick and Mortar Office,200 18th Street North,Bessemer,AL,35020,33.4008,-86.953725
Branch Banking and Trust Company,Brewton,Full Service Brick and Mortar Office,405 Douglas Avenue,Brewton,AL,36426,31.10878648,-87.06856875
Branch Banking and Trust Company,Clanton,Full Service Brick and Mortar Office,501 Second Avenue North,Clanton,AL,35045,32.839884,-86.62924727
Branch Banking and Trust Company,Daphne,Full Service Brick and Mortar Office,28664 Highway 98,Daphne,AL,36526,30.64220383,-87.91251374
Branch Banking and Trust Company,East University,Limited Service Facility Office,2124 East University Drive,Auburn,AL,36830,32.62764335,-85.4506938
Branch Banking and Trust Company,Eastwood,Full Service Brick and Mortar Office,1500 Montclair Road,Birmingham,AL,35210,33.523965,-86.726412
Branch Banking and Trust Company,Evergreen,Full Service Brick and Mortar Office,535 W Front St,Evergreen,AL,36401,31.4288461,-86.96224278
Branch Banking and Trust Company,Fairhope,Full Service Brick and Mortar Office,387 Fairhope Avenue,Fairhope,AL,36532,30.52305447,-87.9034815
Branch Banking and Trust Company,Foley,Full Service Brick and Mortar Office,200 West Laurel Avenue,Foley,AL,36535,30.40646053,-87.68546992
Branch Banking and Trust Company,Forestdale,Full Service Brick and Mortar Office,1602 Forestdale Plaza,Birmingham,AL,35214,33.56720941,-86.89912097
Branch Banking and Trust Company,Gadsden,Full Service Brick and Mortar Office,931 Rainbow Drive,Gadsden,AL,35901,33.99828362,-86.00453207
Branch Banking and Trust Company,Gardendale,Full Service Brick and Mortar Office,1325 Decatur Highway,Gardendale,AL,35071,33.658848,-86.811543
Branch Banking and Trust Company,Greenville Al,Full Service Brick and Mortar Office,120 Greenville Bypass,Greenville,AL,36037,31.84891081,-86.63755661
Branch Banking and Trust Company,Gulf Shores,Full Service Brick and Mortar Office,1500 Gulf Shores Parkway,Gulf Shores,AL,36542,30.2652,-87.68847665
Branch Banking and Trust Company,Highway 150,Full Service Brick and Mortar Office,2750 John Hawkins Pkwy,Birmingham,AL,35244,33.363594,-86.824971
Branch Banking and Trust Company,Highway 72,Full Service Brick and Mortar Office,8441 Highway 72 W,Madison,AL,35758,34.74876173,-86.76718067
Branch Banking and Trust Company,Highway 78 East,Full Service Brick and Mortar Office,2020 Us Highway 78 East,Oxford,AL,36203,33.61473051,-85.78893131
Branch Banking and Trust Company,Homewood,Full Service Brick and Mortar Office,1900 29th Avenue South,Birmingham,AL,35209,33.47965303,-86.7895667
Branch Banking and Trust Company,Hoover,Full Service Brick and Mortar Office,1596 Montgomery Hwy,Birmingham,AL,35216,33.401547,-86.806602
Branch Banking and Trust Company,Huntsville Main,Full Service Brick and Mortar Office,305 Church St Sw,Huntsville,AL,35801,34.72746713,-86.5865575
Branch Banking and Trust Company,Huntsville Northwest,Full Service Brick and Mortar Office,3419 Pulaski Pike Nw,Huntsville,AL,35810,34.770843,-86.617287
Branch Banking and Trust Company,Jasper,Full Service Brick and Mortar Office,3901 Highway 78 East,Jasper,AL,35501,33.83895006,-87.23167495
Branch Banking and Trust Company,Jemison,Full Service Brick and Mortar Office,24634 U.S. Highway 31 North,Jemison,AL,35085,32.95825145,-86.74326868
Branch Banking and Trust Company,Judicial Centre,Full Service Brick and Mortar Office,"445 Dexter Avenue, Ste 1050",Montgomery,AL,36104,32.378085,-86.302926
Branch Banking and Trust Company,Judicial Centre Drive Thru,Limited Service Facility Office,501 Monroe Street,Montgomery,AL,36104,32.37895123,-86.30192935
Branch Banking and Trust Company,Lineville,Full Service Brick and Mortar Office,89071 Highway 9,Lineville,AL,36266,33.31129988,-85.75018811
Branch Banking and Trust Company,Luverne,Full Service Brick and Mortar Office,207 South Forest Avenue,Luverne,AL,36049,31.71321836,-86.2637292
Branch Banking and Trust Company,Madison,Full Service Brick and Mortar Office,8857 Madison Boulevard,Madison,AL,35758,34.6774249,-86.74945591
Branch Banking and Trust Company,Madison Square,Full Service Brick and Mortar Office,4955 University Drive Nw,Huntsville,AL,35816,34.738596,-86.6599335
Branch Banking and Trust Company,Meadow Brook,Full Service Brick and Mortar Office,4705 Meadow Brook Rd,Birmingham,AL,35242,33.41704937,-86.68731554
Branch Banking and Trust Company,Mobile Hillcrest,Full Service Brick and Mortar Office,736 Hillcrest Road,Mobile,AL,36695,30.67668,-88.1907165
Branch Banking and Trust Company,Mobile Main,Full Service Brick and Mortar Office,"41 West I65 Service Road North, Ste 200",Mobile,AL,36608,30.69082874,-88.12632838
Branch Banking and Trust Company,Moody,Full Service Brick and Mortar Office,2821 Moody Pkwy,Moody,AL,35004,33.59005052,-86.49736165
Branch Banking and Trust Company,Old Farm,Full Service Brick and Mortar Office,2914 Carter Hill Road,Montgomery,AL,36106,32.35231949,-86.2653105
Branch Banking and Trust Company,Oneonta,Full Service Brick and Mortar Office,415 Second Avenue East,Oneonta,AL,35121,33.94733922,-86.47361164
Branch Banking and Trust Company,Opelika Main,Full Service Brick and Mortar Office,600 Second Avenue,Opelika,AL,36801,32.65157564,-85.37936052
Branch Banking and Trust Company,Oxford,Full Service Brick and Mortar Office,404 Hamric Dr E,Oxford,AL,36203,33.60761096,-85.8324994
Branch Banking and Trust Company,Ozark,Full Service Brick and Mortar Office,253 South Union Avenue,Ozark,AL,36360,31.4362684,-85.63134019
Branch Banking and Trust Company,Pelham,Full Service Brick and Mortar Office,2998 Pelham Parkway,Pelham,AL,35124,33.29655886,-86.8116713
Branch Banking and Trust Company,Pell City,Full Service Brick and Mortar Office,2203 1st Ave N,Pell City,AL,35125,33.58829922,-86.28299903
Branch Banking and Trust Company,Phenix City,Full Service Brick and Mortar Office,1201 Broad Street,Phenix City,AL,36867,32.46945288,-85.00088304
Branch Banking and Trust Company,Plantation Pointe,Full Service Brick and Mortar Office,906 Plantation Boulevard,Fairhope,AL,36532,30.52611673,-87.88497453
Branch Banking and Trust Company,Prattville,Full Service Brick and Mortar Office,704 East Main Street,Prattville,AL,36067,32.4600349,-86.4559965
Branch Banking and Trust Company,Roebuck,Full Service Brick and Mortar Office,629 Red Lane Road,Birmingham,AL,35215,33.59098652,-86.6981025
Branch Banking and Trust Company,Saraland,Full Service Brick and Mortar Office,15 Saraland Blvd N,Saraland,AL,36571,30.823074,-88.070652
Branch Banking and Trust Company,Scottsboro,Full Service Brick and Mortar Office,507 South Broad Street,Scottsboro,AL,35768,34.66981315,-86.03478507
Branch Banking and Trust Company,Shades Valley Main,Full Service Brick and Mortar Office,2501 20th Place South,Birmingham,AL,35209,33.48478878,-86.78543509
Branch Banking and Trust Company,South Memorial Parkway,Full Service Brick and Mortar Office,11218 Memorial Parkway Sw,Huntsville,AL,35803,34.63587777,-86.56706624
Branch Banking and Trust Company,Southside,Full Service Brick and Mortar Office,2020 Highway 77,Gadsden,AL,35907,33.92400052,-86.022441
Branch Banking and Trust Company,Springville,Full Service Brick and Mortar Office,5836 Us Hwy 11,Springville,AL,35146,33.76943252,-86.47702193
Branch Banking and Trust Company,Sturbridge,Full Service Brick and Mortar Office,7990 Vaughn Road,Montgomery,AL,36116,32.33868818,-86.17624228
Branch Banking and Trust Company,Taylor Crossing,Full Service Brick and Mortar Office,7010 Atlanta Highway,Montgomery,AL,36117,32.38240453,-86.1727995
Branch Banking and Trust Company,Theodore,Full Service Brick and Mortar Office,5826 Highway 90,Theodore,AL,36582,30.554136,-88.172226
Branch Banking and Trust Company,Troy,Full Service Brick and Mortar Office,1219 Hwy 231 S,Troy,AL,36081,31.78240094,-85.95304804
Branch Banking and Trust Company,Trussville,Full Service Brick and Mortar Office,285 Calumet Parkway,Trussville,AL,35173,33.61376435,-86.62284947
Branch Banking and Trust Company,Tuscaloosa,Full Service Brick and Mortar Office,3610 Mcfarland Blvd East,Tuscaloosa,AL,35405,33.17553,-87.5253645
Branch Banking and Trust Company,Valley,Full Service Brick and Mortar Office,3202 20th Avenue,Valley,AL,36854,32.84220693,-85.17956522
Branch Banking and Trust Company,Vestavia,Full Service Brick and Mortar Office,1034 Montgomery Highway,Birmingham,AL,35216,33.43870852,-86.78914825
Branch Banking and Trust Company,Westbury,Full Service Brick and Mortar Office,901 Airport Rd Sw,Huntsville,AL,35802,34.690734,-86.575257
Branch Banking and Trust Company,Wetumpka,Full Service Brick and Mortar Office,4336 U.S. Highway 231,Wetumpka,AL,36092,32.50443285,-86.21533553
PNC Bank,308 Martin Street,Full Service Brick and Mortar Office,308 Martin Street,Pell City,AL,35125,33.591519,-86.281686
PNC Bank,Alabaster,Full Service Brick and Mortar Office,10745 Highway 119 South,Alabaster,AL,35007,33.23557027,-86.82209098
PNC Bank,Ambassador Plaza,Full Service Brick and Mortar Office,7860 Airport Boulevard,Mobile,AL,36608,30.68263322,-88.22703402
PNC Bank,Athens,Full Service Brick and Mortar Office,1044 Highway 72 East,Athens,AL,35611,34.78547756,-86.95453478
PNC Bank,Atlanta Highway,Full Service Brick and Mortar Office,5375 Atlanta Highway,Montgomery,AL,36109,32.38196025,-86.21500254
PNC Bank,Bank Of Dadeville,Full Service Brick and Mortar Office,242 Broadnax Street,Dadeville,AL,36853,32.83176279,-85.7635794
PNC Bank,Bay Minette,Full Service Brick and Mortar Office,511 Dolive Street,Bay Minette,AL,36507,30.88027498,-87.77947822
PNC Bank,Baylou La Batre,Full Service Brick and Mortar Office,13825 South Wintzell Avenue,Bayou La Batre,AL,36509,30.40344,-88.2480105
PNC Bank,Beltline,Full Service Brick and Mortar Office,"1715 Beltline Road, Southwest",Decatur,AL,35603,34.570665,-87.014601
PNC Bank,Bessemer,Full Service Brick and Mortar Office,1719 Fourth Avenue North,Bessemer,AL,35020,33.40154806,-86.95582183
PNC Bank,Birmingham-Hoover Commons,Full Service Brick and Mortar Office,1611 Montgomery Highway,Birmingham,AL,35216,33.39832449,-86.80608017
PNC Bank,Birmingham-Irondale,Full Service Brick and Mortar Office,1801 Crestwood Boulevard,Birmingham,AL,35210,33.53234605,-86.7051991
PNC Bank,Birmingham-Trussville-tutwiler Branc,Full Service Brick and Mortar Office,3501 Roosevelt Boulevard,Birmingham,AL,35235,33.60482146,-86.6357227
PNC Bank,Clay County Finance Company,Limited Service Loan Production Office,104 North 1st Street,Ashland,AL,36251,33.27581205,-85.83615935
PNC Bank,Cottage Hill,Full Service Brick and Mortar Office,5133 Cottage Hill Road,Mobile,AL,36609,30.64860424,-88.16055104
PNC Bank,Crestline,Full Service Brick and Mortar Office,89 Euclid Avenue,Birmingham,AL,35213,33.50310347,-86.75803298
PNC Bank,Daphne,Full Service Brick and Mortar Office,2211 Highway 98,Daphne,AL,36526,30.61024002,-87.90030316
PNC Bank,E. Main Street,Full Service Brick and Mortar Office,1882 E. Main Street,Prattville,AL,36066,32.459985,-86.4187065
PNC Bank,Eastern By-Pass,Full Service Brick and Mortar Office,1465 Eastern Boulevard,Montgomery,AL,36117,32.35749545,-86.21612905
PNC Bank,Fairhope,Full Service Brick and Mortar Office,51 South Section Street,Fairhope,AL,36532,30.52172603,-87.90292707
PNC Bank,First American Bank,Full Service Brick and Mortar Office,1927 First Avenue North,Birmingham,AL,35203,33.513759,-86.8061835
PNC Bank,First Citizens Bank,Full Service Brick and Mortar Office,409 East Battle Street,Talladega,AL,35160,33.43553489,-86.09640585
PNC Bank,First Gulf Bank,Full Service Brick and Mortar Office,949 Fairhope Avenue,Fairhope,AL,36532,30.52369152,-87.8829795
PNC Bank,Foley,Full Service Brick and Mortar Office,1101 N Mckenzie St,Foley,AL,36535,30.4184424,-87.6832805
PNC Bank,Government Street,Full Service Brick and Mortar Office,1402 Government Street,Mobile,AL,36604,30.681657,-88.0698825
PNC Bank,Gulf Shores,Full Service Brick and Mortar Office,250 West Fort Morgan Road,Gulf Shores,AL,36542,30.26451945,-87.69112128
PNC Bank,Hartselle,Full Service Brick and Mortar Office,"589 Highway 31, Northwest",Hartselle,AL,35640,34.446078,-86.9443605
PNC Bank,Hillcrest,Full Service Brick and Mortar Office,720 Hillcrest Road,Mobile,AL,36695,30.677445,-88.19071946
PNC Bank,Hoover Crossings,Full Service Brick and Mortar Office,2720 John Hawkins Pkwy,Birmingham,AL,35244,33.361533,-86.8280895
PNC Bank,Hueytown Allison-Bonnett,Full Service Brick and Mortar Office,3059 Allison-Bonnett Memorial Drive,Bessemer,AL,35023,33.449877,-86.9831865
PNC Bank,Hughes Road,Full Service Brick and Mortar Office,25 Hughes Road,Madison,AL,35758,34.687557,-86.734467
PNC Bank,Huntsville,Full Service Brick and Mortar Office,2204 Whitesburg Drive South,Huntsville,AL,35801,34.71738987,-86.57775966
PNC Bank,Huntsville-Church Street,Full Service Brick and Mortar Office,100 Church St Sw,Huntsville,AL,35801,34.72916026,-86.5878607
PNC Bank,Lake Forest,Full Service Brick and Mortar Office,28770 U.S. Highway 98,Daphne,AL,36526,30.64434347,-87.91251657
PNC Bank,Lily Flagg,Full Service Brick and Mortar Office,107 Lily Flagg Road Se,Huntsville,AL,35802,34.65802898,-86.56517558
PNC Bank,Mcgregor Square,Full Service Brick and Mortar Office,3920 Airport Boulevard,Mobile,AL,36608,30.676635,-88.145253
PNC Bank,Meadowbrook,Full Service Brick and Mortar Office,2000 Meadow Lake Drive,Birmingham,AL,35242,33.418611,-86.6785917
PNC Bank,Millbrook,Full Service Brick and Mortar Office,3725 Highway 14,Millbrook,AL,36054,32.51727421,-86.37467926
PNC Bank,Mobile - Riverview,Full Service Brick and Mortar Office,"63 S. Royal Street, Suite 100",Mobile,AL,36602,30.69103443,-88.04042497
PNC Bank,North Madison,Full Service Brick and Mortar Office,7930 U.S. Highway 72 West,Madison,AL,35758,34.7529342,-86.74680394
PNC Bank,Northport,Full Service Brick and Mortar Office,3076 Mcfarland Boulevard,Northport,AL,35476,33.24099125,-87.58537823
PNC Bank,Oak Plaza,Full Service Brick and Mortar Office,7800 Moffett Road,Semmes,AL,36575,30.76283425,-88.22590449
PNC Bank,Orange Beach,Full Service Brick and Mortar Office,25405 Perdido Beach Boulevard,Orange Beach,AL,36561,30.2685961,-87.59120696
PNC Bank,Parkway East,Full Service Brick and Mortar Office,9648 Parkway East,Birmingham,AL,35215,33.59901077,-86.69295251
PNC Bank,Robertsdale,Full Service Brick and Mortar Office,22516 Milwaukee Street,Robertsdale,AL,36567,30.55304984,-87.70966584
PNC Bank,Saraland,Full Service Brick and Mortar Office,34 Shelton Beach Road,Saraland,AL,36571,30.823524,-88.073235
PNC Bank,Schillinger Road,Full Service Brick and Mortar Office,7849 Cottage Hill Road,Mobile,AL,36695,30.64007565,-88.22558535
PNC Bank,Selma,Full Service Brick and Mortar Office,9 Broad Street,Selma,AL,36701,32.40704839,-87.01950636
PNC Bank,Sixth Avenue,Full Service Brick and Mortar Office,"2004 Sixth Avenue, Southeast",Decatur,AL,35601,34.574832,-86.974056
PNC Bank,Skyland,Full Service Brick and Mortar Office,719 S Skyland Boulevard E,Tuscaloosa,AL,35405,33.1651106,-87.54718199
PNC Bank,Spanish Fort,Full Service Brick and Mortar Office,30500 A State Hwy 181,Spanish Fort,AL,36527,30.66895059,-87.85201902
PNC Bank,Spring Hill-Mobile,Full Service Brick and Mortar Office,4357 Old Shell Road,Mobile,AL,36608,30.697335,-88.1421075
PNC Bank,Springville,Full Service Brick and Mortar Office,6384 Us Highway 11,Springville,AL,35146,33.77482598,-86.472165
PNC Bank,Taylor Road,Full Service Brick and Mortar Office,2710 Taylor Road,Montgomery,AL,36117,32.34066726,-86.18009006
PNC Bank,The Farmers National Bank Of Opelika,Full Service Brick and Mortar Office,605 Second Avenue,Opelika,AL,36803,32.65127433,-85.37961948
PNC Bank,Tiger Crossing,Full Service Brick and Mortar Office,1605 South College Street,Auburn,AL,36832,32.57718337,-85.49803961
PNC Bank,Tiger Town Office,Full Service Brick and Mortar Office,2426 Enterprise Drive,Opelika,AL,36801,32.62170769,-85.40956824
PNC Bank,Tillman's Corner,Full Service Brick and Mortar Office,5351 Highway 90 West,Mobile,AL,36619,30.594348,-88.168203
PNC Bank,Toulminville,Full Service Brick and Mortar Office,2326 St. Stephens Road,Mobile,AL,36617,30.719115,-88.083828
PNC Bank,Tuskegee-W. Rosa Parks Avenue,Full Service Brick and Mortar Office,102 West Rosa Parks Avenue,Tuskegee,AL,36083,32.4223565,-85.69480541
PNC Bank,University Campus,Full Service Brick and Mortar Office,331 University Boulevard,Tuscaloosa,AL,35401,33.20844961,-87.5401132
PNC Bank,University Drive,Full Service Brick and Mortar Office,1470 Perimeter Parkway N.W.,Huntsville,AL,35806,34.74448671,-86.67412609
PNC Bank,Village Mall,Full Service Brick and Mortar Office,2085 East University Drive,Auburn,AL,36830,32.62653372,-85.4498948
PNC Bank,Wetumpka Main,Full Service Brick and Mortar Office,743 South Main Street,Wetumpka,AL,36092,32.528223,-86.20691636
Trustmark National Bank,Auburn,Full Service Brick and Mortar Office,415 North Dean Road,Auburn,AL,36830,32.612931,-85.464918
Trustmark National Bank,Banktrust Of Alabama,Full Service Brick and Mortar Office,218-220 East Broad Street,Eufaula,AL,36027,31.89320748,-85.14316825
Trustmark National Bank,Banktrust Of Brewton/Branch,Full Service Brick and Mortar Office,227 Belleville Avenue,Brewton,AL,36426,31.10588922,-87.0715926
Trustmark National Bank,Bulter Square,Full Service Brick and Mortar Office,122 Greenville Bypass,Greenville,AL,36037,31.84892443,-86.63727209
Trustmark National Bank,Centreville,Full Service Brick and Mortar Office,125 Hazel Avenue,Centreville,AL,35042,32.94628728,-87.14553222
Trustmark National Bank,Daphne,Full Service Brick and Mortar Office,2507 U. S. Highway 98,Daphne,AL,36526,30.61565208,-87.90412785
Trustmark National Bank,Dauphin/65,Full Service Brick and Mortar Office,3254 Dauphin Street,Mobile,AL,36606,30.689676,-88.1221095
Trustmark National Bank,Drive-Up,Limited Service Facility Office,111 Market Street East,Athens,AL,35611,34.80332561,-86.96968401
Trustmark National Bank,Eclectic,Full Service Brick and Mortar Office,15 Kowaliga Road,Eclectic,AL,36024,32.6383655,-86.03579417
Trustmark National Bank,Fairhope,Full Service Brick and Mortar Office,236 North Greeno Road,Fairhope,AL,36532,30.53053207,-87.8860461
Trustmark National Bank,Foley,Full Service Brick and Mortar Office,699 South Mckenzie,Foley,AL,36535,30.39970965,-87.68335856
Trustmark National Bank,Georgiana,Full Service Brick and Mortar Office,412 Highway 106 West,Georgiana,AL,36033,31.64154019,-86.73448787
Trustmark National Bank,Greenville Main,Full Service Brick and Mortar Office,300-314 East Commerce Street,Greenville,AL,36037,31.82955649,-86.620968
Trustmark National Bank,Highway 80,Full Service Brick and Mortar Office,1400 Us Highway 80 East,Demopolis,AL,36732,32.50295367,-87.8188645
Trustmark National Bank,Hillcrest Financial Center,Full Service Brick and Mortar Office,850 Hillcrest Road,Mobile,AL,36608,30.673233,-88.19071651
Trustmark National Bank,Homewood,Full Service Brick and Mortar Office,1808 29th Avenue South,Birmingham,AL,35209,33.47963846,-86.791095
Trustmark National Bank,Hwy 72 E,Full Service Brick and Mortar Office,22236 Us Hwy 72,Athens,AL,35613,34.78058795,-86.92646371
Trustmark National Bank,Inverness Banking Center,Full Service Brick and Mortar Office,One Inverness Pkwy,Birmingham,AL,35242,33.40717253,-86.72189539
Trustmark National Bank,Jefferson,Full Service Brick and Mortar Office,118 Jefferson Street S,Huntsville,AL,35801,34.730433,-86.586354
Trustmark National Bank,Jones Valley,Full Service Brick and Mortar Office,2021 Cecil Ashburn Drive,Huntsville,AL,35802,34.672356,-86.5377855
Trustmark National Bank,Madison,Full Service Brick and Mortar Office,12050 County Line Road,Madison,AL,35756,34.72834112,-86.78647493
Trustmark National Bank,Malbis,Full Service Brick and Mortar Office,30723 State Hwy 181,Spanish Fort,AL,36527,30.67074,-87.85225395
Trustmark National Bank,Mobile,Full Service Brick and Mortar Office,107 St. Francis Street,Mobile,AL,36602,30.692844,-88.0416315
Trustmark National Bank,Montevallo,Full Service Brick and Mortar Office,835 Main Street,Montevallo,AL,35115,33.10118521,-86.86183635
Trustmark National Bank,Montgomery,Full Service Brick and Mortar Office,4290 Carmichael Road,Montgomery,AL,36106,32.359122,-86.229333
Trustmark National Bank,Montgomery Main,Full Service Brick and Mortar Office,401 Adams Avenue,Montgomery,AL,36104,32.375664,-86.303007
Trustmark National Bank,Montgomery Taylor Road,Full Service Brick and Mortar Office,951 Taylor Road,Montgomery,AL,36117,32.368374,-86.170626
Trustmark National Bank,Northside,Full Service Brick and Mortar Office,1201 Douglas Street,Brewton,AL,36426,31.1261433,-87.0686853
Trustmark National Bank,Opelika,Full Service Brick and Mortar Office,Thomason Drive,Opelika,AL,36801,32.63211221,-85.40519792
Trustmark National Bank,Prattville,Full Service Brick and Mortar Office,1916 Cobbs Ford Road,Prattville,AL,36066,32.459796,-86.4164115
Trustmark National Bank,Prattville Main Office,Full Service Brick and Mortar Office,148 East Main Street,Prattville,AL,36067,32.45953784,-86.47089133
Trustmark National Bank,Reliance Bank,Full Service Brick and Mortar Office,112 North Jefferson Street,Athens,AL,35611,34.80348713,-86.97208598
Trustmark National Bank,Riverchase Corporate Center,Full Service Brick and Mortar Office,1 Chase Corporation Drive Ste 105,Birmingham,AL,35244,33.36586875,-86.79317734
Trustmark National Bank,Saraland,Full Service Brick and Mortar Office,1025 Highway 43 South,Saraland,AL,36571,30.79943848,-88.07210238
Trustmark National Bank,Selma Mall,Full Service Brick and Mortar Office,1305 East Highland Avenue,Selma,AL,36701,32.43148651,-87.01793083
Trustmark National Bank,South Eufaula Avenue,Full Service Brick and Mortar Office,South Eufaula Avenue & Hunters Inlet Road,Eufaula,AL,36027,31.877955,-85.1493825
Trustmark National Bank,South Monroeville,Full Service Brick and Mortar Office,Whetstone And South Alabama Avenue,Monroeville,AL,36460,31.50135,-87.3187605
Trustmark National Bank,Springhill,Full Service Brick and Mortar Office,4425 Old Shell Road,Mobile,AL,36608,30.6970349,-88.14399617
Trustmark National Bank,Tallassee Main,Full Service Brick and Mortar Office,304 Barnett Boulevard,Tallassee,AL,36078,32.53597008,-85.8933927
Trustmark National Bank,The Commerical Bank Of Demopolis/Bra,Full Service Brick and Mortar Office,201 North Main Avenue,Demopolis,AL,36732,32.51733275,-87.83870592
Trustmark National Bank,The Monroe County Bank/Branch,Full Service Brick and Mortar Office,60 Hines Street,Monroeville,AL,36461,31.52516052,-87.32468036
Trustmark National Bank,The Peoples Bank & Trust Company Bra,Full Service Brick and Mortar Office,310 Broad Street,Selma,AL,36701,32.4104069,-87.02134803
Trustmark National Bank,Tillman's Corner,Full Service Brick and Mortar Office,5328 Highway 90 West Service Road,Mobile,AL,36619,30.597498,-88.1694135
Trustmark National Bank,Tuscaloosa Main,Full Service Brick and Mortar Office,2330 University Boulevard,Tuscaloosa,AL,35401,33.210261,-87.5681415
Woodforest National Bank,8049 Birmingham,Full Service Retail Office,1600 Mont Claire Road,Birmingham,AL,35210,33.529032,-86.7202515
Woodforest National Bank,8053 Cullman Alabama Walmart,Full Service Retail Office,626 Olive Street Sw,Cullman,AL,35055,34.149087,-86.8422285
Woodforest National Bank,8055 Oxford Alabama Walmart,Full Service Retail Office,92 Plaza Lane,Oxford,AL,36203,33.60007063,-85.83210419
Woodforest National Bank,8056 Brewton Alabama Walmart,Full Service Retail Office,2578 Douglas Avenue,Brewton,AL,36426,31.14689738,-87.06730345
Woodforest National Bank,8057 Decatur Alabama Walmart,Full Service Retail Office,2800 Spring Ave Sw,Decatur,AL,35603,34.556535,-86.996025
Woodforest National Bank,8059 Enterprise Alabama Walmart Bran,Full Service Retail Office,600 Boll Weevil Circle,Enterprise,AL,36330,31.314951,-85.8291705
Woodforest National Bank,8060 Anniston Alabama Walmart,Full Service Retail Office,5560 Mcclellan Blvd,Anniston,AL,36206,33.71963034,-85.81781789
Woodforest National Bank,8062 Moulton,Full Service Retail Office,15445 Al Highway 24,Moulton,AL,35650,34.4932419,-87.27299071
Woodforest National Bank,8063 Andalusia,Full Service Retail Office,1991 Ml King Jr Expressway,Andalusia,AL,36420,31.31872145,-86.44472138
Woodforest National Bank,8064 Northport Alabama Walmart Branc,Full Service Retail Office,5710 Mcfarland Blvd,Northport,AL,35476,33.23485534,-87.61493719
Woodforest National Bank,8065 Madison Alabama Walmart,Full Service Retail Office,8650 Madison Blvd,Madison,AL,35758,34.683552,-86.7403935
Woodforest National Bank,8066 Alabaster Alabama Walmart Branc,Full Service Retail Office,630 Colonial Promenade Pwy,Alabaster,AL,35007,33.23639326,-86.80370203
Woodforest National Bank,8084 Arab,Full Service Retail Office,1450 N. Brindlee Mountain Parkway,Arab,AL,35016,34.34139399,-86.50356471
Woodforest National Bank,8087 Greenville Alabama Walmart Bran,Full Service Retail Office,501 Willow Lane,Greenville,AL,36037,31.84936283,-86.64374046
Woodforest National Bank,8100 Sparkman Drive Walmart Drive,Full Service Retail Office,2200 Sparkman Drive Northwest,Huntsville,AL,35810,34.76331199,-86.59447989
Woodforest National Bank,8104 Huntsville Alabama,Full Service Retail Office,8580 Highway 72 W,Madison,AL,35758,34.751169,-86.773482
Woodforest National Bank,8112 Hoover Alabama Walmart,Full Service Retail Office,2780 John Hawkins Parkway,Birmingham,AL,35244,33.36467876,-86.8244112
Woodforest National Bank,8122 Mobile Alabama Walmart,Full Service Retail Office,685 Schillinger Road,Mobile,AL,36695,30.70458956,-88.2255093
Woodforest National Bank,8125 Atlanta Highway Walmart,Full Service Retail Office,6495 Atlanta Hwy,Montgomery,AL,36117,32.385042,-86.184927
Woodforest National Bank,8160 Monroeville Alabama Walmart Bra,Full Service Retail Office,3371 South Alabama Avenue,Monroeville,AL,36460,31.48216228,-87.33085635
Woodforest National Bank,8177 University Drive Walmart,Full Service Retail Office,6140a University Drive,Huntsville,AL,35806,34.7443496,-86.67763305
Woodforest National Bank,8179 Rangeline Walmart,Full Service Retail Office,5245 Rangeline Service Rd South,Mobile,AL,36619,30.59476274,-88.16468846
Woodforest National Bank,8180 Eastern Boulevard Walmart Branc,Full Service Retail Office,3801 Eastern Blvd,Montgomery,AL,36116,32.325885,-86.2325415
Woodforest National Bank,8182 Gardendale Alabama Walmart Bran,Full Service Retail Office,890 Odum Road,Gardendale,AL,35071,33.646824,-86.8228245
Woodforest National Bank,8183 Montgomery Alabama Walmart Bran,Full Service Retail Office,851 Ann Street,Montgomery,AL,36107,32.370696,-86.268411
Woodforest National Bank,8197 Daphne/Lake Forest Alabama Walm,Full Service Retail Office,27520 Highway 98,Daphne,AL,36526,30.62499818,-87.90791104
Woodforest National Bank,8198 Trussville Crossings Walmart Br,Full Service Retail Office,5919 Trussville Crossings,Birmingham,AL,35235,33.639003,-86.62887
Woodforest National Bank,8259 Bessemer Alabama Walmart,Full Service Retail Office,750 Academy Drive,Bessemer,AL,35022,33.361776,-87.001902
Woodforest National Bank,Al Athens,Full Service Retail Office,1011 U.S. Hwy 72 East,Athens,AL,35611,34.78670353,-86.95906893
Woodforest National Bank,Al Clanton,Full Service Retail Office,1415 7th Street South,Clanton,AL,35045,32.81750866,-86.60693097
Woodforest National Bank,Al Fairhope,Full Service Retail Office,10040 County Road 48,Fairhope,AL,36532,30.52358452,-87.85108024
Woodforest National Bank,Al Gulf Shores,Full Service Retail Office,170 East Fort Morgan Road,Gulf Shores,AL,36542,30.26494918,-87.68577634
Woodforest National Bank,Guntersville,Full Service Retail Office,11697 Us Highway 431,Guntersville,AL,35976,34.30112577,-86.27646203
Woodforest National Bank,Hueytown,Full Service Retail Office,1007 Red Farmer Drive,Bessemer,AL,35023,33.45825813,-86.96780626
Woodforest National Bank,Huntsville,Full Service Retail Office,11610 S Memorial Pkwy,Huntsville,AL,35803,34.61607891,-86.56736233
Woodforest National Bank,Mobile Walmart,Full Service Retail Office,101 E I-65 Service Road S,Mobile,AL,36606,30.68433275,-88.12668623
Woodforest National Bank,Montgomery,Full Service Retail Office,10710 Chantilly Parkway,Montgomery,AL,36117,32.355189,-86.134761
Woodforest National Bank,Ms Millbrook,Full Service Retail Office,145 Kelly Blvd,Millbrook,AL,36054,32.49423656,-86.3989744
Woodforest National Bank,Prattville,Full Service Retail Office,1903 Cobbs Ford Road,Prattville,AL,36066,32.463108,-86.4155925
Woodforest National Bank,Saraland Al 8106,Full Service Retail Office,1095 Industrial Pkwy,Saraland,AL,36571,30.799422,-88.096959
Woodforest National Bank,Tuscaloosa 8105,Full Service Retail Office,1501 Skyland Boulevard East,Tuscaloosa,AL,35405,33.165243,-87.5185425
Synovus Bank,Bienville Square,Full Service Brick and Mortar Office,170 St. Francis Street,Mobile,AL,36602,30.693069,-88.0431705
Synovus Bank,Birmingham,Full Service Brick and Mortar Office,800 Shades Creek Parkway,Birmingham,AL,35209,33.475482,-86.7681225
Synovus Bank,"Coastal Bank & Trust, A Of Community Bank And Trust Of Southeast Alabama",Full Service Brick and Mortar Office,7050 U.S. Highway 90,Daphne,AL,36526,30.65509954,-87.90188833
Synovus Bank,Cottondale,Full Service Brick and Mortar Office,"6501 University Boulevard, East",Cottondale,AL,35453,33.18961832,-87.4511314
Synovus Bank,Crestline,Full Service Brick and Mortar Office,77 Church Street,Birmingham,AL,35223,33.50286577,-86.75630208
Synovus Bank,Curry,Full Service Brick and Mortar Office,5616 Curry Highway,Jasper,AL,35504,33.94586892,-87.21581613
Synovus Bank,Dauphin Street,Full Service Brick and Mortar Office,3704 Dauphin Street,Mobile,AL,36608,30.6868876,-88.13118685
Synovus Bank,Dora,Full Service Brick and Mortar Office,2123 Highway 78,Dora,AL,35062,33.75532467,-87.0625798
Synovus Bank,Dothan,Full Service Brick and Mortar Office,3680 West Main Street,Dothan,AL,36305,31.23210137,-85.44679654
Synovus Bank,Dothan Financial Center,Full Service Brick and Mortar Office,901 North Boll Weevil Cir,Enterprise,AL,36330,31.32919848,-85.83936152
Synovus Bank,Downtown,Full Service Brick and Mortar Office,215 Richard Arrington Jr Blvd. N,Birmingham,AL,35203,33.52197631,-86.80899448
Synovus Bank,Hoover Banking Center,Full Service Brick and Mortar Office,2020 Patton Chapel Road,Birmingham,AL,35216,33.39429383,-86.80397807
Synovus Bank,Huntsville,Full Service Brick and Mortar Office,301 Washington Street,Huntsville,AL,35801,34.73408544,-86.58734094
Synovus Bank,Inverness Corners Bkng. Ctr.,Full Service Brick and Mortar Office,102 Inverness Corners,Birmingham,AL,35242,33.41829927,-86.6948755
Synovus Bank,Jasper,Full Service Brick and Mortar Office,200 Eighteenth Street,Jasper,AL,35501,33.83345353,-87.27306244
Synovus Bank,Lake Tuscaloosa,Full Service Brick and Mortar Office,"4901 Rice Mine Road, N.E.",Tuscaloosa,AL,35406,33.26284576,-87.51579436
Synovus Bank,Madison,Full Service Brick and Mortar Office,11 Hughes Road,Madison,AL,35758,34.68442582,-86.73479838
Synovus Bank,Madison,Full Service Brick and Mortar Office,7770 Highway 72 West,Madison,AL,35758,34.754868,-86.7398715
Synovus Bank,Medical Center,Full Service Brick and Mortar Office,3200 Highway 78 East,Jasper,AL,35501,33.84162731,-87.23819938
Synovus Bank,Montgomery,Full Service Brick and Mortar Office,4121 Carmichael Road,Montgomery,AL,36106,32.357781,-86.241816
Synovus Bank,North Banking Center,Full Service Brick and Mortar Office,3726 Us Highway 431 North,Phenix City,AL,36867,32.49993005,-85.04587847
Synovus Bank,North Highlands,Full Service Brick and Mortar Office,410 9th Avenue,Jasper,AL,35501,33.84807303,-87.28570294
Synovus Bank,Northport Banking Center,Full Service Brick and Mortar Office,3068 Mcfarland Boulevard (A/K/a Highway 82),Northport,AL,35476,33.233031,-87.629922
Synovus Bank,Ozark,Full Service Brick and Mortar Office,510 Andrews Avenue,Ozark,AL,36360,31.45626775,-85.64620303
Synovus Bank,Pelham,Full Service Brick and Mortar Office,2304 Pelham Parkway,Pelham,AL,35124,33.32907255,-86.79273773
Synovus Bank,Phenix City,Full Service Brick and Mortar Office,1000 13th Street,Phenix City,AL,36868,32.47154358,-85.0067336
Synovus Bank,Piedmont,Full Service Brick and Mortar Office,4650 Whitesburg Drive,Huntsville,AL,35802,34.697223,-86.5690065
Synovus Bank,Prattville,Full Service Brick and Mortar Office,2005 Cobbs Ford Road,Prattville,AL,36066,32.45979008,-86.4118837
Synovus Bank,Southbridge - Homewood Drive-Thru Fa,Limited Service Facility Office,2222 Woodcrest Place,Birmingham,AL,35209,33.4889368,-86.78724346
Synovus Bank,Stadium Drive,Full Service Brick and Mortar Office,1806 Stadium Drive,Phenix City,AL,36867,32.4969777,-85.01803711
Synovus Bank,Taylor Road Banking Center,Full Service Brick and Mortar Office,2655 Taylor Road,Montgomery,AL,36117,32.34117321,-86.1792073
Synovus Bank,Taylorville Banking Center,Full Service Brick and Mortar Office,6800 Highway 69 South,Tuscaloosa,AL,35405,33.145146,-87.544449
Synovus Bank,Trace Crossings,Full Service Brick and Mortar Office,5290 Preserve Parkway,Birmingham,AL,35244,33.35571124,-86.84512108
Synovus Bank,Trussville Banking Center,Full Service Brick and Mortar Office,109 South Chalkville Road,Trussville,AL,35173,33.61883003,-86.60805274
Synovus Bank,Tuscaloosa,Full Service Brick and Mortar Office,"2200 Jack Warner Parkway, Suite 100",Tuscaloosa,AL,35401,33.21334238,-87.56691932
Synovus Bank,Vestavia,Full Service Brick and Mortar Office,550 Montgomery Highway,Birmingham,AL,35216,33.44967,-86.7899025
Synovus Bank,Westside Centre,Full Service Brick and Mortar Office,1333 Enterprise Way,Huntsville,AL,35806,34.74203674,-86.67787717
BancorpSouth Bank,Albertville,Full Service Brick and Mortar Office,7100 Us Highway 431,Albertville,AL,35950,34.27572684,-86.20327875
BancorpSouth Bank,Arab,Full Service Brick and Mortar Office,420 N Brindlee Mountain Pkwy,Arab,AL,35016,34.32180647,-86.50297623
BancorpSouth Bank,Auburn,Full Service Brick and Mortar Office,807 E Glenn Ave,Auburn,AL,36830,32.609439,-85.464567
BancorpSouth Bank,Auburn Mortgage Office,Limited Service Loan Production Office,"337 East Magnolia Avenue, Suite 1",Auburn,AL,36830,32.60655449,-85.476231
BancorpSouth Bank,Bancorpsouth Bank,Limited Service Loan Production Office,401 Franklin Street Se,Huntsville,AL,35801,34.7290307,-86.5833807
BancorpSouth Bank,Birmingham Colonnade,Full Service Brick and Mortar Office,3401 Colonnnade Parkway,Birmingham,AL,35243,33.43926026,-86.73012595
BancorpSouth Bank,Birmingham Highland,Full Service Brick and Mortar Office,2211 Highland Avenue South,Birmingham,AL,35205,33.500394,-86.7897585
BancorpSouth Bank,Birmingham Inverness,Full Service Brick and Mortar Office,4680 Us-280 E,Birmingham,AL,35242,33.42367396,-86.70197983
BancorpSouth Bank,Birmingham Mortgage Operations,Limited Service Loan Production Office,2201 Highland Ave S,Birmingham,AL,35205,33.50037484,-86.79005048
BancorpSouth Bank,Birmingham Trussville,Full Service Brick and Mortar Office,5905 Trussville Crossing Blvd,Birmingham,AL,35235,33.643179,-86.627196
BancorpSouth Bank,Boaz,Full Service Brick and Mortar Office,2333 Us-431 S,Boaz,AL,35957,34.21909813,-86.15850951
BancorpSouth Bank,Fairhope,Full Service Brick and Mortar Office,101 Rock Creek Pkwy,Fairhope,AL,36532,30.56794418,-87.89376668
BancorpSouth Bank,Foley,Full Service Brick and Mortar Office,2405 S Mckenzie St,Foley,AL,36535,30.379248,-87.68310763
BancorpSouth Bank,Fort Deposit,Full Service Brick and Mortar Office,307 E Jones Street,Fort Deposit,AL,36032,31.98465522,-86.57809787
BancorpSouth Bank,Greenville,Full Service Brick and Mortar Office,1028 Fort Dale Road,Greenville,AL,36037,31.85447954,-86.64089912
BancorpSouth Bank,Grove Hill,Full Service Brick and Mortar Office,103 Main St,Grove Hill,AL,36451,31.7087489,-87.77534952
BancorpSouth Bank,Guntersville,Full Service Brick and Mortar Office,1301 Gunter Ave,Guntersville,AL,35976,34.3474817,-86.30216792
BancorpSouth Bank,Hayneville,Full Service Brick and Mortar Office,10 Commerce St,Hayneville,AL,36040,32.183964,-86.58077446
BancorpSouth Bank,Hoover,Full Service Brick and Mortar Office,475 Southland Drive,Birmingham,AL,35226,33.41001529,-86.80986245
BancorpSouth Bank,Huntsville Downtown,Full Service Brick and Mortar Office,401 Franklin Street Se,Huntsville,AL,35801,34.7290307,-86.5833807
BancorpSouth Bank,Huntsville Hampton Cove,Full Service Brick and Mortar Office,410 Sutton Rd,Owens Cross Roads,AL,35763,34.659387,-86.484537
BancorpSouth Bank,Huntsville Hughes Road,Full Service Brick and Mortar Office,41 Hughes Rd,Madison,AL,35758,34.690509,-86.7343725
BancorpSouth Bank,Jackson Al,Full Service Brick and Mortar Office,1901 College Ave,Jackson,AL,36545,31.53044423,-87.89163998
BancorpSouth Bank,Leeds,Full Service Brick and Mortar Office,8433 1st Ave,Leeds,AL,35094,33.54241129,-86.54205139
BancorpSouth Bank,Madison,Full Service Brick and Mortar Office,7302 Highway 72 W,Madison,AL,35758,34.757298,-86.7208095
BancorpSouth Bank,Mobile Cody,Full Service Brick and Mortar Office,1353 Cody Rd S,Mobile,AL,36695,30.661623,-88.2067005
BancorpSouth Bank,Mobile Dauphin,Full Service Brick and Mortar Office,3290 Dauphin St,Mobile,AL,36606,30.689919,-88.124508
BancorpSouth Bank,Mobile Schillinger Road,Full Service Brick and Mortar Office,1057 Schillinger Road S,Mobile,AL,36695,30.668058,-88.2247545
BancorpSouth Bank,Montgomery Mortgage Office,Limited Service Loan Production Office,4216 Carmichael Road,Montgomery,AL,36106,32.35897513,-86.23268098
BancorpSouth Bank,Moody,Full Service Brick and Mortar Office,2450 Moody Parkway,Moody,AL,35004,33.57845547,-86.51177636
BancorpSouth Bank,Opelika Downtown,Full Service Brick and Mortar Office,414 South Seventh Street,Opelika,AL,36801,32.64591284,-85.37467816
BancorpSouth Bank,Pepperell Corners,Full Service Brick and Mortar Office,2420 Pepperell Parkway,Opelika,AL,36801,32.63791389,-85.41222796
BancorpSouth Bank,Semmes,Full Service Brick and Mortar Office,9030 Moffett Road,Semmes,AL,36575,30.77863569,-88.25587201
BancorpSouth Bank,Spanish Fort,Full Service Brick and Mortar Office,30585 Al-225,Spanish Fort,AL,36527,30.6701235,-87.90755
BancorpSouth Bank,Thomasville,Full Service Brick and Mortar Office,33440 Highway 43,Thomasville,AL,36784,31.92717936,-87.73882809
BancorpSouth Bank,Tuscaloosa Loan And Deposit Producti,Limited Service Loan Production Office,1100 Queen City Avenue,Tuscaloosa,AL,35401,33.205311,-87.560784
Bank Independent,Athens,Full Service Brick and Mortar Office,101 South Clinton Street,Athens,AL,35611,34.80316473,-86.96872779
Bank Independent,Athens East,Full Service Brick and Mortar Office,22015 Highway 72 East,Athens,AL,35613,34.78144211,-86.93007857
Bank Independent,Bank Independent,Full Service Brick and Mortar Office,710 South Montgomery Avenue,Sheffield,AL,35660,34.75079167,-87.69889395
Bank Independent,Bank Street,Full Service Brick and Mortar Office,102 Bank Street,Rogersville,AL,35652,34.82506734,-87.29191258
Bank Independent,Cherokee,Full Service Brick and Mortar Office,8260 Hwy 72 West,Cherokee,AL,35616,34.75386792,-87.97113502
Bank Independent,Courtland,Full Service Brick and Mortar Office,360 Alabama Street,Courtland,AL,35618,34.66779241,-87.31118813
Bank Independent,Cox Creek,Full Service Brick and Mortar Office,863 Cox Creek Parkway,Florence,AL,35630,34.84221426,-87.67277115
Bank Independent,Darby Place,Full Service Brick and Mortar Office,1701 Darby Drive,Florence,AL,35630,34.8216906,-87.65645386
Bank Independent,Decatur Beltline,Full Service Brick and Mortar Office,1425 Beltline Road Sw,Decatur,AL,35603,34.564482,-87.010956
Bank Independent,Decatur Crossings,Full Service Brick and Mortar Office,2606 Hwy 31,Decatur,AL,35603,34.559415,-86.972751
Bank Independent,Decatur Main,Full Service Brick and Mortar Office,102 Second Avenue Southeast,Decatur,AL,35601,34.603731,-86.984766
Bank Independent,Digitial Sales Office,Limited Service Mobile Office,426 Veterans Drive,Florence,AL,35630,34.79764822,-87.66850642
Bank Independent,East Hicks Boulevard,Limited Service Loan Production Office,304 East Doctor Hicks Boulevard,Florence,AL,35630,34.86333455,-87.56098605
Bank Independent,East Lawrence,Full Service Brick and Mortar Office,22899 Al Highway 24,Moulton,AL,35650,34.53871345,-87.15749974
Bank Independent,Florence,Full Service Brick and Mortar Office,210 South Pine Street,Florence,AL,35630,34.79857019,-87.67664828
Bank Independent,Florence Square,Full Service Brick and Mortar Office,2902 Florence Boulevard,Florence,AL,35630,34.83079985,-87.62321452
Bank Independent,Hartselle,Full Service Brick and Mortar Office,"902 U.S. Highway 31, North",Hartselle,AL,35640,34.45048359,-86.94546709
Bank Independent,Huntsville,Full Service Brick and Mortar Office,132 Holmes Ave Nw,Huntsville,AL,35801,34.731738,-86.5887975
Bank Independent,Jackson Place,Limited Service Facility Office,729 East Second Street,Sheffield,AL,35660,34.75962949,-87.68652789
Bank Independent,Killen,Full Service Brick and Mortar Office,1081 Highway 72,Killen,AL,35645,34.85615438,-87.55228262
Bank Independent,Leighton,Full Service Brick and Mortar Office,8720 Main Street,Leighton,AL,35646,34.70033633,-87.52901511
Bank Independent,Lexington,Full Service Brick and Mortar Office,11250 Highway 101,Lexington,AL,35648,34.97079051,-87.36953826
Bank Independent,Madison,Full Service Brick and Mortar Office,7564 Highway 72 West Ste A1,Madison,AL,35758,34.75598449,-86.73080415
Bank Independent,Moulton,Full Service Brick and Mortar Office,15259 Court Street,Moulton,AL,35650,34.48255131,-87.27696164
Bank Independent,Muscle Shoals,Full Service Brick and Mortar Office,1109 Avalon Avenue,Muscle Shoals,AL,35661,34.74460573,-87.65332663
Bank Independent,Red Bay,Full Service Brick and Mortar Office,117 4th Avenue Southeast,Red Bay,AL,35582,34.44132887,-88.14380963
Bank Independent,Russellville,Full Service Brick and Mortar Office,401 North Jackson Avenue,Russellville,AL,35653,34.50765727,-87.72897905
Bank Independent,Russellville Village Square,Full Service Brick and Mortar Office,13566 Highway 43,Russellville,AL,35653,34.49295013,-87.72748855
Bank Independent,Tuscumbia,Full Service Brick and Mortar Office,119 North Main Street,Tuscumbia,AL,35674,34.73310692,-87.70359539
Peoples Bank of Alabama,Albertville U.S. Hwy 431,Full Service Brick and Mortar Office,7473 U.S. Highway 431,Albertville,AL,35950,34.27751065,-86.20902155
Peoples Bank of Alabama,Arab,Full Service Brick and Mortar Office,2133 North Brindlee Mtn. Pkwy.,Arab,AL,35016,34.35553916,-86.50493955
Peoples Bank of Alabama,Baileyton,Full Service Brick and Mortar Office,12081 Alabama Highway 69 North,Baileyton,AL,35019,34.26209816,-86.61311594
Peoples Bank of Alabama,Birmingham,Full Service Brick and Mortar Office,"1800 International Parkway, Ste 190",Birmingham,AL,35243,33.405939,-86.7624075
Peoples Bank of Alabama,Blountsville,Full Service Brick and Mortar Office,"68870 Main Street, South",Blountsville,AL,35031,34.07922856,-86.59086982
Peoples Bank of Alabama,Boaz,Full Service Brick and Mortar Office,200 Billy D. Dyar Boulevard,Boaz,AL,35957,34.19552037,-86.15241055
Peoples Bank of Alabama,Centre Bank,Full Service Brick and Mortar Office,1285 Chestnut Bypass,Centre,AL,35960,34.16140174,-85.69757102
Peoples Bank of Alabama,Decatur Southeast,Full Service Brick and Mortar Office,"1737 6th Avenue, Se",Decatur,AL,35601,34.57857801,-86.9773501
Peoples Bank of Alabama,Dodge City,Full Service Brick and Mortar Office,435 Alabama Highway 69 South,Hanceville,AL,35077,34.05047678,-86.87141191
Peoples Bank of Alabama,Gadsden,Full Service Brick and Mortar Office,400 West Meighan Boulevard,Gadsden,AL,35901,34.01570524,-86.00204167
Peoples Bank of Alabama,Gardendale,Full Service Brick and Mortar Office,336 Fieldstown Road,Gardendale,AL,35071,33.652305,-86.8156515
Peoples Bank of Alabama,Guntersville,Full Service Brick and Mortar Office,14340 Highway 431 North,Guntersville,AL,35976,34.32221274,-86.31221788
Peoples Bank of Alabama,Hanceville,Full Service Brick and Mortar Office,104 Main Street,Hanceville,AL,35077,34.05917873,-86.76828093
Peoples Bank of Alabama,Hartselle,Full Service Brick and Mortar Office,"501 Highway 31, Sw",Hartselle,AL,35640,34.440066,-86.9419755
Peoples Bank of Alabama,Holly Pond,Full Service Brick and Mortar Office,10695 Us Hwy 278 East,Holly Pond,AL,35083,34.1744028,-86.61876716
Peoples Bank of Alabama,Laceys Spring,Full Service Brick and Mortar Office,10437 Highway 36,Laceys Spring,AL,35754,34.53387789,-86.5916272
Peoples Bank of Alabama,Locust Fork,Full Service Brick and Mortar Office,29900 State Highway 79,Locust Fork,AL,35097,33.90393084,-86.62196891
Peoples Bank of Alabama,North Cullman,Full Service Brick and Mortar Office,5052 Alabama Highway 157 North,Cullman,AL,35057,34.20655857,-86.86056418
Peoples Bank of Alabama,Oneonta,Full Service Brick and Mortar Office,918 2nd Avenue East,Oneonta,AL,35121,33.95490927,-86.46612276
Peoples Bank of Alabama,Parkway,Full Service Brick and Mortar Office,910 North Brindlee Mountain Parkway,Arab,AL,35016,34.3305615,-86.50306627
Peoples Bank of Alabama,Peoples Bank Of Alabama,Full Service Brick and Mortar Office,"1912 Cherokee Avenue, Sw",Cullman,AL,35055,34.14967712,-86.84453089
Peoples Bank of Alabama,Plaza,Full Service Brick and Mortar Office,417 20th Street North,Birmingham,AL,35203,33.518052,-86.807646
Peoples Bank of Alabama,Rainbow City,Full Service Brick and Mortar Office,3105 Rainbow Drive,Rainbow City,AL,35906,33.96277496,-86.03084976
Peoples Bank of Alabama,Sixth Street,Limited Service Facility Office,401 Lee Street Ne,Decatur,AL,35601,34.605207,-86.9844105
Peoples Bank of Alabama,Somerville,Full Service Brick and Mortar Office,5276 Highway 67,Somerville,AL,35670,34.44712304,-86.75780017
Peoples Bank of Alabama,Warrior,Limited Service Mobile Office,420 Caldwell Drive,Warrior,AL,35180,33.80772461,-86.81118093
"Cadence Bank, N.A.",23rd Street Remote Drive Thru,Limited Service Facility Office,2301 3rd Avenue North,Birmingham,AL,35203,33.54298121,-86.70559105
"Cadence Bank, N.A.",Albertville,Full Service Brick and Mortar Office,8031 Us Hwy 431,Albertville,AL,35950,34.28069665,-86.21804944
"Cadence Bank, N.A.",Andulusia,Full Service Brick and Mortar Office,1135 North Bypass / Dr Mlk Expressway,Andalusia,AL,36420,31.317561,-86.4974385
"Cadence Bank, N.A.",Birmingham Main (Prior Author,Full Service Brick and Mortar Office,2100 Third Avenue North,Birmingham,AL,35203,33.541794,-86.7081465
"Cadence Bank, N.A.",Blountsville,Full Service Brick and Mortar Office,69156 Main Street,Blountsville,AL,35031,34.08329784,-86.59088734
"Cadence Bank, N.A.",Childersburg,Full Service Brick and Mortar Office,33327 Highway 280,Childersburg,AL,35044,33.27014422,-86.35462384
"Cadence Bank, N.A.",Falkville,Full Service Brick and Mortar Office,4662 U.S. Highway 31 Sw,Falkville,AL,35622,34.37001236,-86.90853863
"Cadence Bank, N.A.",Gardendale,Full Service Brick and Mortar Office,2250 Mount Olive Road,Gardendale,AL,35071,33.672573,-86.8372605
"Cadence Bank, N.A.",Hampton Cove,Full Service Brick and Mortar Office,3001 Mountain Cove Boulevard,Owens Cross Roads,AL,35763,34.66196364,-86.48600357
"Cadence Bank, N.A.",Hartselle,Full Service Brick and Mortar Office,600 Main Street West,Hartselle,AL,35640,34.44255043,-86.93989874
"Cadence Bank, N.A.",Highway 119 Hoover,Full Service Brick and Mortar Office,"6801 Cahaba Valley Road, Suite 119",Birmingham,AL,35242,33.41266185,-86.6753765
"Cadence Bank, N.A.",Hoover,Full Service Brick and Mortar Office,2755 John Hawkins Parkway,Birmingham,AL,35244,33.364053,-86.8264965
"Cadence Bank, N.A.",Huntsville,Full Service Brick and Mortar Office,312 Clinton Avenue West,Huntsville,AL,35801,34.729659,-86.590467
"Cadence Bank, N.A.",Lawson Ridge Hwy 72,Full Service Brick and Mortar Office,4004 Lawson Ridge Drive,Madison,AL,35757,34.75539503,-86.73772217
"Cadence Bank, N.A.",Monroeville,Full Service Brick and Mortar Office,780 South Alabama Avenue,Monroeville,AL,36460,31.51563917,-87.32175913
"Cadence Bank, N.A.",Montgomery,Full Service Brick and Mortar Office,6836 Atlanta Highway,Montgomery,AL,36117,32.381919,-86.177259
"Cadence Bank, N.A.",Mountain Brook,Full Service Brick and Mortar Office,"2717 Culver Road, Suite A",Birmingham,AL,35233,33.485463,-86.7733425
"Cadence Bank, N.A.",New Hope,Full Service Brick and Mortar Office,10175 Hwy 431 So.,New Hope,AL,35760,34.549335,-86.4309915
"Cadence Bank, N.A.",North Tuscaloosa,Full Service Brick and Mortar Office,1615 Mcfarland Boulevard North,Tuscaloosa,AL,35406,33.23372888,-87.54065213
"Cadence Bank, N.A.",Oneonta,Full Service Brick and Mortar Office,608 Second Avenue East,Oneonta,AL,35121,33.94891772,-86.47140108
"Cadence Bank, N.A.",Rainbow City,Full Service Brick and Mortar Office,3201 Rainbow Drive,Rainbow City,AL,35906,33.96202534,-86.03190346
"Cadence Bank, N.A.",Sylacauga,Full Service Brick and Mortar Office,126 North Broadway Avenue,Sylacauga,AL,35150,33.17013,-86.25072516
"Cadence Bank, N.A.",Trussville,Full Service Brick and Mortar Office,1950 Edwards Lake Road,Birmingham,AL,35235,33.596136,-86.6468205
"Cadence Bank, N.A.",Tuscaloosa Main,Full Service Brick and Mortar Office,1101 Greensboro Avenue,Tuscaloosa,AL,35401,33.204024,-87.565455
"Cadence Bank, N.A.",Uniontown,Full Service Brick and Mortar Office,293 Water Street,Uniontown,AL,36786,32.44975888,-87.51440044
"Cadence Bank, N.A.",Warrior,Full Service Brick and Mortar Office,218 Louisa Street,Warrior,AL,35180,33.81162981,-86.81007869
"CB&S Bank, Inc.",6th Avenue,Full Service Brick and Mortar Office,1424 6th Avenue Se,Decatur,AL,35601,34.5845873,-86.98044158
"CB&S Bank, Inc.",Birmingham,Full Service Brick and Mortar Office,728 Shades Creek Pkwy,Birmingham,AL,35209,33.473898,-86.7682485
"CB&S Bank, Inc.",Birmingham Office,Full Service Brick and Mortar Office,1301 Doug Baker Boulevard,Birmingham,AL,35242,33.41099326,-86.67450278
"CB&S Bank, Inc.","Cb&S Bank, Inc.",Full Service Brick and Mortar Office,201 South Jackson Street,Russellville,AL,35653,34.50364057,-87.73102031
"CB&S Bank, Inc.",Center Star,Full Service Brick and Mortar Office,5690 U.S. Highway 72,Killen,AL,35645,34.86043178,-87.47000363
"CB&S Bank, Inc.",Chantilly Parkway,Full Service Brick and Mortar Office,225 Emma Lane,Pike Road,AL,36064,32.35077,-86.1109965
"CB&S Bank, Inc.",Cherokee,Full Service Brick and Mortar Office,1045 First Street,Cherokee,AL,35616,34.75629598,-87.97248197
"CB&S Bank, Inc.",Decatur,Full Service Brick and Mortar Office,"1825 Beltline Road, Sw",Decatur,AL,35601,34.57571915,-87.01743881
"CB&S Bank, Inc.",Florence,Full Service Brick and Mortar Office,320 South Pine Street,Florence,AL,35630,34.79752799,-87.6759818
"CB&S Bank, Inc.",Florence Hough Road,Full Service Brick and Mortar Office,2975 Hough Road,Florence,AL,35630,34.83612153,-87.62769
"CB&S Bank, Inc.",Franklin Plaza,Full Service Brick and Mortar Office,14015 Highway 43,Russellville,AL,35653,34.49760806,-87.72172268
"CB&S Bank, Inc.",Gilmer Avenue,Full Service Brick and Mortar Office,1217 Gilmer Avenue,Tallassee,AL,36078,32.54984598,-85.91599329
"CB&S Bank, Inc.",Hodges,Full Service Brick and Mortar Office,1481 Highway 172,Hodges,AL,35571,34.32868136,-87.92623448
"CB&S Bank, Inc.",Huntsville Downtown,Full Service Brick and Mortar Office,521 Madison Street,Huntsville,AL,35801,34.72665169,-86.583018
"CB&S Bank, Inc.",Huntsville Research Park,Full Service Brick and Mortar Office,6104 University Drive,Huntsville,AL,35806,34.744401,-86.676201
"CB&S Bank, Inc.",Madison,Full Service Brick and Mortar Office,8018 Highway 72,Madison,AL,35758,34.75269,-86.750352
"CB&S Bank, Inc.",Moulton,Full Service Brick and Mortar Office,11963 Alabama Highway 157,Moulton,AL,35650,34.48834886,-87.27675288
"CB&S Bank, Inc.",Muscle Shoals,Full Service Brick and Mortar Office,2000 East Avalon Avenue,Muscle Shoals,AL,35661,34.74439554,-87.64360128
"CB&S Bank, Inc.",Owens Crossroads,Full Service Brick and Mortar Office,6388 Us Highway 431,Owens Cross Roads,AL,35763,34.66734091,-86.48791125
"CB&S Bank, Inc.",Phil Campbell,Full Service Brick and Mortar Office,3571 Broad Street,Phil Campbell,AL,35581,34.35283498,-87.70599941
"CB&S Bank, Inc.",Red Bay,Full Service Brick and Mortar Office,407 4th Street Sw,Red Bay,AL,35582,34.44531561,-88.14760403
"CB&S Bank, Inc.",Russellville,Full Service Brick and Mortar Office,15290 Us 43,Russellville,AL,35653,34.51268938,-87.717309
"CB&S Bank, Inc.",Tallassee Main Street,Full Service Brick and Mortar Office,301 Main Street,Tallassee,AL,36078,32.54575685,-85.87261775
"CB&S Bank, Inc.",Town Creek,Full Service Brick and Mortar Office,333 Church Street,Town Creek,AL,35672,34.68185355,-87.40456751
"CB&S Bank, Inc.",Wetumpka Office,Full Service Brick and Mortar Office,"3936 Us Hwy, 231",Wetumpka,AL,36092,32.49952992,-86.2165002
FirstBank,1st Street Lpo,Limited Service Loan Production Office,"224 1st Street North, Suite 225",Alabaster,AL,35007,33.24578568,-86.8157619
FirstBank,Auburn Lpo,Limited Service Loan Production Office,"1747 Ogletree Road, Suite C",Auburn,AL,36830,32.58193596,-85.43893348
FirstBank,Balmoral Drive Lpo,Limited Service Loan Production Office,"4205 Balmoral Drive, Suite A",Huntsville,AL,35801,34.69367868,-86.57912865
FirstBank,Birmingham Lpo,Limited Service Loan Production Office,3443 Colonnade Parkway,Birmingham,AL,35243,33.4369368,-86.72953282
FirstBank,Blue Lake Drive Lpo,Limited Service Loan Production Office,"3500 Blue Lake Drive, Suite 325",Birmingham,AL,35243,33.44242397,-86.7270087
FirstBank,Brocks Gap Parkway Lpo,Limited Service Loan Production Office,"1021 Brocks Gap Parkway, Suite 125",Birmingham,AL,35244,33.34429028,-86.84887062
FirstBank,Fairhope Lpo,Limited Service Loan Production Office,315 Magnolia Street,Fairhope,AL,36532,30.52446048,-87.90363853
FirstBank,Firstbank Mortgage,Limited Service Loan Production Office,"2408 Cogswell Avenue, Suite 1",Pell City,AL,35125,33.58849295,-86.27947756
FirstBank,Firstbank Mortgage Partners,Limited Service Loan Production Office,117 Court Street,Florence,AL,35630,34.80001533,-87.6757521
FirstBank,Florence Lpo,Limited Service Loan Production Office,121 Court Street,Florence,AL,35630,34.79951703,-87.67546472
FirstBank,Gardendale Lpo,Limited Service Loan Production Office,"651 Main Street, Suite 147",Gardendale,AL,35071,33.64019686,-86.8097059
FirstBank,Grandview Lpo,Limited Service Loan Production Office,"3595 Grandview Parkway, Suite 250",Birmingham,AL,35243,33.437259,-86.71968
FirstBank,Gulf Shores Lpo,Limited Service Loan Production Office,113 East 20th Street,Gulf Shores,AL,36542,30.2734515,-87.68586133
FirstBank,Guntersville Lpo,Limited Service Loan Production Office,"12844 Us Highway 431, Suite G",Guntersville,AL,35976,34.30648744,-86.29133915
FirstBank,Hughes Road Lpo,Limited Service Loan Production Office,"1593 Hughes Road, Suite A",Madison,AL,35758,34.75031753,-86.74092007
FirstBank,Hughes Road Lpo,Limited Service Loan Production Office,37-A Hughes Road,Madison,AL,35758,34.68985286,-86.73506893
FirstBank,Huntsville,Full Service Brick and Mortar Office,"720 Gallatin Street Sw, Suite 150",Huntsville,AL,35801,34.72316687,-86.58278651
FirstBank,Shoney Drive Lpo,Limited Service Loan Production Office,"809 Shoney Drive, Suite 108",Huntsville,AL,35801,34.701444,-86.5845315
FirstBank,Trussville Lpo,Limited Service Loan Production Office,"219 Main Street, Suite 101",Trussville,AL,35173,33.619041,-86.6091645
FirstBank,Tuscaloosa Lpo,Limited Service Loan Production Office,2009 Paul W. Bryant Drive,Tuscaloosa,AL,35401,33.20640432,-87.56150951
Renasant Bank,Auburn,Full Service Brick and Mortar Office,1943 East Glenn Avenue,Auburn,AL,36830,32.60456702,-85.43940107
Renasant Bank,Chelsea,Full Service Brick and Mortar Office,16863 Highway 280,Chelsea,AL,35043,33.346872,-86.635431
Renasant Bank,Childersburg,Full Service Brick and Mortar Office,120 8th Avenue,Childersburg,AL,35044,33.27747306,-86.35479895
Renasant Bank,Columbiana,Full Service Brick and Mortar Office,106 E College St,Columbiana,AL,35051,33.168744,-86.600556
Renasant Bank,Crestline,Full Service Brick and Mortar Office,44 Church Street,Birmingham,AL,35213,33.50167443,-86.75505751
Renasant Bank,Decatur Cedar Ridge,Full Service Brick and Mortar Office,1830 Modaus Road,Decatur,AL,35603,34.561188,-87.017472
Renasant Bank,Decatur Lee Street,Full Service Brick and Mortar Office,"211 Lee Street, N.E.",Decatur,AL,35601,34.6071985,-86.98643746
Renasant Bank,Decatur Stratford Road,Full Service Brick and Mortar Office,"1309 Stratford Road, Southeast",Decatur,AL,35601,34.57359789,-86.97241093
Renasant Bank,East Montgomery,Full Service Brick and Mortar Office,225 Mitylene Park Drive,Montgomery,AL,36117,32.37977122,-86.17453146
Renasant Bank,Huntsville Balmoral,Full Service Brick and Mortar Office,4245 Balmoral Drive,Huntsville,AL,35801,34.692714,-86.578731
Renasant Bank,"Huntsville, Alabama Wws",Full Service Brick and Mortar Office,200 West Side Square Suite 101,Huntsville,AL,35801,34.729983,-86.5863405
Renasant Bank,Inverness,Full Service Brick and Mortar Office,107 Inverness Cors,Birmingham,AL,35242,33.41860243,-86.69437942
Renasant Bank,Madison,Full Service Brick and Mortar Office,7600 Highway 72 West,Madison,AL,35758,34.756011,-86.733171
Renasant Bank,"Mobile, Al",Full Service Brick and Mortar Office,165 West I-65 Service Road North,Mobile,AL,36608,30.697245,-88.12492689
Renasant Bank,Montgomery,Full Service Brick and Mortar Office,"8 Commerce Street, Suite 100",Montgomery,AL,36104,32.377959,-86.309397
Renasant Bank,Payton,Full Service Brick and Mortar Office,135 James Patyon Boulevard,Sylacauga,AL,35150,33.177308,-86.28867991
Renasant Bank,Pelham,Full Service Brick and Mortar Office,3513 Pelham Parkway,Pelham,AL,35124,33.26779034,-86.80958482
Renasant Bank,Renasant Place,Full Service Brick and Mortar Office,2001 Park Place Tower,Birmingham,AL,35203,33.51987362,-86.80922312
Renasant Bank,Tuscalossa,Full Service Brick and Mortar Office,2518 University Blvd,Tuscaloosa,AL,35401,33.20922585,-87.57054995
Renasant Bank,Valley,Full Service Brick and Mortar Office,3216 20th Avenue,Valley,AL,36854,32.84029628,-85.17818362
United Bank,Bay Minette,Full Service Brick and Mortar Office,404 Courthouse Square,Bay Minette,AL,36507,30.88262399,-87.77467603
United Bank,Bay Minette,Full Service Brick and Mortar Office,615 Mcmeans Avenue,Bay Minette,AL,36507,30.88370796,-87.78762313
United Bank,Brewton,Full Service Brick and Mortar Office,821 Douglas Avenue,Brewton,AL,36426,31.11862436,-87.06861062
United Bank,Broad Street,Full Service Brick and Mortar Office,21950 Broad Street,Silverhill,AL,36576,30.54466056,-87.7507212
United Bank,East Brewton,Full Service Brick and Mortar Office,305 Forrest Ave,Brewton,AL,36426,31.09719635,-87.06398134
United Bank,Flomaton,Full Service Brick and Mortar Office,College Street And U.S. Highway 29,Flomaton,AL,36441,31.003317,-87.263829
United Bank,Frisco City,Full Service Brick and Mortar Office,4285 Bowden Street,Frisco City,AL,36445,31.4323546,-87.402949
United Bank,Greensboro,Full Service Brick and Mortar Office,1120 Main Street,Greensboro,AL,36744,32.70419554,-87.59290306
United Bank,Lillian,Full Service Brick and Mortar Office,34354 U.S. Highway 98,Lillian,AL,36549,30.41058054,-87.44135127
United Bank,Lindberg Avenue,Full Service Brick and Mortar Office,164 Lindbert Avenue,Atmore,AL,36502,31.00510216,-87.4883958
United Bank,Loxley,Full Service Brick and Mortar Office,1059 W Loxley Ave,Loxley,AL,36551,30.6199648,-87.75193315
United Bank,Magnolia Springs,Full Service Brick and Mortar Office,12512 County Road 49,Foley,AL,36535,30.4068018,-87.76781386
United Bank,Mckenzie,Full Service Brick and Mortar Office,516 South Mckenzie Street,Foley,AL,36535,30.40118202,-87.68381951
United Bank,Messenger Service,Limited Service Messenger Office,200 East Nashville Avenue,Atmore,AL,36504,31.02393155,-87.49217794
United Bank,Monroeville,Full Service Brick and Mortar Office,1588 S. Alabama Avenue,Monroeville,AL,36460,31.50415046,-87.31848849
United Bank,Spanish Fort,Full Service Brick and Mortar Office,"30500 Highway 181, Suite 100",Spanish Fort,AL,36527,30.66895059,-87.85201902
United Bank,Summerdale,Full Service Brick and Mortar Office,Sw 1st Street,Summerdale,AL,36580,30.50732249,-87.66487517
United Bank,United Bank,Full Service Brick and Mortar Office,200 East Nashville Avenue,Atmore,AL,36502,31.02393155,-87.49217794
"The First, A National Banking Association",Airport Blvd,Full Service Brick and Mortar Office,6140 Airport Blvd,Mobile,AL,36695,30.6761465,-88.1835705
"The First, A National Banking Association",Bay Minette,Full Service Brick and Mortar Office,211b East First Street,Bay Minette,AL,36507,30.88262239,-87.77239495
"The First, A National Banking Association",Chatom,Full Service Brick and Mortar Office,34 Court St,Chatom,AL,36518,31.46541279,-88.25604479
"The First, A National Banking Association",Citronelle,Full Service Brick and Mortar Office,19495 North Third Street,Citronelle,AL,36522,31.097916,-88.238664
"The First, A National Banking Association",Cottage Hill Road,Full Service Brick and Mortar Office,6241 Cottage Hill Road,Mobile,AL,36609,30.639888,-88.1861175
"The First, A National Banking Association",Daphne,Full Service Brick and Mortar Office,1415 Highway 98,Daphne,AL,36526,30.59820972,-87.89828097
"The First, A National Banking Association",Dauphin Island Parkway,Full Service Brick and Mortar Office,10861 Dauphin Island Parkway,Theodore,AL,36582,30.46466246,-88.11464367
"The First, A National Banking Association",Dauphin Street,Limited Service Administrative Office,2862 Dauphin Street,Mobile,AL,36606,30.68895457,-88.11047968
"The First, A National Banking Association",Fairhope,Full Service Brick and Mortar Office,408 Fairhope Avenue,Fairhope,AL,36532,30.52300652,-87.90260825
"The First, A National Banking Association",Foley,Full Service Brick and Mortar Office,1207 North Mckenzie Street,Foley,AL,36535,30.420072,-87.6832324
"The First, A National Banking Association",Gulf Shores,Full Service Brick and Mortar Office,205 East 20th Avenue,Gulf Shores,AL,36542,30.27345052,-87.6851685
"The First, A National Banking Association",Lemoyne,Full Service Brick and Mortar Office,650 Lemoyne,Dauphin Island,AL,36528,30.263904,-88.113591
"The First, A National Banking Association",Millry,Full Service Brick and Mortar Office,30122 Hwy 17 South,Millry,AL,36558,31.6325307,-88.3129827
"The First, A National Banking Association",Orange Beach,Full Service Brick and Mortar Office,25556 Canal Road,Orange Beach,AL,36561,30.2903385,-87.588819
"The First, A National Banking Association",Saraland,Full Service Brick and Mortar Office,1063 Industrial Parkway,Saraland,AL,36571,30.800646,-88.095186
"The First, A National Banking Association",Spanish Fort,Full Service Brick and Mortar Office,10021 Hwy 31,Spanish Fort,AL,36527,30.67679145,-87.8515605
"The First, A National Banking Association",Zeigler Corners,Full Service Brick and Mortar Office,720 Schillinger Road North,Mobile,AL,36608,30.70543369,-88.2254261
Bryant Bank,280,Full Service Brick and Mortar Office,5319 U.S. Hwy 280,Birmingham,AL,35242,33.41928474,-86.67608463
Bryant Bank,Bryant Bank,Full Service Brick and Mortar Office,1550 Mcfarland Boulevard North,Tuscaloosa,AL,35406,33.23254272,-87.53870002
Bryant Bank,Cahaba Village,Full Service Brick and Mortar Office,2700 Cahaba Village Plz,Birmingham,AL,35243,33.46183558,-86.75515689
Bryant Bank,Columbiana,Full Service Retail Office,21290 Highway 25,Columbiana,AL,35051,33.18202777,-86.61372785
Bryant Bank,Daphne,Full Service Brick and Mortar Office,1801 Us Highway 98,Daphne,AL,36526,30.60396232,-87.89836026
Bryant Bank,Downtown Tuscaloosa,Full Service Brick and Mortar Office,1901 University Blvd.,Tuscaloosa,AL,35401,33.21168039,-87.5616486
Bryant Bank,Foley,Full Service Brick and Mortar Office,1502 North Mckenzie Street,Foley,AL,36535,30.42368919,-87.68316665
Bryant Bank,Highway 150,Full Service Brick and Mortar Office,2721 John Hawkins Parkway,Birmingham,AL,35244,33.362487,-86.82894
Bryant Bank,Homewood,Full Service Brick and Mortar Office,1919 28th Avenue South,Birmingham,AL,35209,33.480918,-86.788215
Bryant Bank,Huntsville,Full Service Retail Office,"415 Church Street, Suite H",Huntsville,AL,35801,34.734384,-86.592699
Bryant Bank,Huntsville,Full Service Brick and Mortar Office,1804 Four Mile Post Road,Huntsville,AL,35802,34.67186723,-86.53992924
Bryant Bank,Mountain Brook Village,Full Service Brick and Mortar Office,2711 Culver Rd,Birmingham,AL,35223,33.48491881,-86.77395808
Bryant Bank,North River,Full Service Brick and Mortar Office,1755 New Watermelon Rd,Tuscaloosa,AL,35406,33.26161735,-87.51407457
Bryant Bank,Northport,Full Service Retail Office,2001 Lurleen Wallace Boulevard,Northport,AL,35476,33.229854,-87.5752515
Bryant Bank,Orange Beach,Full Service Brick and Mortar Office,24847 Commercial Avenue,Orange Beach,AL,36561,30.29055753,-87.5987415
Bryant Bank,Pelham,Full Service Brick and Mortar Office,320 Pelham Avenue Se,Huntsville,AL,35801,34.72333326,-86.58323891
Bryant Bank,Trussville,Full Service Retail Office,137 Main Street,Trussville,AL,35173,33.620409,-86.604327
First US Bank,131 Main Street,Full Service Brick and Mortar Office,131 Main Street,Grove Hill,AL,36451,31.70873771,-87.77695513
First US Bank,Birmingham,Full Service Brick and Mortar Office,131 West Front St,Thomasville,AL,36784,31.91499771,-87.7354932
First US Bank,Bucksville Community,Full Service Brick and Mortar Office,22170 Alabama Highway 216,Mc Calla,AL,35111,33.28016877,-87.10084403
First US Bank,Butler,Full Service Brick and Mortar Office,305 South Mulberry Street,Butler,AL,36904,32.08777944,-88.2213288
First US Bank,Calera,Full Service Brick and Mortar Office,4720 Highway 31,Calera,AL,35040,33.15470868,-86.75099999
First US Bank,Centreville,Full Service Brick and Mortar Office,135 Belcher Street,Centreville,AL,35042,32.94590893,-87.14559761
First US Bank,Columbiana,Full Service Brick and Mortar Office,225 West College Street,Columbiana,AL,35051,33.17950209,-86.6111572
First US Bank,Downtown Tuscaloosa Office,Full Service Brick and Mortar Office,2619 And 2621 University Blvd,Tuscaloosa,AL,35401,33.20872677,-87.57187927
First US Bank,First Us Bank,Full Service Brick and Mortar Office,"3291 U.S. Highway 280, Ste 100",Birmingham,AL,35243,33.44337415,-86.73185779
First US Bank,Harpersville,Full Service Brick and Mortar Office,52 Wheat Street,Harpersville,AL,35078,33.34278006,-86.43784499
First US Bank,Highway 43,Full Service Brick and Mortar Office,32451 Highway 43,Thomasville,AL,36784,31.92762713,-87.73884282
First US Bank,North Bibb,Full Service Brick and Mortar Office,20041 Highway 11,Woodstock,AL,35188,33.21563489,-87.16581719
First US Bank,North College Avenue,Full Service Brick and Mortar Office,"2101 College Ave,",Jackson,AL,36545,31.53313972,-87.89039186
First US Bank,South Choctaw,Full Service Brick and Mortar Office,43 Melvin Road,Gilbertown,AL,36908,31.89156617,-88.38964179
First US Bank,Thomasville,Full Service Brick and Mortar Office,33445 Highway 43,Thomasville,AL,36784,31.92723669,-87.73893469
First US Bank,Tuscaloosa,Full Service Brick and Mortar Office,8710 Highway 69 S.,Tuscaloosa,AL,35405,33.127227,-87.550092
Valley National Bank,Alabaster,Full Service Brick and Mortar Office,50 Jimmy Gould,Alabaster,AL,35007,33.23027522,-86.80423693
Valley National Bank,Alexander Aliant,Full Service Brick and Mortar Office,200 Aliant Parkway,Alexander City,AL,35010,32.91757011,-85.95280848
Valley National Bank,Auburn,Full Service Brick and Mortar Office,1946 East Glenn Ave,Auburn,AL,36830,32.604318,-85.44015
Valley National Bank,Bibb Street,Full Service Brick and Mortar Office,500 Bibb Street,Montgomery,AL,36104,32.37660265,-86.31419265
Valley National Bank,Crestline,Full Service Brick and Mortar Office,92 Euclid Avenue,Birmingham,AL,35213,33.503472,-86.7576375
Valley National Bank,Dadeville,Full Service Brick and Mortar Office,391 North Broadnax Street,Dadeville,AL,36853,32.83413014,-85.76365733
Valley National Bank,Eastmont,Full Service Brick and Mortar Office,5400 Atlanta Highway,Montgomery,AL,36109,32.38128,-86.214762
Valley National Bank,Festival Plaza,Full Service Brick and Mortar Office,7911 Vaughn Road,Montgomery,AL,36116,32.33872575,-86.17783386
Valley National Bank,Gardendale,Full Service Brick and Mortar Office,210 Fieldstown Road Suite 142,Gardendale,AL,35071,33.652386,-86.812344
Valley National Bank,Meadowbrook,Full Service Brick and Mortar Office,1100 Corporate Parkway,Birmingham,AL,35242,33.41695307,-86.68189257
Valley National Bank,Mill Square,Full Service Brick and Mortar Office,1154 Lee Street,Alexander City,AL,35010,32.93644959,-85.96856048
Valley National Bank,Millbrook,Full Service Brick and Mortar Office,3740 Highway 14 At Highway 143,Millbrook,AL,36054,32.516937,-86.3754885
Valley National Bank,Pell City,Full Service Brick and Mortar Office,1930 Martin Street South,Pell City,AL,35128,33.56619767,-86.27088797
Valley National Bank,Wetumpka,Full Service Brick and Mortar Office,5236 U.S. Highway 231,Wetumpka,AL,36092,32.51706054,-86.21154736
Valley National Bank,Zelda Road,Full Service Brick and Mortar Office,2740 Zelda Road,Montgomery,AL,36106,32.36208419,-86.26598502
Iberiabank,Crestline Village,Full Service Brick and Mortar Office,100 Euclid Avenue,Birmingham,AL,35213,33.50342199,-86.75699439
Iberiabank,Downtown Birmingham,Full Service Brick and Mortar Office,"2025 3rd Avenue N, Ste 100",Birmingham,AL,35203,33.516639,-86.805648
Iberiabank,Downtown Huntsville,Full Service Brick and Mortar Office,"400 Meridian Street N, Suite 108",Huntsville,AL,35801,34.73521111,-86.58662228
Iberiabank,Downtown Mobile,Full Service Brick and Mortar Office,64 North Royal Street,Mobile,AL,36602,30.693771,-88.041204
Iberiabank,Fairhope,Full Service Brick and Mortar Office,22530 Us Highway 98,Fairhope,AL,36532,30.55636253,-87.89314099
Iberiabank,Fultondale,Full Service Brick and Mortar Office,1301 Decatur Highway,Fultondale,AL,35068,33.60568096,-86.7975499
Iberiabank,Hoover,Full Service Brick and Mortar Office,2765 John Hawkins Pkwy,Birmingham,AL,35244,33.364341,-86.8258845
Iberiabank,Madison,Full Service Brick and Mortar Office,53 Hughes Road,Madison,AL,35758,34.69238764,-86.73499563
Iberiabank,Mayfair,Full Service Brick and Mortar Office,"4700 Whitesburg Drive Sw, Suite 150",Huntsville,AL,35802,34.695675,-86.569857
Iberiabank,Mountain Brook Village,Full Service Brick and Mortar Office,2824 Cahaba Road,Birmingham,AL,35223,33.482781,-86.7736215
Iberiabank,Pelham,Full Service Brick and Mortar Office,2695 Pelham Parkway,Pelham,AL,35124,33.31466892,-86.80026266
Iberiabank,Springhill,Full Service Brick and Mortar Office,15 West I-65 Service Road North,Mobile,AL,36606,30.68840162,-88.12824901
Iberiabank,Vestavia,Full Service Brick and Mortar Office,613 Montgomery Hwy,Birmingham,AL,35216,33.448311,-86.789106
Iberiabank,Woodcrest,Full Service Brick and Mortar Office,2340 Woodcrest Place,Birmingham,AL,35209,33.48837437,-86.78727671
River Bank & Trust,Alexander City,Full Service Brick and Mortar Office,3617 U.S. Highway 280,Alexander City,AL,35010,32.92886674,-85.96547973
River Bank & Trust,Auburn,Full Service Brick and Mortar Office,2394 East University Drive,Auburn,AL,36830,32.62886811,-85.46154966
River Bank & Trust,Clanton Main Office,Full Service Brick and Mortar Office,620 Second Avenue North,Clanton,AL,35045,32.83952012,-86.63030874
River Bank & Trust,Daphne Office,Full Service Brick and Mortar Office,27900 N Main St,Daphne,AL,36526,30.63132823,-87.91052098
River Bank & Trust,Downtown Prattville,Full Service Brick and Mortar Office,612 South Memorial Drive,Prattville,AL,36067,32.46122245,-86.45098489
River Bank & Trust,East Montgomery,Full Service Brick and Mortar Office,7075 Halcyon Park Dr.,Montgomery,AL,36117,32.34204317,-86.17358909
River Bank & Trust,Gadsden,Full Service Brick and Mortar Office,244 South 3rd Street,Gadsden,AL,35901,34.00994495,-86.00356428
River Bank & Trust,Millbrook Office,Full Service Brick and Mortar Office,3111 Alabama Hwy 14,Millbrook,AL,36054,32.50828164,-86.38268684
River Bank & Trust,Montgomery Office,Full Service Brick and Mortar Office,309 Maxwell Blvd,Montgomery,AL,36104,32.377419,-86.3149725
River Bank & Trust,Opelika,Full Service Brick and Mortar Office,1804 Thomason Drive,Opelika,AL,36801,32.63157039,-85.40522063
River Bank & Trust,River Bank & Trust,Full Service Brick and Mortar Office,2611 Legends Drive,Prattville,AL,36066,32.45638259,-86.40277957
River Bank & Trust,South Clanton Office,Full Service Brick and Mortar Office,Highway 31 South,Clanton,AL,35045,32.78173467,-86.55503359
River Bank & Trust,Thorsby Office,Full Service Brick and Mortar Office,20688 31 South,Thorsby,AL,35171,32.91611,-86.71594
River Bank & Trust,Wetumpka,Full Service Brick and Mortar Office,10 Cambridge Drive,Wetumpka,AL,36093,32.49848387,-86.21666251
West Alabama Bank & Trust,Aliceville,Full Service Brick and Mortar Office,4 3rd Avenue Northwest,Aliceville,AL,35442,33.12949288,-88.15271719
West Alabama Bank & Trust,Carrollton,Full Service Brick and Mortar Office,86 Court Square,Carrollton,AL,35447,38.68229764,-85.18082194
West Alabama Bank & Trust,Drive-In,Limited Service Facility Office,"Second Avenue, Northwest",Aliceville,AL,35442,33.12849174,-88.15345343
West Alabama Bank & Trust,Ethelsville,Full Service Brick and Mortar Office,507 Main Street,Ethelsville,AL,35461,33.41171721,-88.21563278
West Alabama Bank & Trust,Fayette,Full Service Brick and Mortar Office,305 2nd Street Northeast,Fayette,AL,35555,33.68710969,-87.82876554
West Alabama Bank & Trust,Gordo,Full Service Brick and Mortar Office,245 Main Street South,Gordo,AL,35466,33.31959674,-87.90307778
West Alabama Bank & Trust,Livingston,Full Service Brick and Mortar Office,27 Courthouse Square,Livingston,AL,35470,37.76046719,-78.86954046
West Alabama Bank & Trust,Millport,Full Service Brick and Mortar Office,30330 Hwy 17,Millport,AL,35576,33.5620582,-88.08122797
West Alabama Bank & Trust,Northport,Full Service Brick and Mortar Office,31 Mcfarland Boulevard,Northport,AL,35476,33.235686,-87.5545245
West Alabama Bank & Trust,Perry County,Full Service Brick and Mortar Office,1014 Washington Street,Marion,AL,36756,32.62643117,-87.31878242
West Alabama Bank & Trust,Tuscaloosa,Full Service Brick and Mortar Office,7680 Highway 69 South,Tuscaloosa,AL,35405,33.136848,-87.545682
West Alabama Bank & Trust,West Alabama Bank & Trust,Full Service Brick and Mortar Office,509 First Avenue West,Reform,AL,35481,33.38104671,-88.02026208
West Alabama Bank & Trust,West Pusmataha Street,Full Service Brick and Mortar Office,119 West Pusmataha Street,Butler,AL,36904,32.08993154,-88.22155042
West Alabama Bank & Trust,Woodstock,Full Service Brick and Mortar Office,28827 Hwy 5,Woodstock,AL,35188,33.213551,-87.16300465
Hancock Whitney Bank,Cottage Hill,Full Service Brick and Mortar Office,2110 Demetropolis Road,Mobile,AL,36693,30.64737044,-88.16108236
Hancock Whitney Bank,Daphne,Full Service Brick and Mortar Office,1712 Highway 98,Daphne,AL,36526,30.60351042,-87.89804803
Hancock Whitney Bank,Dauphin Street / I-65,Full Service Brick and Mortar Office,25 North Beltline Highway,Mobile,AL,36608,30.64753316,-88.12105062
Hancock Whitney Bank,Downtown Mobile,Full Service Brick and Mortar Office,50 North Royal Street,Mobile,AL,36602,30.693438,-88.041123
Hancock Whitney Bank,Fairhope Financial Center,Full Service Brick and Mortar Office,504 Fairhope Avenue,Fairhope,AL,36532,30.52301853,-87.89980067
Hancock Whitney Bank,Gateway Plaza,Full Service Brick and Mortar Office,109 Greenville By-Pass,Greenville,AL,36037,31.84873054,-86.63907415
Hancock Whitney Bank,Gulf Shores,Full Service Brick and Mortar Office,1801 Gulf Shores Parkway,Gulf Shores,AL,36547,30.27057234,-87.68798952
Hancock Whitney Bank,Main Stret - Prattville,Full Service Brick and Mortar Office,124 West Main Street,Prattville,AL,36067,32.45980492,-86.47387758
Hancock Whitney Bank,Mcqueen Smith Crossing,Full Service Brick and Mortar Office,1881 East Main Street,Prattville,AL,36066,32.460966,-86.4186525
Hancock Whitney Bank,Saraland,Full Service Brick and Mortar Office,"910 Industrial Parkway, Suites E And F",Saraland,AL,36571,30.80124903,-88.09435449
Hancock Whitney Bank,Schillinger,Full Service Brick and Mortar Office,7700 Airport Boulevard,Mobile,AL,36608,30.68438707,-88.2225387
Hancock Whitney Bank,Tillman's Corner,Full Service Brick and Mortar Office,5215 Rangeline Service Road South,Mobile,AL,36619,30.595599,-88.16247
ServisFirst Bank,Birmingham Downtown,Full Service Brick and Mortar Office,324 Richard Arrington Blvd,Birmingham,AL,35203,33.52129884,-86.80854194
ServisFirst Bank,Cottonwoods Corners,Full Service Brick and Mortar Office,1640 Ross Clark Circle,Dothan,AL,36301,31.19610087,-85.37371442
ServisFirst Bank,Dothan,Full Service Brick and Mortar Office,4801 West Main Street,Dothan,AL,36305,31.2375538,-85.46507873
ServisFirst Bank,Fairhope,Full Service Brick and Mortar Office,561 Fairhope Avenue,Fairhope,AL,36532,30.52310751,-87.89763316
ServisFirst Bank,Greystone,Full Service Brick and Mortar Office,"5403 Highway 280, Suite 401",Birmingham,AL,35244,33.41842909,-86.66972539
ServisFirst Bank,Huntsville - Research Park,Full Service Brick and Mortar Office,1267-A Enterprise Way,Huntsville,AL,35806,34.74036,-86.6785545
ServisFirst Bank,Huntsville Main,Full Service Brick and Mortar Office,"401 Meridian Street, Suite 100",Huntsville,AL,35801,34.735086,-86.5872765
ServisFirst Bank,Mobile,Full Service Brick and Mortar Office,2 North Royal Street,Mobile,AL,36602,30.69233414,-88.04088671
ServisFirst Bank,Montgomery East,Full Service Brick and Mortar Office,7256 Halcyon Park Dr,Montgomery,AL,36117,32.33879249,-86.17342107
ServisFirst Bank,Montgomery Main,Full Service Brick and Mortar Office,One Commerce Street Ste 200,Montgomery,AL,36104,32.3799791,-86.31167265
ServisFirst Bank,Servisfirst Bank,Full Service Brick and Mortar Office,2500 Woodcrest Place,Birmingham,AL,35209,33.486291,-86.788881
ServisFirst Bank,Spring Hill,Limited Service Mobile Office,4400 0ld Shell Road,Mobile,AL,36608,30.69745165,-88.14307651
Union State Bank,Ashville,Full Service Brick and Mortar Office,32 Court Street East,Ashville,AL,35953,33.83701074,-86.25447607
Union State Bank,Cedar Bluff Main,Full Service Brick and Mortar Office,3460 Old Highway 9,Cedar Bluff,AL,35959,34.21791232,-85.60998894
Union State Bank,Centre,Full Service Brick and Mortar Office,796 Cedar Bluff Road,Centre,AL,35960,34.16387623,-85.66313899
Union State Bank,Cropwell,Full Service Brick and Mortar Office,2408 Mays Drive,Cropwell,AL,35054,33.55701627,-86.26917049
Union State Bank,Drive-In Teller Facility,Limited Service Facility Office,15 20th Street North,Pell City,AL,35125,33.58679951,-86.2849211
Union State Bank,Hoover,Full Service Brick and Mortar Office,3437 Lorna Road,Birmingham,AL,35216,33.39136408,-86.79659614
Union State Bank,Lakeshore,Full Service Brick and Mortar Office,2200 Lakeshore Drive Suite 100,Birmingham,AL,35209,33.46677293,-86.78150184
Union State Bank,Pelham,Full Service Brick and Mortar Office,2267 Pelham Parkway,Pelham,AL,35124,33.33200861,-86.79194474
Union State Bank,Plaza,Full Service Brick and Mortar Office,509 Main Street,Pell City,AL,35125,41.403501,-92.91652814
Union State Bank,Pleasant Grove,Full Service Brick and Mortar Office,829 Park Road,Pleasant Grove,AL,35127,33.49130711,-86.97719901
Union State Bank,Trussville,Full Service Brick and Mortar Office,305 Main Street,Trussville,AL,35173,33.618843,-86.61089122
Union State Bank,Union State Bank,Full Service Brick and Mortar Office,15 20th Street North,Pell City,AL,35125,33.58679951,-86.2849211
Troy Bank & Trust Company,Ariton,Full Service Brick and Mortar Office,6 Atlantic Street,Ariton,AL,36311,31.60022049,-85.7175873
Troy Bank & Trust Company,Brundidge,Full Service Brick and Mortar Office,425 S.A. Graham Boulevard,Brundidge,AL,36010,31.72028796,-85.82876184
Troy Bank & Trust Company,Dothan,Full Service Brick and Mortar Office,4971 West Main Street,Dothan,AL,36305,31.23858915,-85.46840344
Troy Bank & Trust Company,Enterprise Bank,Full Service Brick and Mortar Office,"1110 North Boll Weevil Circle, Suite C",Enterprise,AL,36330,31.335345,-85.8571515
Troy Bank & Trust Company,Goshen Farmers,Full Service Brick and Mortar Office,301 Greenville Avenue,Goshen,AL,36035,31.72164693,-86.12726764
Troy Bank & Trust Company,Highway 231 South,Full Service Brick and Mortar Office,1429 Highway 231 South,Troy,AL,36081,31.77869336,-85.94067011
Troy Bank & Trust Company,New Brockton,Full Service Brick and Mortar Office,108 Mckinnon Street,New Brockton,AL,36351,31.38678,-85.929804
Troy Bank & Trust Company,North Three Notch Street,Full Service Brick and Mortar Office,300 North Three Notch Street,Troy,AL,36081,31.80932003,-85.97221383
Troy Bank & Trust Company,Opelika,Full Service Brick and Mortar Office,"2701 Frederick Road, Suite 101",Opelika,AL,36801,32.62028599,-85.4176185
Troy Bank & Trust Company,Peoples Bank Of Coffee County - Elba,Full Service Brick and Mortar Office,429 North Claxton Avenue,Elba,AL,36323,31.41617158,-86.06707126
Troy Bank & Trust Company,Troy Bank & Trust Company,Full Service Brick and Mortar Office,1000 Highway 231 South,Troy,AL,36081,31.78440755,-85.96092071
CenterState Bank,Auburn East University,Full Service Brick and Mortar Office,1605 E University Dr,Auburn,AL,36830,32.609475,-85.44768951
CenterState Bank,Auburn South College,Full Service Brick and Mortar Office,1684 S College,Auburn,AL,36830,32.572656,-85.5001215
CenterState Bank,Fairhope,Full Service Brick and Mortar Office,457 Magnolia Avenue,Fairhope,AL,36532,30.52446853,-87.90119075
CenterState Bank,Gulf Shores,Full Service Brick and Mortar Office,1560 West 2nd Street,Gulf Shores,AL,36542,30.26779144,-87.69164614
CenterState Bank,Huntsville,Full Service Brick and Mortar Office,415 Meridian St N,Huntsville,AL,35801,34.73574247,-86.5865405
CenterState Bank,Inverness,Full Service Brick and Mortar Office,5 Inverness Center Pkwy,Birmingham,AL,35242,33.42366655,-86.70344531
CenterState Bank,Madison,Full Service Brick and Mortar Office,8153 Highway 72 West,Madison,AL,35758,34.750665,-86.7554775
CenterState Bank,National Bank Of Commerce,Full Service Brick and Mortar Office,600 Luckie Dr,Birmingham,AL,35223,33.47426218,-86.7694809
CenterState Bank,Opelika,Full Service Brick and Mortar Office,701 2nd Ave,Opelika,AL,36801,32.650658,-85.38040162
CenterState Bank,Opelika,Full Service Brick and Mortar Office,2443 Enterprise Dr,Opelika,AL,36801,32.62154426,-85.40944225
CenterState Bank,Valley,Full Service Brick and Mortar Office,3500 20th Ave,Valley,AL,36854,32.78758588,-85.15659088
FNB Bank,Bridgeport,Full Service Brick and Mortar Office,51616 Old Highway 72,Bridgeport,AL,35740,34.95660032,-85.72575393
FNB Bank,Five Points Drive-Up Facility,Limited Service Facility Office,701 E. Laurel Street,Scottsboro,AL,35768,34.67275799,-86.02537216
FNB Bank,Fnb Bank,Full Service Brick and Mortar Office,Broad And Appletree Streets,Scottsboro,AL,35768,34.670907,-86.0348205
FNB Bank,Grant,Full Service Brick and Mortar Office,5399 Main Street,Grant,AL,35747,34.52576336,-86.25273209
FNB Bank,Guntersville,Full Service Brick and Mortar Office,1302 Gunter Avenue,Guntersville,AL,35976,34.34752225,-86.30220914
FNB Bank,Henagar,Full Service Brick and Mortar Office,State Highway 40,Henagar,AL,35978,34.62517878,-85.79246192
FNB Bank,Jackson Square,Full Service Brick and Mortar Office,1535 South Broad Street,Scottsboro,AL,35768,34.65378814,-86.03516547
FNB Bank,Pisgah,Full Service Brick and Mortar Office,2399 County Road 58,Pisgah,AL,35765,34.68220065,-85.84811568
FNB Bank,Section,Full Service Brick and Mortar Office,4968 Tammy Little Drive,Section,AL,35771,34.58200142,-85.98391728
FNB Bank,Skyline,Full Service Brick and Mortar Office,Highway 79,Scottsboro,AL,35768,34.58952717,-86.09695061
FNB Bank,Woodville,Full Service Brick and Mortar Office,29975 Alabama Highway 35,Woodville,AL,35776,34.62592556,-86.27261971
SmartBank,Chatom,Full Service Brick and Mortar Office,16780 Jordan Street,Chatom,AL,36518,31.46420111,-88.25441886
SmartBank,Daphne Lpo,Limited Service Loan Production Office,"28810 Highway 98, Suite E",Daphne,AL,36526,30.64485573,-87.91248193
SmartBank,Fairhope,Full Service Brick and Mortar Office,103 Ecor Rouge Place,Fairhope,AL,36532,30.52501784,-87.8871636
SmartBank,Huntsville,Full Service Brick and Mortar Office,300 Clinton Avenue W.,Huntsville,AL,35801,34.730442,-86.5891395
SmartBank,Indian Hills,Full Service Brick and Mortar Office,230 Mcfarland Circle North,Tuscaloosa,AL,35406,33.234543,-87.5384685
SmartBank,Jackson,Full Service Brick and Mortar Office,1600 College Avenue,Jackson,AL,36545,31.52726036,-87.89291974
SmartBank,Mcintosh,Full Service Brick and Mortar Office,158 Commerce Street,Mc Intosh,AL,36553,31.26637004,-88.0312578
SmartBank,Northport,Full Service Brick and Mortar Office,2000 Lurleen B. Wallace Boulevard,Northport,AL,35476,33.229809,-87.577065
SmartBank,Thomasville,Full Service Retail Office,33219 Us Highway 43,Thomasville,AL,36784,31.92448082,-87.739382
SmartBank,Tuscaloosa University,Full Service Brick and Mortar Office,2301 University Boulevard,Tuscaloosa,AL,35401,33.21015065,-87.56696371
Metro Bank,Ashville,Full Service Brick and Mortar Office,35489 Ushwy 231,Ashville,AL,35953,33.8427189,-86.26631
Metro Bank,Heflin,Full Service Brick and Mortar Office,1022 Coleman St,Heflin,AL,36264,33.64343071,-85.58751269
Metro Bank,Lincoln,Full Service Brick and Mortar Office,47537 Highway 78,Lincoln,AL,35096,33.60374553,-86.12136
Metro Bank,Martin Street,Limited Service Facility Office,1920 Martin Street South,Pell City,AL,35128,33.5669187,-86.27103682
Metro Bank,Metro Bank,Full Service Brick and Mortar Office,800 Martin Street South,Pell City,AL,35128,33.58103786,-86.27655196
Metro Bank,Moody,Full Service Brick and Mortar Office,2603 Moody Parkway,Moody,AL,35004,33.584274,-86.504679
Metro Bank,Pell City Remote,Limited Service Facility Office,Highway 231 North & Lewis Lake Rd,Pell City,AL,35125,33.611913,-86.2810785
Metro Bank,Ragland,Full Service Brick and Mortar Office,1164 Main Street,Ragland,AL,35131,33.74269598,-86.15063242
Metro Bank,Southside,Full Service Brick and Mortar Office,2325 Highway 77,Gadsden,AL,35907,33.91961344,-86.02227887
Peoples Independent Bank,Douglas,Full Service Brick and Mortar Office,99 Alabama Highway 168,Horton,AL,35980,34.17345386,-86.32158191
Peoples Independent Bank,Gurley Office,Full Service Brick and Mortar Office,111 Steel Drive,Gurley,AL,35748,34.69481273,-86.36825091
Peoples Independent Bank,Hokes Bluff,Full Service Brick and Mortar Office,5690 Us Highway 278 East,Gadsden,AL,35903,33.98562745,-85.86725897
Peoples Independent Bank,Horizon Bank,Full Service Brick and Mortar Office,1167 Main St,Fyffe,AL,35971,34.44511122,-85.90667908
Peoples Independent Bank,Peoples Independent Bank,Full Service Brick and Mortar Office,121 Billy B. Dyar Boulevard,Boaz,AL,35957,34.19533913,-86.14994117
Peoples Independent Bank,Powell,Full Service Brick and Mortar Office,3736 Main Street Powell,Fyffe,AL,35971,34.52876595,-85.89568701
Peoples Independent Bank,Scottsboro,Full Service Brick and Mortar Office,820 South Broad Street,Scottsboro,AL,35768,34.66539513,-86.03502714
Peoples Independent Bank,Steele,Full Service Brick and Mortar Office,3915 Pope Avenue,Steele,AL,35987,33.94214398,-86.19901835
Peoples Independent Bank,Sylvania,Full Service Brick and Mortar Office,23083 Alabama Highway 75,Sylvania,AL,35988,34.55951428,-85.80089488
Premier Bank of the South,Addison,Full Service Brick and Mortar Office,30710 Us 278,Addison,AL,35540,34.20130809,-87.17850646
Premier Bank of the South,Cullman,Full Service Brick and Mortar Office,"101 First Avenue, Northwest",Cullman,AL,35055,34.17733301,-86.84414368
Premier Bank of the South,Eva Office,Full Service Brick and Mortar Office,5576 Highway 55 East,Eva,AL,35621,34.311861,-86.73309751
Premier Bank of the South,Huntsville,Full Service Brick and Mortar Office,2123 Whitesburg Drive,Huntsville,AL,35801,34.7170647,-86.57743187
Premier Bank of the South,Madison,Full Service Brick and Mortar Office,8803 Madison Blvd,Madison,AL,35758,34.67827213,-86.74736701
Premier Bank of the South,North Office,Full Service Brick and Mortar Office,3323 Alabama Highway 157,Cullman,AL,35058,34.203096,-86.8294575
Premier Bank of the South,Premier Bank Of The South,Full Service Brick and Mortar Office,"101 First Avenue, Northwest",Cullman,AL,35055,34.17733301,-86.84414368
Premier Bank of the South,Vinemont,Full Service Brick and Mortar Office,25 County Road 1292,Vinemont,AL,35179,34.24284909,-86.86812629
Premier Bank of the South,West Point Office,Full Service Brick and Mortar Office,207 County Road 1242,Vinemont,AL,35179,34.241787,-86.9594265
PeoplesSouth Bank,Abbeville,Full Service Brick and Mortar Office,519 Kirkland Street,Abbeville,AL,36310,31.56124561,-85.2529845
PeoplesSouth Bank,Ashford,Full Service Brick and Mortar Office,414 Broadway,Ashford,AL,36312,31.18357741,-85.28674443
PeoplesSouth Bank,Dothan East,Full Service Brick and Mortar Office,3605 E. Main Street,Dothan,AL,36301,31.20124832,-85.3415608
PeoplesSouth Bank,Dothan North,Full Service Brick and Mortar Office,2861 John D Odom Road,Dothan,AL,36303,31.2749173,-85.45558298
PeoplesSouth Bank,Eufaula,Full Service Brick and Mortar Office,1245 South Eufaula Avenue,Eufaula,AL,36027,31.87643455,-85.1508066
PeoplesSouth Bank,Headland,Full Service Brick and Mortar Office,617 East Church Street,Headland,AL,36345,31.35255446,-85.32861116
PeoplesSouth Bank,Ozark,Full Service Brick and Mortar Office,101 Painter Avenue,Ozark,AL,36360,31.45867212,-85.64218893
PeoplesSouth Bank,Peoples Community Columbia,Full Service Brick and Mortar Office,109 East Church Street,Columbia,AL,36319,31.29279743,-85.11093796
PeoplesSouth Bank,Westside,Full Service Brick and Mortar Office,2926 Ross Clark Circle,Dothan,AL,36301,31.2186356,-85.43156844
First Metro Bank,Athens,Full Service Brick and Mortar Office,309 West Washington Street,Athens,AL,35611,34.80235027,-86.97232908
First Metro Bank,Cloverdale Road,Full Service Brick and Mortar Office,3121 Cloverdale Road,Florence,AL,35633,34.84815258,-87.69003036
First Metro Bank,First Metro Bank,Full Service Brick and Mortar Office,406 West Avalon Avenue,Muscle Shoals,AL,35661,34.74482412,-87.67250289
First Metro Bank,Florence,Full Service Brick and Mortar Office,2708 Hough Road,Florence,AL,35630,34.83544179,-87.63258923
First Metro Bank,Highway 43,Full Service Brick and Mortar Office,7400 Highway 43,Florence,AL,35634,34.95216292,-87.52968277
First Metro Bank,Lexington,Full Service Brick and Mortar Office,11277 Highway 101,Lexington,AL,35648,34.97054821,-87.36985614
First Metro Bank,Main Street,Full Service Brick and Mortar Office,301 North Main Street,Tuscumbia,AL,35674,34.73458139,-87.70356387
First Metro Bank,Pine Street,Full Service Brick and Mortar Office,325 S Pine Street,Florence,AL,35630,34.79756246,-87.67586001
First Metro Bank,Russellville,Full Service Brick and Mortar Office,15315 Highway 43,Russellville,AL,35653,34.51307247,-87.71757596
AuburnBank,Auburnbank,Full Service Brick and Mortar Office,100 North Gay Street,Auburn,AL,36830,32.60678604,-85.47984013
AuburnBank,Bentcreek,Full Service Brick and Mortar Office,2315 Bentcreek Road,Auburn,AL,36830,32.608863,-85.4293725
AuburnBank,Frederick Road,Full Service Brick and Mortar Office,1851 Frederick Road,Opelika,AL,36801,32.62274881,-85.40321229
AuburnBank,Notasulga,Full Service Brick and Mortar Office,950 Auburn Rd.,Notasulga,AL,36866,32.57145388,-85.66115637
AuburnBank,Opelika,Full Service Brick and Mortar Office,215 South 6th Street,Opelika,AL,36801,32.64846295,-85.37529205
AuburnBank,South Donahue,Full Service Brick and Mortar Office,1351 S. Donahue Drive,Auburn,AL,36830,32.5786737,-85.4882022
AuburnBank,The Corner Village,Full Service Retail Office,819 East Glenn Ave Suite 110,Auburn,AL,36830,32.60907239,-85.46446743
AuburnBank,Valley,Full Service Brick and Mortar Office,132 Fob James Drive,Valley,AL,36854,32.81480051,-85.18344026
Citizens Bank & Trust,Albertville,Full Service Brick and Mortar Office,324 North Broad Street,Albertville,AL,35950,34.27198792,-86.20673796
Citizens Bank & Trust,Arab,Full Service Brick and Mortar Office,1205 North Brindlee Mountain Parkway,Arab,AL,35016,34.3377541,-86.50365367
Citizens Bank & Trust,Citizens Bank & Trust,Full Service Brick and Mortar Office,711 Gunter Avenue,Guntersville,AL,35976,34.35515715,-86.29626726
Citizens Bank & Trust,Cullman,Full Service Brick and Mortar Office,223 2nd Avenue Se,Cullman,AL,35055,34.17638084,-86.84107898
Citizens Bank & Trust,Elkmont,Full Service Brick and Mortar Office,25530 Alabama Highway 127,Elkmont,AL,35620,34.92650486,-86.98860553
Citizens Bank & Trust,Hazel Green,Full Service Brick and Mortar Office,13870 Highway 231/431 North,Hazel Green,AL,35750,34.920378,-86.5711935
Citizens Bank & Trust,New Hope,Full Service Brick and Mortar Office,5053 Main Drive,New Hope,AL,35760,34.54208521,-86.41023794
Citizens Bank & Trust,Rogersville,Full Service Brick and Mortar Office,Market Square,Rogersville,AL,35652,36.401868,-83.01091275
MidSouth Bank,Ashford,Full Service Brick and Mortar Office,520 Broadway Street,Ashford,AL,36312,31.18519749,-85.23540285
MidSouth Bank,Auburn,Full Service Brick and Mortar Office,519 East Glenn Avenue,Auburn,AL,36830,32.609493,-85.4721765
MidSouth Bank,Clayton,Full Service Brick and Mortar Office,16 South Midway Street,Clayton,AL,36016,31.87500163,-85.44960949
MidSouth Bank,Eufaula,Full Service Brick and Mortar Office,230 South Eufaula Avenue,Eufaula,AL,36027,31.89083459,-85.14582413
MidSouth Bank,Midsouth Bank,Full Service Brick and Mortar Office,2526 West Main Street,Dothan,AL,36301,31.2284315,-85.42642
MidSouth Bank,Northside,Full Service Brick and Mortar Office,3776 Montgomery Highway,Dothan,AL,36303,31.2593461,-85.435479
MidSouth Bank,Southside,Full Service Brick and Mortar Office,2224 Ross Clark Circle,Dothan,AL,36301,31.19255844,-85.40601072
MidSouth Bank,Westside,Full Service Brick and Mortar Office,4015 West Main Street,Dothan,AL,36305,31.23378577,-85.45177998
First Southern State Bank,First Southern State Bank,Full Service Brick and Mortar Office,80 Bank Street,Stevenson,AL,35772,34.87315088,-85.81470257
First Southern State Bank,Fort Payne,Full Service Brick and Mortar Office,2128 Gault Ave N,Fort Payne,AL,35967,34.46210009,-85.70405812
First Southern State Bank,Fort Payne,Full Service Brick and Mortar Office,1820 Glen Boulevard,Fort Payne,AL,35967,34.43827611,-85.75761107
First Southern State Bank,Higdon,Full Service Brick and Mortar Office,30158 Alabama 71,Bryant,AL,35958,34.85653777,-85.6139572
First Southern State Bank,Leesburg,Full Service Brick and Mortar Office,200 Industrial Boulevard,Leesburg,AL,35983,34.18059988,-85.76136326
First Southern State Bank,Rainsville,Full Service Brick and Mortar Office,403 Main Street West,Rainsville,AL,35986,34.49746528,-85.85257662
First Southern State Bank,Scottsboro,Full Service Brick and Mortar Office,20 Micah Way,Scottsboro,AL,35769,34.65986711,-86.01749902
First Southern State Bank,West Main Street,Full Service Brick and Mortar Office,201 West Main Street,Centre,AL,35960,34.15225314,-85.6801921
First Financial Bank,Centreville,Full Service Brick and Mortar Office,119 Birmingham Rd,Centreville,AL,35042,32.94549373,-87.14379589
First Financial Bank,First Financial Bank,Full Service Brick and Mortar Office,1630 4th Avenue North,Bessemer,AL,35020,33.400926,-86.9568795
First Financial Bank,Hueytown,Full Service Brick and Mortar Office,1243 Hueytown Rd,Bessemer,AL,35023,33.43608084,-86.99438734
First Financial Bank,Mccalla,Full Service Brick and Mortar Office,4790 Eastern Valley Road,Mc Calla,AL,35111,33.328683,-87.000894
First Financial Bank,Pelham,Full Service Brick and Mortar Office,3304 Pelham Parkway,Pelham,AL,35124,33.27870639,-86.81166121
First Financial Bank,Vance,Full Service Brick and Mortar Office,18704 Highway 11 North,Vance,AL,35490,33.177816,-87.224157
First Financial Bank,West Blocton,Full Service Brick and Mortar Office,1212 Main Street,West Blocton,AL,35184,33.11756809,-87.11941513
First Financial Bank,Woodstock,Full Service Brick and Mortar Office,28802 Highway 5,Woodstock,AL,35188,33.21335758,-87.16261472
EvaBank,Cherokee Office,Full Service Brick and Mortar Office,1710 Cherokee Ave S.W.,Cullman,AL,35055,34.156827,-86.8366575
EvaBank,Clairmont,Full Service Brick and Mortar Office,2915 Clairmont Avenue,Birmingham,AL,35205,33.51067257,-86.78514046
EvaBank,Cullman,Full Service Brick and Mortar Office,3210 Alabama Highway 157,Cullman,AL,35058,34.20351,-86.8268295
EvaBank,Decatur,Full Service Brick and Mortar Office,2404 Danville Road,Decatur,AL,35603,34.567551,-87.016329
EvaBank,Evabank,Full Service Brick and Mortar Office,4113 Eva Road,Eva,AL,35621,34.33136777,-86.75936339
EvaBank,Evabank - Priceville Office,Full Service Brick and Mortar Office,464 Highway 67 South,Decatur,AL,35603,34.52430275,-86.89358038
EvaBank,Madison,Full Service Brick and Mortar Office,8848 Madison Boulevard,Madison,AL,35758,34.67771873,-86.74935529
Pinnacle Bank,1012 20th St,Full Service Brick and Mortar Office,1012 20th Street,Haleyville,AL,35565,34.22659574,-87.62228771
Pinnacle Bank,78 Highway Drive Through,Limited Service Facility Office,100 22nd Avenue,Jasper,AL,35501,33.84371102,-87.24882202
Pinnacle Bank,Bryan Road,Full Service Brick and Mortar Office,790 Highway 78,Sumiton,AL,35148,33.74422855,-87.04430428
Pinnacle Bank,Gardendale,Full Service Brick and Mortar Office,101 Pinnacle Drive,Gardendale,AL,35071,33.66696659,-86.81461098
Pinnacle Bank,Montgomery Highway,Full Service Brick and Mortar Office,2039 Canyon Road,Birmingham,AL,35216,33.4449,-86.789097
Pinnacle Bank,Pinnacle Bank,Full Service Brick and Mortar Office,1811 Second Avenue,Jasper,AL,35501,33.81772987,-87.27613947
Pinnacle Bank,Trussville,Full Service Brick and Mortar Office,2064 Gadsden Highway,Trussville,AL,35173,33.61257426,-86.62358239
Robertson Banking Company,Birmingham,Full Service Brick and Mortar Office,1801 5th Avenue North,Birmingham,AL,35203,33.51688913,-86.81060662
Robertson Banking Company,Linden,Full Service Brick and Mortar Office,209 East Coats Avenue,Linden,AL,36748,32.30630579,-87.79632111
Robertson Banking Company,Northridge,Full Service Brick and Mortar Office,1835 Mcfarland Blvd N,Tuscaloosa,AL,35406,33.236568,-87.551217
Robertson Banking Company,Robertson Banking Company,Full Service Brick and Mortar Office,216 North Walnut Avenue,Demopolis,AL,36732,32.51816016,-87.83751596
Robertson Banking Company,Thomaston,Full Service Brick and Mortar Office,6510 2nd Avenue,Thomaston,AL,36783,32.26671846,-87.62740502
Robertson Banking Company,Tuscaloosa,Full Service Brick and Mortar Office,1400 Greensboro Avenue,Tuscaloosa,AL,35401,33.200964,-87.5652885
Robertson Banking Company,Westside,Full Service Brick and Mortar Office,1206 Highway 80 West,Demopolis,AL,36732,32.50311231,-87.82263189
Farmers and Merchants Bank,Anniston,Full Service Brick and Mortar Office,1429 Quintard Avenue,Anniston,AL,36201,33.663411,-85.82656551
Farmers and Merchants Bank,Cusseta Roads,Full Service Brick and Mortar Office,2838 Phillips Road South,Lanett,AL,36863,32.83466187,-85.22983511
Farmers and Merchants Bank,Dadeville,Full Service Brick and Mortar Office,216 S. Broadnax Street,Dadeville,AL,36853,32.82896658,-85.76364318
Farmers and Merchants Bank,Farmers And Merchants Bank,Full Service Brick and Mortar Office,112 East Ladiga Street,Piedmont,AL,36272,33.92370338,-85.60995882
Farmers and Merchants Bank,Farmers And Merchants Bank,Full Service Brick and Mortar Office,2 1st St Ne,Lafayette,AL,36862,32.89981487,-85.40030221
Farmers and Merchants Bank,Jacksonville,Full Service Brick and Mortar Office,1130 South Pelham Road,Jacksonville,AL,36265,33.800346,-85.76122545
Farmers and Merchants Bank,Oxford,Full Service Brick and Mortar Office,35 Ali Way,Oxford,AL,36203,33.61107908,-85.82361915
First National Bank,Bank Of Berry,Full Service Brick and Mortar Office,17871 Ushwy 18 E,Berry,AL,35546,33.63223079,-87.6596462
First National Bank,Carbon Hill,Full Service Brick and Mortar Office,31900 Northwest 1st Avenue,Carbon Hill,AL,35549,33.88829914,-87.52818146
First National Bank,Double Springs,Full Service Brick and Mortar Office,15305 Ushwy 278 West,Double Springs,AL,35553,34.15722426,-87.40953734
First National Bank,First National Bank,Full Service Brick and Mortar Office,341 Military Street South,Hamilton,AL,35570,34.1393505,-87.98943983
First National Bank,Haleyville,Full Service Brick and Mortar Office,1100 20th Street,Haleyville,AL,35565,34.2266463,-87.6214242
First National Bank,Parrish,Full Service Brick and Mortar Office,First Avenue And Main Street,Parrish,AL,35580,33.730641,-87.28461
First National Bank,Sulligent,Full Service Brick and Mortar Office,55220 Highway 17,Sulligent,AL,35586,33.90113446,-88.13398928
Traders & Farmers Bank,Addison,Full Service Brick and Mortar Office,30966 Hwy 278,Addison,AL,35540,34.20046372,-87.17546812
Traders & Farmers Bank,Arley,Full Service Brick and Mortar Office,6141 County Road 41,Arley,AL,35541,34.06922229,-87.2179855
Traders & Farmers Bank,Bear Creek,Full Service Brick and Mortar Office,309 Main Street,Bear Creek,AL,35543,34.2751134,-87.70074985
Traders & Farmers Bank,Curry,Full Service Brick and Mortar Office,5329 Curry Hwy,Jasper,AL,35503,33.94252154,-87.21890412
Traders & Farmers Bank,Double Springs,Full Service Brick and Mortar Office,10 Blake Drive,Double Springs,AL,35553,34.14707645,-87.39314636
Traders & Farmers Bank,Lynn,Full Service Brick and Mortar Office,101 Heck St,Lynn,AL,35575,34.05159583,-87.55324472
Traders & Farmers Bank,Traders & Farmers Bank,Full Service Brick and Mortar Office,819 20th St,Haleyville,AL,35565,34.22615959,-87.62474613
First Community Bank of Central Alabama,Eclectic,Full Service Retail Office,1875 Kowaliga Rd,Eclectic,AL,36024,32.65540041,-86.04827007
First Community Bank of Central Alabama,First Community Bank Of Central Alab,Full Service Brick and Mortar Office,715 Wilson Street,Wetumpka,AL,36092,32.52819484,-86.20543272
First Community Bank of Central Alabama,Holtville Road,Full Service Brick and Mortar Office,9788 Holtville Road,Wetumpka,AL,36092,32.63452247,-86.31509171
First Community Bank of Central Alabama,Millbrook,Full Service Brick and Mortar Office,3300 Highway 14,Millbrook,AL,36054,32.51033988,-86.38123359
First Community Bank of Central Alabama,Prattville,Full Service Brick and Mortar Office,1761 East Main Street,Prattville,AL,36068,32.46093,-86.4228015
First Community Bank of Central Alabama,Tallassee,Full Service Brick and Mortar Office,526 Gilmer Avenue,Tallassee,AL,36078,32.54363565,-85.90509286
First Community Bank of Central Alabama,West Prattville,Full Service Brick and Mortar Office,211 Highway 82 Bypass W,Prattville,AL,36067,32.43945917,-86.47625839
First Bank of Alabama,Ashland,Full Service Brick and Mortar Office,83183 Alabama Hwy 9,Ashland,AL,36251,33.27395905,-85.83405536
First Bank of Alabama,Bank Of Wedowee,Full Service Brick and Mortar Office,111 West Broad Street,Wedowee,AL,36278,33.30921027,-85.48611334
First Bank of Alabama,First Bank Of Alabama,Full Service Brick and Mortar Office,120 East North Street,Talladega,AL,35160,33.43557085,-86.10199646
First Bank of Alabama,Lincoln,Full Service Brick and Mortar Office,47743 Us Highway 78,Lincoln,AL,35096,33.60405137,-86.11836306
First Bank of Alabama,Munford,Full Service Brick and Mortar Office,44388 Alabama 21,Munford,AL,36268,33.53208054,-85.94013567
First Bank of Alabama,Roanoke,Full Service Brick and Mortar Office,3500 Highway 431,Roanoke,AL,36274,33.15464516,-85.3612637
First Bank of Alabama,Woodland,Full Service Brick and Mortar Office,24514 Highway 48,Woodland,AL,36280,33.37380855,-85.39476218
Progress Bank and Trust,Birmingham,Full Service Brick and Mortar Office,2121 Highland Avenue South,Birmingham,AL,35205,33.499674,-86.7930255
Progress Bank and Trust,Carl T. Jones Drive,Full Service Brick and Mortar Office,2746 Carl T. Jones Drive,Huntsville,AL,35802,34.67672204,-86.54353538
Progress Bank and Trust,Florence,Full Service Brick and Mortar Office,230 East Tennessee Street,Florence,AL,35630,34.80111307,-87.67362684
Progress Bank and Trust,Grant Street,Full Service Brick and Mortar Office,255 Grant Street,Decatur,AL,35601,34.601499,-86.982831
Progress Bank and Trust,Madison,Full Service Brick and Mortar Office,8337 Highway 72,Madison,AL,35758,34.749045,-86.762637
Progress Bank and Trust,Progress Bank And Trust,Full Service Brick and Mortar Office,201 Williams Avenue,Huntsville,AL,35801,34.72850652,-86.58292349
Progress Bank and Trust,Vestride,Full Service Brick and Mortar Office,1360 Montgomery Highway,Birmingham,AL,35216,33.42612394,-86.79349642
Southern States Bank,Auburn,Full Service Brick and Mortar Office,815 Opelika Rd,Auburn,AL,36830,32.617422,-85.4640945
Southern States Bank,Birmingham,Full Service Retail Office,7 Office Park Circle,Birmingham,AL,35223,33.47887902,-86.77251427
Southern States Bank,Huntsville,Full Service Brick and Mortar Office,"415 Church Street, Building H, Suite 100",Huntsville,AL,35801,34.734384,-86.592699
Southern States Bank,Opelika,Full Service Brick and Mortar Office,2601 Frederick Road,Opelika,AL,36801,32.6210492,-85.41498228
Southern States Bank,Southern States Bank,Full Service Brick and Mortar Office,615 Quintard Avenue,Anniston,AL,36202,33.65221607,-85.8264717
Southern States Bank,Sylacauga,Full Service Brick and Mortar Office,101 West Fort Williams Street,Sylacauga,AL,35150,33.16728454,-86.252841
Centennial Bank,Elberta,Full Service Brick and Mortar Office,24989 State Street,Elberta,AL,36530,30.41433149,-87.59860153
Centennial Bank,Fairhope,Full Service Brick and Mortar Office,218 North Greeno Rd,Fairhope,AL,36532,30.529269,-87.88604963
Centennial Bank,Foley,Full Service Brick and Mortar Office,501 S Mckenzie Street,Foley,AL,36535,30.40189005,-87.68380917
Centennial Bank,Gulf Shores,Full Service Brick and Mortar Office,2201 West First Street,Gulf Shores,AL,36542,30.27476692,-87.68882131
Centennial Bank,Gulf Shores,Limited Service Messenger Office,2201 West First Street,Gulf Shores,AL,36542,30.27476692,-87.68882131
Centennial Bank,Orange Beach,Full Service Brick and Mortar Office,25051 Canal Street,Orange Beach,AL,36561,30.29034848,-87.59718106
Liberty Bank,Albertville,Full Service Brick and Mortar Office,305 North Broad Street,Albertville,AL,35950,34.2708863,-86.20718307
Liberty Bank,Collinsville,Full Service Brick and Mortar Office,5350 Alabama Highway 68,Collinsville,AL,35961,34.27067417,-85.87262729
Liberty Bank,Crossville,Full Service Brick and Mortar Office,15053 Alabama Highway 68,Crossville,AL,35962,34.2852672,-86.00136367
Liberty Bank,Liberty Bank,Full Service Brick and Mortar Office,40956 Alabama Highway 75,Geraldine,AL,35974,34.36711006,-86.00103115
Liberty Bank,Sardis Road,Full Service Brick and Mortar Office,1660 Sardis Road,Boaz,AL,35956,34.17625852,-86.11500521
Liberty Bank,Snead,Full Service Brick and Mortar Office,87615 Us Hwy 278 East,Altoona,AL,35952,34.11529121,-86.38834569
Traditions Bank,Arley,Full Service Brick and Mortar Office,19 Helicon Road,Arley,AL,35541,34.0804693,-87.21266913
Traditions Bank,Dodge City,Full Service Brick and Mortar Office,639 Alabama Highway 69s,Hanceville,AL,35077,34.047801,-86.87385
Traditions Bank,Hayden,Full Service Brick and Mortar Office,121 White Oak Trail,Warrior,AL,35180,33.85004125,-86.82651622
Traditions Bank,Holly Pond Office,Full Service Brick and Mortar Office,40 Holly Pond Blountsville Road,Holly Pond,AL,35083,34.173486,-86.615586
Traditions Bank,Priceville,Full Service Brick and Mortar Office,380 Highway 67 South,Decatur,AL,35603,34.52609246,-86.89596528
Traditions Bank,Traditions Bank,Full Service Brick and Mortar Office,109 2nd Avenue N.W.,Cullman,AL,35055,34.17766631,-86.84541258
BankFirst Financial Services,Aliceville,Full Service Brick and Mortar Office,"25 Third Street, N. E.",Aliceville,AL,35442,33.12270227,-88.14886379
BankFirst Financial Services,Carrollton,Full Service Brick and Mortar Office,Elliott Street And Highway 17,Carrollton,AL,35447,33.2625645,-88.095699
BankFirst Financial Services,First National Bank Of Central Al/Br,Full Service Brick and Mortar Office,2323 Paul W Bryant Drive,Tuscaloosa,AL,35403,33.20515719,-87.56578514
BankFirst Financial Services,Gordo,Full Service Brick and Mortar Office,106 Second Avenue Northwest,Gordo,AL,35466,33.32086966,-87.90518065
BankFirst Financial Services,Northport,Full Service Brick and Mortar Office,54 Mcfarland Boulevard,Northport,AL,35476,33.23658979,-87.55361325
BankFirst Financial Services,Tuscaloosa County,Full Service Brick and Mortar Office,2201 7th Street,Tuscaloosa,AL,35401,33.208308,-87.5649825
Century Bank,Cottage Hill Road,Full Service Brick and Mortar Office,6380 Cottage Hill Road,Mobile,AL,36609,30.64020678,-88.19032221
Century Bank,Fairhope,Full Service Brick and Mortar Office,861 Edwards Avenue,Fairhope,AL,36532,30.52733146,-87.88660967
Century Bank,Mobile County Bank,Full Service Brick and Mortar Office,Union Church Road And Highway 90,Grand Bay,AL,36541,47.10343289,-119.6830128
Century Bank,Spring Hill,Full Service Brick and Mortar Office,127 West I-65 Service Road North,Mobile,AL,36608,30.69378197,-88.12559601
Century Bank,Tillman's Corner,Full Service Brick and Mortar Office,5370 Hwy 90 West,Mobile,AL,36628,30.593052,-88.170075
Century Bank,West Moffett Commercial Park Shoppin,Full Service Brick and Mortar Office,7875 Moffett Road,Semmes,AL,36575,30.76405741,-88.22752366
Merchants Bank of Alabama,Arab,Full Service Brick and Mortar Office,1096 North Brindlee Mountain Parkway,Arab,AL,35016,34.33472956,-86.50325674
Merchants Bank of Alabama,Fairview,Full Service Brick and Mortar Office,44 Butler Street,Cullman,AL,35058,34.25417121,-86.69049349
Merchants Bank of Alabama,Hanceville,Full Service Brick and Mortar Office,"906 Main Street, Ne",Hanceville,AL,35077,34.07836904,-86.78399218
Merchants Bank of Alabama,Highway 157,Full Service Brick and Mortar Office,"4855 Highway 157, Northwest",Cullman,AL,35055,34.20612587,-86.85626897
Merchants Bank of Alabama,Merchants Bank Of Alabama,Full Service Brick and Mortar Office,"900 Second Avenue, Sw",Cullman,AL,35055,34.168347,-86.8391595
NobleBank & Trust,Alexandria Office,Full Service Brick and Mortar Office,646 Valley Cub Dr.,Alexandria,AL,36250,33.7627738,-85.89100795
NobleBank & Trust,Birmingham Office,Full Service Brick and Mortar Office,361 Summit Blvd,Birmingham,AL,35243,33.45236775,-86.73096492
NobleBank & Trust,Noblebank & Trust,Full Service Brick and Mortar Office,1509 Quintard Avenue,Anniston,AL,36201,33.66388121,-85.8265437
NobleBank & Trust,Oxford Office,Full Service Brick and Mortar Office,1836 Highway 78,Oxford,AL,36203,33.61473262,-85.79460979
NobleBank & Trust,Piedmont Office,Full Service Brick and Mortar Office,201 N Main Street,Piedmont,AL,36272,33.92446438,-85.61366306
22nd State Bank,22nd State Bank,Full Service Brick and Mortar Office,1920 Main Street,Louisville,AL,36048,31.78470423,-85.55467299
22nd State Bank,Eufaula Avenue,Full Service Brick and Mortar Office,21 Eufaula Avenue,Clayton,AL,36016,31.87808553,-85.44842997
22nd State Bank,First Exchange Bank - A Division Of,Full Service Brick and Mortar Office,226 St. Joseph Avenue,Brewton,AL,36426,31.10528119,-87.07076943
22nd State Bank,Mobile,Full Service Brick and Mortar Office,"917 Western America Circle, Ste 202",Mobile,AL,36609,30.67328868,-88.13082733
22nd State Bank,North Eufaula,Full Service Brick and Mortar Office,101 N. Eufaula Avenue,Eufaula,AL,36027,31.893399,-85.14560716
"First State Bank of the South, Inc.",Athens,Full Service Brick and Mortar Office,1319 Us Highway 72 E,Athens,AL,35611,34.78423359,-86.94301589
"First State Bank of the South, Inc.","First State Bank Of The South, Inc.",Full Service Brick and Mortar Office,5856 Highway 278,Sulligent,AL,35586,33.9014718,-88.13242118
"First State Bank of the South, Inc.",Hamilton,Full Service Brick and Mortar Office,240 Military Street South,Hamilton,AL,35570,34.14040635,-87.9891898
"First State Bank of the South, Inc.",Northport,Full Service Brick and Mortar Office,5520 Mcfarland Boulevard,Northport,AL,35476,33.23621401,-87.6100735
"First State Bank of the South, Inc.",Winfield,Full Service Brick and Mortar Office,U.S. Highway 78 And 43 And Meadow Lark Road,Winfield,AL,35594,33.93279399,-87.83043559
"First Jackson Bank, Inc.",Bridgeport,Full Service Brick and Mortar Office,50550 Us Hwy 277,Bridgeport,AL,35740,34.94157844,-85.72614495
"First Jackson Bank, Inc.","First Jackson Bank, Inc.",Full Service Brick and Mortar Office,43243 Us Highway 72,Stevenson,AL,35772,34.87536555,-85.81235645
"First Jackson Bank, Inc.",Scottsboro,Full Service Brick and Mortar Office,408 East Laurel Street,Scottsboro,AL,35768,34.67272904,-86.03021182
"First Jackson Bank, Inc.",Scottsboro Wal-Mart,Full Service Retail Office,24807 John T. Reid Parkway,Scottsboro,AL,35768,34.65951549,-86.0183185
"First Jackson Bank, Inc.",Wal-Mart Shopping Center,Full Service Brick and Mortar Office,308 Sutton Road,Owens Cross Roads,AL,35763,34.65996332,-86.48759155
The Hometown Bank of Alabama,Cleveland,Full Service Brick and Mortar Office,18045 State Highway 160,Cleveland,AL,35049,33.98694115,-86.5826078
The Hometown Bank of Alabama,Operations Center,Limited Service Administrative Office,713 Fairgrounds Ave,Oneonta,AL,35121,33.94745348,-86.46454316
The Hometown Bank of Alabama,Pinson,Full Service Brick and Mortar Office,6811 Highway 79,Pinson,AL,35126,33.701823,-86.6846115
The Hometown Bank of Alabama,Snead,Full Service Brick and Mortar Office,87672 Us Highway 278,Altoona,AL,35952,34.11466001,-86.387561
The Hometown Bank of Alabama,The Hometown Bank Of Alabama,Full Service Brick and Mortar Office,"2002 2nd Avenue, East",Oneonta,AL,35121,33.96770484,-86.454648
Ameris Bank,Abbeville,Full Service Brick and Mortar Office,204 Kirkland Street,Abbeville,AL,36310,31.56887834,-85.25042371
Ameris Bank,Dothan - Hwy 84 East,Full Service Brick and Mortar Office,2200 E Main St,Dothan,AL,36301,31.21394057,-85.35940957
Ameris Bank,Dothan,Full Service Brick and Mortar Office,3299 Ross Clark Circle,Dothan,AL,36303,31.23757806,-85.43192203
Ameris Bank,Eufaula Avenue,Full Service Brick and Mortar Office,1140 S Eufaula Avenue,Eufaula,AL,36027,31.87787382,-85.14954692
Ameris Bank,"Houston County, Al",Limited Service Messenger Office,"3299 Ross Clark Circle, Nw",Dothan,AL,36303,31.23757806,-85.43192203
First Citizens Bank,First Citizens Bank,Full Service Brick and Mortar Office,100 West Third Street,Luverne,AL,36049,31.71637335,-86.26634463
First Citizens Bank,Fort Deposit,Full Service Brick and Mortar Office,115 West Old Fort Rd,Fort Deposit,AL,36032,31.98698147,-86.58070133
First Citizens Bank,Greenville,Full Service Brick and Mortar Office,475 Greenville Bypass,Greenville,AL,36037,31.84632325,-86.62316139
First Citizens Bank,Hayneville Facility,Full Service Brick and Mortar Office,40 Lafayette Street East,Hayneville,AL,36040,32.18334247,-86.580198
First Citizens Bank,Highland Home,Full Service Brick and Mortar Office,17823 Montgomery Hwy,Highland Home,AL,36041,31.94637758,-86.31443842
First State Bank of DeKalb County,First Bank Of The South,Full Service Brick and Mortar Office,246 Main Street,Rainsville,AL,35986,34.49218968,-85.84365608
First State Bank of DeKalb County,First State Bank Of Dekalb County,Full Service Brick and Mortar Office,2407 Gault Avenue North,Fort Payne,AL,35967,34.46527968,-85.70099595
First State Bank of DeKalb County,Gault Avenue North,Full Service Brick and Mortar Office,2407 Gault Avenue North,Fort Payne,AL,35967,34.46527968,-85.70099595
First State Bank of DeKalb County,Grant,Full Service Brick and Mortar Office,4770 Main Street,Grant,AL,35747,34.5177721,-86.2559263
First State Bank of DeKalb County,Henagar,Full Service Brick and Mortar Office,17583 Alabama Highway 75,Henagar,AL,35978,34.6282445,-85.7502647
The Exchange Bank of Alabama,Attalla,Full Service Brick and Mortar Office,923 Attalla Boulevard,Attalla,AL,35954,33.50480861,-86.91341081
The Exchange Bank of Alabama,Gadsden,Full Service Brick and Mortar Office,230 North Third Street,Gadsden,AL,35903,34.01412175,-86.0008363
The Exchange Bank of Alabama,Noccalula Village,Full Service Brick and Mortar Office,1321a Noccalula Road,Gadsden,AL,35904,34.03719099,-86.02266635
The Exchange Bank of Alabama,Rainbow City,Full Service Brick and Mortar Office,3000 Rainbow Drive,Gadsden,AL,35901,33.96434475,-86.02882471
The Exchange Bank of Alabama,The Exchange Bank Of Alabama,Full Service Brick and Mortar Office,Sixth And Blount Streets,Altoona,AL,35952,34.025184,-86.325831
Community Bank of Mississippi,Airport Boulevard,Full Service Brick and Mortar Office,6587 Airport Boulevard,Mobile,AL,36608,30.68029782,-88.19530622
Community Bank of Mississippi,Birmingham Lpo,Limited Service Loan Production Office,"813 Shades Creek Parkway, Suite 100",Birmingham,AL,35209,33.474843,-86.764266
Community Bank of Mississippi,Daphne,Full Service Brick and Mortar Office,23797 Alabama Highway 98,Daphne,AL,36526,30.57197175,-87.89604784
Community Bank of Mississippi,Fairhope,Full Service Brick and Mortar Office,813 Estella Street,Fairhope,AL,36532,30.52640946,-87.88747958
Community Bank of Mississippi,Infirmary 65,Full Service Brick and Mortar Office,111 I-65 Service Road,Mobile,AL,36608,30.88198568,-88.04211091
Friend Bank,Friend Bank,Full Service Brick and Mortar Office,220 E. Lawrence Harris Hwy,Slocomb,AL,36375,31.10760055,-85.59186794
Friend Bank,Friend Dothan,Full Service Brick and Mortar Office,3105 Ross Clark Circle,Dothan,AL,36303,31.22949437,-85.43219153
Friend Bank,Friend Geneva,Full Service Brick and Mortar Office,712 West Maple Avenue,Geneva,AL,36340,31.04870904,-85.88379328
Friend Bank,Friend Hartford,Full Service Brick and Mortar Office,307 West Main Street,Hartford,AL,36344,31.10020509,-85.70068211
Friend Bank,Friend Newton,Full Service Brick and Mortar Office,465 S. College St,Newton,AL,36352,31.33045909,-85.5969891
Central State Bank,Alabaster Office,Full Service Brick and Mortar Office,9331 Highway 119,Alabaster,AL,35007,33.21566802,-86.82637613
Central State Bank,Calera,Full Service Brick and Mortar Office,57 County Road 87,Calera,AL,35040,33.16642757,-86.77692072
Central State Bank,Central State Bank,Full Service Brick and Mortar Office,11025 Hwy 25,Calera,AL,35040,33.10318821,-86.7496244
Central State Bank,Limestone Office,Full Service Brick and Mortar Office,71 Limestone Parkway,Calera,AL,35040,33.14692882,-86.74762175
Central State Bank,Pelham,Full Service Brick and Mortar Office,3145 Highway 31 South,Pelham,AL,35124,33.28858478,-86.81072509
First Southern Bank,First Southern Bank,Full Service Brick and Mortar Office,301 South Court Street,Florence,AL,35630,34.79778136,-87.67435502
First Southern Bank,Ford City,Full Service Brick and Mortar Office,5145 River Road,Muscle Shoals,AL,35661,34.78586646,-87.53005019
First Southern Bank,Killen,Full Service Brick and Mortar Office,1455 Highway 72,Killen,AL,35645,34.85724836,-87.54435332
First Southern Bank,Muscle Shoals,Full Service Brick and Mortar Office,1027 Avalon Avenue,Muscle Shoals,AL,35661,34.7445745,-87.65443775
First Southern Bank,St. Florian,Full Service Brick and Mortar Office,4350 County Road 47,Florence,AL,35630,34.87345131,-87.62330733
First Bank,First Bank,Full Service Brick and Mortar Office,312 Main Street,Wadley,AL,36276,33.12190376,-85.56421346
First Bank,Goodwater,Full Service Brick and Mortar Office,105 North Main Street,Goodwater,AL,35072,33.06378596,-86.05401018
First Bank,Hollis,Full Service Brick and Mortar Office,8333 Us Highway 431,Heflin,AL,36264,33.52655785,-85.63912785
First Bank,Roanoke,Full Service Brick and Mortar Office,3140 U.S. Highway 431,Roanoke,AL,36274,33.14998974,-85.35860156
First Bank,Rockford,Full Service Brick and Mortar Office,205 Main Street,Rockford,AL,35136,51.23407163,-113.1416824
AmeriFirst Bank,Amerifirst Bank,Full Service Brick and Mortar Office,104 Hardaway Avenue,Union Springs,AL,36089,32.14472676,-85.71596147
AmeriFirst Bank,Opelika,Full Service Brick and Mortar Office,3120 Frederick Road,Opelika,AL,36804,32.61405706,-85.42512887
AmeriFirst Bank,Peppertree,Full Service Brick and Mortar Office,8165 Vaughn Road,Montgomery,AL,36116,32.33876446,-86.1713325
AmeriFirst Bank,Prattville,Full Service Brick and Mortar Office,1799 Fairview Avenue,Prattville,AL,36066,32.483295,-86.4206415
Cheaha Bank,Anniston,Full Service Brick and Mortar Office,1100 Quintard Avenue,Anniston,AL,36201,33.65883875,-85.82691497
Cheaha Bank,Big Valley Road,Full Service Brick and Mortar Office,120 Big Valley Road,Alexandria,AL,36250,33.78170357,-85.89773018
Cheaha Bank,Cheaha Bank,Full Service Brick and Mortar Office,1320 Highway Drive,Oxford,AL,36203,33.61434674,-85.81411744
Cheaha Bank,Jacksonville,Full Service Brick and Mortar Office,1500 Pelham Road South,Jacksonville,AL,36265,33.79517279,-85.76110698
State Bank & Trust Company,Dothan,Full Service Brick and Mortar Office,4482 West Main Street,Dothan,AL,36303,31.23675062,-85.46037066
State Bank & Trust Company,Enterprise,Full Service Brick and Mortar Office,206 East Grubbs Street,Enterprise,AL,36330,31.31494074,-85.85112812
State Bank & Trust Company,Mobile,Full Service Brick and Mortar Office,"1141 Montlimar Drive, Suite 2012",Mobile,AL,36609,30.667689,-88.1325
State Bank & Trust Company,The American Bank (Geneva),Full Service Brick and Mortar Office,201 South Commerce Street,Geneva,AL,36340,31.03783911,-85.86562823
Sweet Water State Bank,Demopolis,Full Service Brick and Mortar Office,1202 Osgood Loop,Demopolis,AL,36732,32.50476,-87.83785
Sweet Water State Bank,Linden,Full Service Brick and Mortar Office,206 South Main Street,Linden,AL,36748,32.30513308,-87.79800284
Sweet Water State Bank,Sweet Water State Bank,Full Service Brick and Mortar Office,31385 Alabama Highway 10,Sweet Water,AL,36782,32.09440039,-87.87534169
Sweet Water State Bank,Thomasville,Full Service Brick and Mortar Office,33821 Highway 43,Thomasville,AL,36784,31.93326269,-87.7380359
Small Town Bank,Heflin,Full Service Brick and Mortar Office,654 Ross Street,Heflin,AL,36264,33.64556232,-85.5875458
Small Town Bank,Ranburne,Full Service Brick and Mortar Office,21044 Main Street,Ranburne,AL,36273,33.52282555,-85.34586973
Small Town Bank,Roanoke,Full Service Brick and Mortar Office,548 Main Street,Roanoke,AL,36274,33.15087221,-85.36859255
Small Town Bank,Small Town Bank,Full Service Brick and Mortar Office,117 Main Street,Wedowee,AL,36278,33.30819456,-85.4847327
Community Spirit Bank,Community Spirit Bank,Full Service Brick and Mortar Office,200 4th Avenue Sw,Red Bay,AL,35582,34.44173348,-88.14527008
Community Spirit Bank,Red Bay,Full Service Brick and Mortar Office,1007 4th Street Nw,Red Bay,AL,35582,34.46017598,-88.15364558
Community Spirit Bank,Russellville,Full Service Brick and Mortar Office,14009 Highway 43,Russellville,AL,35653,34.497555,-87.7217941
Community Spirit Bank,Vina,Full Service Brick and Mortar Office,7141 Highway 19,Vina,AL,35593,34.37639845,-88.05883527
State Bank & Trust,Brilliant,Full Service Brick and Mortar Office,1080 Main Street,Brilliant,AL,35548,34.02448212,-87.76067133
State Bank & Trust,Guin,Full Service Brick and Mortar Office,7370 Us Highway 43,Guin,AL,35563,33.96579439,-87.9129644
State Bank & Trust,Midtown,Full Service Brick and Mortar Office,194 Bankhead Highway,Winfield,AL,35594,33.92965568,-87.81516824
State Bank & Trust,State Bank & Trust,Full Service Brick and Mortar Office,1945 Ushwy 43,Winfield,AL,35594,33.92892095,-87.81746145
Cullman Savings Bank,101 Main Street Sw,Full Service Brick and Mortar Office,101 Main Street Sw,Hanceville,AL,35077,34.05244827,-86.76140039
Cullman Savings Bank,3201 Alabama Hwy 157,Full Service Brick and Mortar Office,3201 Alabama Highway 157,Cullman,AL,35058,34.20279819,-86.82736526
Cullman Savings Bank,Cullman Savings Bank,Full Service Brick and Mortar Office,316 Second Avenue S.W.,Cullman,AL,35055,34.174386,-86.842476
Cullman Savings Bank,South Office,Full Service Brick and Mortar Office,1652 2nd Avenue Sw,Cullman,AL,35055,34.15944933,-86.83477918
First Cahawba Bank,Downtown Office,Full Service Brick and Mortar Office,801 Alabama Ave,Selma,AL,36701,32.40654992,-87.02289088
First Cahawba Bank,First Cahawba Bank,Full Service Brick and Mortar Office,2610 Citizens Parkway,Selma,AL,36701,32.43441108,-87.02402147
First Cahawba Bank,Gulf Shores,Full Service Brick and Mortar Office,144 Cove Avenue,Gulf Shores,AL,36542,30.26898847,-87.69139217
First Cahawba Bank,Troy,Full Service Brick and Mortar Office,601 Trojan Pakway,Troy,AL,36079,31.83213752,-85.99008569
The First National Bank and Trust,Atmore,Limited Service Facility Office,207 North Main Street,Atmore,AL,36502,31.02620344,-87.49382209
The First National Bank and Trust,Excel Of First National Bank,Full Service Brick and Mortar Office,67 Highway 136 East,Excel,AL,36439,31.42802121,-87.34029294
The First National Bank and Trust,Lindberg Avenue,Limited Service Facility Office,104 Lindberg Avenue,Atmore,AL,36502,31.00501967,-87.49320821
The First National Bank and Trust,The First National Bank And Trust,Full Service Brick and Mortar Office,111 South Main Street,Atmore,AL,36502,31.02337699,-87.49375943
North Alabama Bank,North Alabama Bank,Full Service Brick and Mortar Office,13914 Highway 231-431 North,Hazel Green,AL,35750,34.921692,-86.571297
North Alabama Bank,North Alabama Bank Ardmore,Full Service Brick and Mortar Office,26772 Main Street,Ardmore,AL,35739,34.99191437,-86.84214314
North Alabama Bank,Providence,Full Service Brick and Mortar Office,220 Providence Main Street,Huntsville,AL,35806,34.751196,-86.692455
North Alabama Bank,Winchester Road,Full Service Brick and Mortar Office,1590 Winchester Road,Huntsville,AL,35811,34.8080542,-86.51480103
The Southern Bank Company,2204 Henry Street,Full Service Brick and Mortar Office,2204 Henry Street,Guntersville,AL,35976,34.3468547,-86.30408309
The Southern Bank Company,390 West Main Street,Full Service Brick and Mortar Office,390 West Main Street,Centre,AL,35960,34.15286749,-85.68184979
The Southern Bank Company,East Main Street,Full Service Brick and Mortar Office,625 East Main Street,Albertville,AL,35950,34.26515194,-86.19357732
The Southern Bank Company,The Southern Bank Company,Full Service Brick and Mortar Office,221 S Sixth St,Gadsden,AL,35901,34.01302901,-86.00728753
Phenix-Girard Bank,Highway 280,Full Service Brick and Mortar Office,3650 Us 280,Phenix City,AL,36867,32.49870108,-85.04443758
Phenix-Girard Bank,Phenix-Girard Bank,Full Service Brick and Mortar Office,801 13th Street,Phenix City,AL,36867,32.47079654,-85.00407105
Phenix-Girard Bank,Smith Station,Full Service Brick and Mortar Office,2481 Lee Road 430,Smiths Station,AL,36877,32.53917447,-85.09908054
Phenix-Girard Bank,Stadium Drive,Full Service Brick and Mortar Office,1803 Stadium Drive,Phenix City,AL,36867,32.49825377,-85.01680398
Marion Bank and Trust Company,Jemison Office,Full Service Brick and Mortar Office,24747 Highway 31,Jemison,AL,35085,32.95989963,-86.74390962
Marion Bank and Trust Company,Marion Bank And Trust Company,Full Service Brick and Mortar Office,332 South Washington Street,Marion,AL,36756,32.63307342,-87.31899377
Marion Bank and Trust Company,Marion Bank And Trust Company,Full Service Brick and Mortar Office,8091 Hwy 22,Maplesville,AL,36750,32.77010875,-86.87662373
Marion Bank and Trust Company,Marion Bank And Trust Company-Selma,Full Service Brick and Mortar Office,2400 Hwy 80 West,Selma,AL,36701,32.43370106,-87.05856163
SouthPoint Bank,Gardendale,Full Service Brick and Mortar Office,1101 Main Street,Gardendale,AL,35071,33.65399135,-86.8117575
SouthPoint Bank,Southpoint Bank,Full Service Brick and Mortar Office,3501 Grandview Parkway,Birmingham,AL,35243,33.438294,-86.722272
SouthPoint Bank,Trussville,Full Service Brick and Mortar Office,7278 Gadsden Highway,Trussville,AL,35173,33.6406986,-86.57824477
SouthPoint Bank,Wilsonville,Full Service Brick and Mortar Office,9833 North Main Street,Wilsonville,AL,35186,33.234552,-86.484258
HNB First Bank,431,Full Service Brick and Mortar Office,Highway 431 And County Road 22,Headland,AL,36345,31.335489,-85.334859
HNB First Bank,Abbeville,Full Service Brick and Mortar Office,110 W Williams St,Abbeville,AL,36310,31.57099792,-85.25039942
HNB First Bank,Hnb First Bank,Full Service Brick and Mortar Office,40 Main Street,Headland,AL,36345,31.35200686,-85.34291274
First National Bank of Pulaski,Athens,Full Service Brick and Mortar Office,1880 Hwy 72 East,Athens,AL,35613,34.78126693,-86.93114908
First National Bank of Pulaski,Athens Downtown,Full Service Brick and Mortar Office,321 South Jefferson Street,Athens,AL,35611,34.80102932,-86.97221391
First National Bank of Pulaski,Huntsville,Full Service Brick and Mortar Office,"2101 Clinton Ave., Suite 101",Huntsville,AL,35805,34.727508,-86.594409
Trinity Bank,Enterprise Bank,Full Service Brick and Mortar Office,306 South Main Street,Enterprise,AL,36330,31.311873,-85.852701
Trinity Bank,Trinity Bank,Full Service Brick and Mortar Office,1479 West Main Street,Dothan,AL,36302,31.22710587,-85.41200404
Trinity Bank,Westside,Full Service Brick and Mortar Office,"3850 West Main Street, Suite 1000",Dothan,AL,36305,31.23474295,-85.45176639
FirstState Bank,Ashland South,Full Service Brick and Mortar Office,Highways 9 And 77,Ashland,AL,36251,33.273945,-85.8353985
FirstState Bank,Firststate Bank,Full Service Brick and Mortar Office,88730 Highway 9,Lineville,AL,36266,33.31047944,-85.75619685
FirstState Bank,Lake Wedowee Office,Full Service Brick and Mortar Office,105 Main Street South,Wedowee,AL,36278,33.30828317,-85.4847327
"Citizens' Bank, Inc.","Citizens' Bank, Inc.",Full Service Brick and Mortar Office,21980 Palmer Street,Robertsdale,AL,36567,30.54530546,-87.71679624
"Citizens' Bank, Inc.",Fairhope,Full Service Brick and Mortar Office,905 Plantation Boulevard,Fairhope,AL,36532,30.52635394,-87.88520721
"Citizens' Bank, Inc.",Foley,Full Service Brick and Mortar Office,251 East Orange Avenue,Foley,AL,36535,30.40527649,-87.68125783
Merit Bank,Ider,Full Service Brick and Mortar Office,11194 Al-75,Ider,AL,35981,34.69238527,-85.67172258
Merit Bank,Mentone Office,Full Service Brick and Mortar Office,5725 Al-117,Mentone,AL,35984,34.57719767,-85.58453692
Merit Bank,Merit Bank,Full Service Brick and Mortar Office,659 Gallatin St,Huntsville,AL,35801,34.725537,-86.5839555
PeoplesTrust Bank,Florence,Full Service Brick and Mortar Office,1131 Willis Avenue,Florence,AL,35630,34.81720889,-87.68114081
PeoplesTrust Bank,Hackleburg,Full Service Brick and Mortar Office,34888 U.S. Highway 43,Hackleburg,AL,35564,34.27650109,-87.83337715
PeoplesTrust Bank,Peoplestrust Bank,Full Service Brick and Mortar Office,1281 Military Street South,Hamilton,AL,35570,34.12561325,-87.98976632
SunTrust Bank,Cloverdale Road,Full Service Brick and Mortar Office,3509 Cloverdale Road,Florence,AL,35633,34.85293061,-87.69129237
SunTrust Bank,Cox Creek,Full Service Brick and Mortar Office,402 Cox Creek Parkway,Florence,AL,35630,34.8419918,-87.63974599
SunTrust Bank,Florence Main Office,Full Service Brick and Mortar Office,201 S Court St,Florence,AL,35630,34.79882058,-87.67501279
"First Federal Bank, A FSB","First Federal Bank, A Fsb",Full Service Brick and Mortar Office,"1300 Mcfarland Boulevard, N.E.",Tuscaloosa,AL,35403,33.23006446,-87.53480444
"First Federal Bank, A FSB",Ninth Street,Full Service Brick and Mortar Office,2315 9th Street,Tuscaloosa,AL,35401,33.205716,-87.5661885
"First Federal Bank, A FSB",Tuscaloosa,Full Service Brick and Mortar Office,5301 Hwy 69 South,Tuscaloosa,AL,35405,33.15889087,-87.54884623
Valley State Bank,4th Avenue,Full Service Brick and Mortar Office,527 Fourth Avenue Se,Red Bay,AL,35582,34.439587,-88.1392012
Valley State Bank,North Jackson Avenue,Limited Service Facility Office,308 North Jackson Avenue,Russellville,AL,35653,34.50674933,-87.72933297
Valley State Bank,Valley State Bank,Full Service Brick and Mortar Office,15565 Highway 43 Bypass,Russellville,AL,35653,34.51614388,-87.71712701
The First National Bank of Hartford,Enterprise,Full Service Brick and Mortar Office,907 Rucker Blvd,Enterprise,AL,36330,31.32340512,-85.82962331
The First National Bank of Hartford,Slocomb,Full Service Brick and Mortar Office,705 E Lawrence Harris Hwy,Slocomb,AL,36375,31.10774792,-85.58962206
The First National Bank of Hartford,The First National Bank Of Hartford,Full Service Brick and Mortar Office,101 Third Avenue South,Hartford,AL,36344,31.10282093,-85.69677894
The Citizens Bank,Fairhope,Full Service Brick and Mortar Office,104 South Section Street,Fairhope,AL,36532,30.52067871,-87.90302435
The Citizens Bank,The Citizens Bank,Full Service Brick and Mortar Office,301 South Edwards Street,Enterprise,AL,36330,31.31316464,-85.85099252
The Citizens Bank,The Citizens Bank,Full Service Brick and Mortar Office,1301 State Street,Greensboro,AL,36744,32.69842359,-87.59162696
Bank OZK,Geneva,Full Service Brick and Mortar Office,515 South Commerce Street,Geneva,AL,36340,31.03359363,-85.86385245
Bank OZK,Mobile Airport,Full Service Brick and Mortar Office,6161 Airport Blvd,Mobile,AL,36608,30.675582,-88.183935
Bank OZK,Mobile Royal Street,Full Service Brick and Mortar Office,7 North Royal Street,Mobile,AL,36602,30.69248996,-88.04103439
First Fidelity Bank,10838 Alabama Hwy. 75,Full Service Brick and Mortar Office,10838 Alabama Hwy. 75,Ider,AL,35981,34.69652846,-85.66818787
First Fidelity Bank,First Fidelity Bank,Full Service Brick and Mortar Office,1400 Gault Avenue North,Fort Payne,AL,35967,34.45396719,-85.71114922
First Fidelity Bank,Main Street West,Full Service Brick and Mortar Office,"960 Main Street, West",Rainsville,AL,35986,34.50284998,-85.85973322
Community Neighbor Bank,Butler Ccunty Bank,Full Service Brick and Mortar Office,281 Greenville Bypass,Greenville,AL,36037,31.84947049,-86.63315834
Community Neighbor Bank,Community Neighbor Bank,Full Service Brick and Mortar Office,3 Water Street,Camden,AL,36726,31.99026881,-87.28813776
Community Neighbor Bank,Pine Hill,Full Service Brick and Mortar Office,52 Dunn Street,Pine Hill,AL,36769,31.98040246,-87.58694116
Merchants & Marine Bank,Daphne,Full Service Brick and Mortar Office,27765 Highway 98,Daphne,AL,36526,30.6299385,-87.91040943
Merchants & Marine Bank,Fairhope,Full Service Brick and Mortar Office,325 Fairhope Avenue,Fairhope,AL,36532,30.52305951,-87.90413017
Merchants & Marine Bank,Gulf Shores,Full Service Brick and Mortar Office,1820 South Gulf Shores Parkway,Gulf Shores,AL,36542,30.27128093,-87.6877081
Southern Independent Bank,1417 Mlk Jr Expressway,Full Service Brick and Mortar Office,1417 Mlk Jr Expressway,Andalusia,AL,36420,31.31867948,-86.45787
Southern Independent Bank,Florala,Full Service Brick and Mortar Office,23167 Fifth Avenue,Florala,AL,36442,31.00682473,-86.3302099
Southern Independent Bank,Southern Independent Bank,Full Service Brick and Mortar Office,503 North Main Street,Opp,AL,36467,31.28851803,-86.25558312
SouthFirst Bank,102 5th Street North,Full Service Brick and Mortar Office,105 5th Street North,Clanton,AL,35045,32.83915557,-86.6285216
SouthFirst Bank,301 W North St,Full Service Brick and Mortar Office,301 West North Street,Talladega,AL,35160,33.43512096,-86.10511587
SouthFirst Bank,Southfirst Bank,Full Service Brick and Mortar Office,126 N Norton Ave,Sylacauga,AL,35150,33.170103,-86.25222816
Brantley Bank and Trust Company,Brantley Bank And Trust Company,Full Service Brick and Mortar Office,9402 North Main Street,Brantley,AL,36009,31.5827421,-86.25731892
Brantley Bank and Trust Company,South Montgomery County,Full Service Brick and Mortar Office,10 5 Main Street,Ramer,AL,36069,32.05203682,-86.21990595
"Merchants & Farmers Bank of Greene County, Alabama","Merchants & Farmers Bank Of Greene County, Alabama",Full Service Brick and Mortar Office,251 Prairie Avenue,Eutaw,AL,35462,32.82038687,-87.88762772
"Merchants & Farmers Bank of Greene County, Alabama",Prattville,Full Service Retail Office,1805 East Main Street,Prattville,AL,36066,32.46093,-86.4213435
Citizens Trust Bank,Eutaw,Full Service Brick and Mortar Office,213 Main Street,Eutaw,AL,35462,32.84095361,-87.88909798
Citizens Trust Bank,Third Avenue,Full Service Brick and Mortar Office,1700 Third Avenue North,Birmingham,AL,35203,33.51445819,-86.81083209
The Commercial Bank Of Ozark,South Dale,Full Service Brick and Mortar Office,Phillip J. Hamm Dr.,Midland City,AL,36350,31.31608207,-85.48141738
The Commercial Bank Of Ozark,The Commercial Bank Of Ozark,Full Service Brick and Mortar Office,208 South Merrick Avenue,Ozark,AL,36360,31.45730453,-85.64084542
Commonwealth National Bank,2861 Springhill Ave,Full Service Brick and Mortar Office,2861 Springhill Avenue,Mobile,AL,36607,30.69885801,-88.10896884
Commonwealth National Bank,Commonwealth National Bank,Full Service Brick and Mortar Office,2214 St. Stephens Road,Mobile,AL,36601,30.715524,-88.081749
"The Samson Banking Company, Inc.",Geneva,Full Service Brick and Mortar Office,105 North Commerce Street,Geneva,AL,36340,31.04104706,-85.866222
"The Samson Banking Company, Inc.","The Samson Banking Company, Inc.",Full Service Brick and Mortar Office,2 West Main Street,Samson,AL,36477,31.1129295,-86.04847817
BankSouth,Abbeville,Full Service Brick and Mortar Office,100 North Court Square,Abbeville,AL,36310,34.177689,-82.378008
BankSouth,Banksouth,Full Service Brick and Mortar Office,3251 Ross Clark Circle,Dothan,AL,36303,31.23601095,-85.43182244
Bank of Brewton,Bank Of Brewton,Full Service Brick and Mortar Office,102 Belleville Avenue,Brewton,AL,36426,31.104613,-87.0714875
Bank of Brewton,North Brewton,Full Service Brick and Mortar Office,2329 Douglas Avenue,Brewton,AL,36426,31.14379688,-87.06850284
Vantage Bank of Alabama,Crossville,Full Service Brick and Mortar Office,8331 Alabama Highway 227 N,Crossville,AL,35962,34.28732435,-85.98783576
Vantage Bank of Alabama,Vantage Bank Of Alabama,Full Service Brick and Mortar Office,407 North Broad Street,Albertville,AL,35950,34.27385958,-86.2057197
The Farmers & Merchants Bank,Florence,Full Service Brick and Mortar Office,11345 State Highway 20,Florence,AL,35633,34.8929726,-87.80516761
The Farmers & Merchants Bank,The Farmers & Merchants Bank,Full Service Brick and Mortar Office,320 Main St,Waterloo,AL,35677,34.91231349,-88.06353575
Oakworth Capital Bank,Mobile Office,Full Service Brick and Mortar Office,"One St. Louis Street Centre, Suite 3200",Mobile,AL,36602,30.69277555,-88.04756435
Oakworth Capital Bank,Oakworth Capital Bank,Full Service Brick and Mortar Office,850 Shades Creek Parkway,Birmingham,AL,35209,33.475986,-86.764806
The First National Bank of Brundidge,Park Street,Full Service Brick and Mortar Office,615 Park Street,Troy,AL,36081,31.80147199,-85.96383331
The First National Bank of Brundidge,The First National Bank Of Brundidge,Full Service Brick and Mortar Office,137 South Main Street,Brundidge,AL,36010,31.71913133,-85.81558821
Bank of England,Bank Of England Mortgage,Limited Service Loan Production Office,1710 Main Street,Daphne,AL,36526,30.6036663,-87.9026637
Bank of England,Mobile Lpo,Limited Service Loan Production Office,"3800 Airport Boulevard, Suite 301",Mobile,AL,36608,30.676788,-88.142004
The Citizens Bank of Fayette,Temple Avenue,Full Service Brick and Mortar Office,"1910 Temple Avenue, North",Fayette,AL,35555,33.71185281,-87.82098988
The Citizens Bank of Fayette,The Citizens Bank Of Fayette,Full Service Brick and Mortar Office,100 Temple Avenue South,Fayette,AL,35555,33.68439045,-87.83101502
CCB Community Bank,Ccb - Opp,Full Service Brick and Mortar Office,609 Florala Highway,Opp,AL,36467,31.27642803,-86.24906816
CCB Community Bank,Ccb Community Bank,Full Service Brick and Mortar Office,225 East Three Notch Street,Andalusia,AL,36420,31.30822333,-86.4802532
SunSouth Bank,Clio,Full Service Brick and Mortar Office,3274 Louisville Street,Clio,AL,36017,31.70973522,-85.60996862
SunSouth Bank,Sunsouth Bank,Full Service Brick and Mortar Office,108 Jamestown Blvd.,Dothan,AL,36301,31.22721059,-85.42597568
Metro City Bank,Montgomery,Full Service Brick and Mortar Office,2779 Bell Road,Montgomery,AL,36117,32.339718,-86.19327
Metro City Bank,Opelika,Full Service Brick and Mortar Office,1805 Gateway Drive,Opelika,AL,36801,32.63028596,-85.40631225
Capital City Bank,Fob James,Full Service Brick and Mortar Office,375 Fob James Drive,Valley,AL,36854,32.81752652,-85.19793797
Capital City Bank,Shawmut,Full Service Brick and Mortar Office,3503 20th Avenue,Valley,AL,36854,32.83733739,-85.17733209
The Bank of Vernon,The Bank Of Vernon,Full Service Brick and Mortar Office,44825 Highway 17,Vernon,AL,35592,33.76057977,-88.10862593
The Bank of Vernon,Westside,Limited Service Facility Office,9435 Highway 18,Vernon,AL,35592,33.75348395,-88.11752024
Bank of York,Bank Of York,Full Service Brick and Mortar Office,301 Broad Street,York,AL,36925,32.48377118,-88.2963044
Bank of York,North Washington Street,Full Service Brick and Mortar Office,716 North Washington Street,Livingston,AL,35470,32.59706739,-88.18289333
Liberty Bank and Trust Company,Carmichael Road,Full Service Brick and Mortar Office,4141 Carmichael Road,Montgomery,AL,36106,32.35804765,-86.23865921
Liberty Bank and Trust Company,Tuskegee,Full Service Brick and Mortar Office,301 North Elm Street,Tuskegee,AL,36083,32.42337757,-85.69191834
Citizens State Bank,Citizens State Bank,Full Service Brick and Mortar Office,315 Columbus Avenue Nw,Vernon,AL,35592,33.75724571,-88.11134825
Citizens State Bank,Vernon,Limited Service Facility Office,101 Pond Street,Vernon,AL,35592,33.76898064,-88.11099636
Thrivent Trust Company,Montgomery,Limited Service Trust Office,445 Dexter Ave Ste 8075,Montgomery,AL,36104,32.378085,-86.302926
First National Banker's Bank,Alabama,Full Service Brick and Mortar Office,600 University Park Place Suite 380,Birmingham,AL,35209,33.458787,-86.796612
Bank of Evergreen,Bank Of Evergreen,Full Service Brick and Mortar Office,146 West Front Street,Evergreen,AL,36401,31.43315667,-86.95578153
"Citizens Bank & Trust, Inc.",Sand Mountain,Full Service Brick and Mortar Office,29316 Alabama Highway 71,Higdon,AL,35979,34.84842619,-85.62198092
First Community Bank of Cullman,First Community Bank Of Cullman,Full Service Brick and Mortar Office,"420 2nd Avenue, Sw",Cullman,AL,35055,34.17302441,-86.84260307
Peoples Bank of Greensboro,Peoples Bank Of Greensboro,Full Service Brick and Mortar Office,1402 State Street,Greensboro,AL,36744,32.69876411,-87.59286304
Bank of Moundville,Bank Of Moundville,Full Service Brick and Mortar Office,319 Market St,Moundville,AL,35474,32.99778582,-87.63040697
Security Federal Savings Bank,Security Federal Savings Bank,Full Service Brick and Mortar Office,301 Third Avenue,Jasper,AL,35501,33.84918252,-87.27701402
Town-Country National Bank,Town-Country National Bank,Full Service Brick and Mortar Office,118 Broad Street,Camden,AL,36726,31.99209144,-87.2899142
The First National Bank of Dozier,The First National Bank Of Dozier,Full Service Brick and Mortar Office,7825 South Main Street,Dozier,AL,36028,31.49232726,-86.36503428
The Citizens Bank of Winfield,The Citizens Bank Of Winfield,Full Service Brick and Mortar Office,236 Bankhead Highway,Winfield,AL,35594,33.92988555,-87.81451187
First Bank of Linden,First Bank Of Linden,Full Service Brick and Mortar Office,114 East Coats Avenue,Linden,AL,36748,32.30617763,-87.7977002
Peoples Exchange Bank,Peoples Exchange Bank,Full Service Brick and Mortar Office,2013 Highway 21 Bypass,Monroeville,AL,36460,31.5048332,-87.31724912
FIDELITY BANK,Orange Beach Lpo,Limited Service Loan Production Office,"4776 Main Street, L-211",Orange Beach,AL,36561,30.29385866,-87.62848448
"Beal Bank, SSB",Mountain Brook,Full Service Brick and Mortar Office,404 Hollywood Boulevard,Birmingham,AL,35209,33.482847,-86.77719729
Millennial Bank,Millennial Bank,Full Service Brick and Mortar Office,7924 Parkway Drive,Leeds,AL,35094,33.54440754,-86.54367897
Bank of Walker County,Bank Of Walker County,Full Service Brick and Mortar Office,607 Hwy 78 East,Jasper,AL,35501,33.84929366,-87.27276736
Escambia County Bank,Escambia County Bank,Full Service Brick and Mortar Office,2151 Ringold St,Flomaton,AL,36441,31.00077173,-87.2605072
CommerceOne Bank,Commerceone Bank,Full Service Brick and Mortar Office,"2100 Southbridge Parkway, Suite 385",Birmingham,AL,35209,33.48946403,-86.78876974
First Progressive Bank,First Progressive Bank,Full Service Brick and Mortar Office,St. Nichols Avenue And Sowell Street,Brewton,AL,36426,31.108536,-87.0733305
Citizens Community Bank,Huntsville Lpo,Limited Service Loan Production Office,"1961 Winchester Road Ne, Suite B",Huntsville,AL,35811,34.81410587,-86.50141863
The Bank of New York Mellon Trust Company,Birmingham Trust Office,Limited Service Trust Office,"505 N. 20th St, Ste 950",Birmingham,AL,35203,33.518646,-86.807952
Alamerica Bank,Alamerica Bank,Full Service Brick and Mortar Office,2170 Highland Avenue,Birmingham,AL,35205,33.50029904,-86.7909181
Bank of Hope,Montgomery,Full Service Brick and Mortar Office,1605 Eastern Boulevard,Montgomery,AL,36117,32.3557117,-86.21738072
Armed Forces Bank,Rucker,Full Service Retail Office,Building 9207,Fort Rucker,AL,36362,31.33854,-85.70835
The Peoples Bank of Red Level,The Peoples Bank Of Red Level,Full Service Brick and Mortar Office,29607 Main Street,Red Level,AL,36474,31.41035057,-86.61429264
Community Bank and Trust - Alabama,Community Bank And Trust - Alabama,Full Service Brick and Mortar Office,202 North Powell Street,Union Springs,AL,36089,32.14486068,-85.71470016
First Bank of Boaz,First Bank Of Boaz,Full Service Brick and Mortar Office,124 South Main Street,Boaz,AL,35957,34.14637468,-86.12889854
