bank,branch,service,street,city,state,zip,latitude,longitude
Arvest Bank,102/J Street,Limited Service Facility Office,1404 Southeast 'j' Street,Bentonville,AR,72712,36.35626828,-94.19701657
Arvest Bank,3rd & Walnut,Full Service Brick and Mortar Office,205 East Walnut,Paris,AR,72855,35.292429,-93.727692
Arvest Bank,401 North Walnut,Full Service Brick and Mortar Office,401 North Walnut,Harrison,AR,72601,36.23321086,-93.10587377
Arvest Bank,4434 Camp Robinson Road,Full Service Brick and Mortar Office,4724 Camp Robinson Road,North Little Rock,AR,72118,34.799193,-92.2681035
Arvest Bank,500 Broadway Place,Full Service Brick and Mortar Office,500 Broadway Plaza,Little Rock,AR,72201,34.74442477,-92.27597222
Arvest Bank,74th Street,Full Service Brick and Mortar Office,3421 S. 74th Street,Fort Smith,AR,72903,35.348004,-94.350735
Arvest Bank,Arcade,Full Service Brick and Mortar Office,11331 Arcade,Little Rock,AR,72212,34.76994252,-92.40033047
Arvest Bank,Arvest Bank,Full Service Brick and Mortar Office,75 North East Street,Fayetteville,AR,72701,36.06330503,-94.15969928
Arvest Bank,Ashdown Main,Full Service Brick and Mortar Office,110 West Main Street,Ashdown,AR,71822,33.6737449,-94.13239844
Arvest Bank,Bella Vista Town Center,Full Service Brick and Mortar Office,403 Town Center,Bella Vista,AR,72714,36.475956,-94.245939
Arvest Bank,Bentonville Square,Full Service Brick and Mortar Office,201 N.E. A Street,Bentonville,AR,72712,36.373239,-94.20809753
Arvest Bank,Bentonville Supercenter,Full Service Retail Office,406 S. Walton Boulevard,Bentonville,AR,72712,36.36801,-94.224915
Arvest Bank,Berryville,Full Service Brick and Mortar Office,401 West Trimble,Berryville,AR,72616,36.368721,-93.578373
Arvest Bank,Browns Lane,Full Service Brick and Mortar Office,2009 Browns Lane,Jonesboro,AR,72403,35.82080264,-90.68685116
Arvest Bank,Bryant,Full Service Brick and Mortar Office,3217 North Reynolds Road,Bryant,AR,72022,34.623756,-92.4999255
Arvest Bank,Bull Shoals,Full Service Brick and Mortar Office,1517 Central Boulevard,Bull Shoals,AR,72619,36.38243322,-92.59087466
Arvest Bank,Cabot,Full Service Brick and Mortar Office,510 West Main Street,Cabot,AR,72023,34.97574571,-92.02047715
Arvest Bank,Cantrell Road,Full Service Brick and Mortar Office,13800 Cantrell Road,Little Rock,AR,72223,34.802172,-92.426121
Arvest Bank,Centerton,Full Service Brick and Mortar Office,770 West Centerton Blvd,Centerton,AR,72719,36.359019,-94.293576
Arvest Bank,Chenal,Full Service Brick and Mortar Office,16107 Chenal Parkway,Little Rock,AR,72223,34.75817443,-92.44929211
Arvest Bank,Cloverleaf,Full Service Brick and Mortar Office,3015 Alma Hwy,Van Buren,AR,72956,35.44479,-94.325148
Arvest Bank,College Avenue,Full Service Brick and Mortar Office,2850 College Avenue,Conway,AR,72034,35.08513327,-92.47102306
Arvest Bank,Conway Oak Street,Full Service Brick and Mortar Office,621 Oak Street,Conway,AR,72032,35.091468,-92.43414
Arvest Bank,Conway Towne Centre,Full Service Brick and Mortar Office,2590 Donaghey,Conway,AR,72032,35.11178294,-92.45065082
Arvest Bank,Cordoba - Hot Springs Village,Full Service Brick and Mortar Office,111 Cordoba Center,Hot Springs Village,AR,71909,34.65492463,-93.05549759
Arvest Bank,Crossover,Full Service Brick and Mortar Office,2761 East Mission Boulevard,Fayetteville,AR,72703,36.086688,-94.1221665
Arvest Bank,Crystal Hill,Full Service Brick and Mortar Office,13301 Crystal Hill Road,Maumelle,AR,72113,34.83040464,-92.39179294
Arvest Bank,Dequeen Main,Full Service Brick and Mortar Office,504 Collin Raye Drive,De Queen,AR,71832,34.04599309,-94.34305506
Arvest Bank,Dierks,Full Service Brick and Mortar Office,Main And Third Streets,Dierks,AR,71833,34.11927,-94.0169205
Arvest Bank,Dixieland,Full Service Brick and Mortar Office,1801 West Walnut Street,Rogers,AR,72756,36.334476,-94.1441355
Arvest Bank,East Millsap,Full Service Brick and Mortar Office,"516 East Millsap Road, Suite 203",Fayetteville,AR,72701,36.114822,-94.1500845
Arvest Bank,Elkins,Full Service Brick and Mortar Office,2045 North Center Street,Fayetteville,AR,72701,36.02903018,-94.02533601
Arvest Bank,Elms Spring,Full Service Brick and Mortar Office,4860 Elm Springs Road,Springdale,AR,72762,36.193454,-94.18360855
Arvest Bank,Emma,Full Service Brick and Mortar Office,415 West Emma Avenue,Springdale,AR,72764,36.18510151,-94.135041
Arvest Bank,Eureka Springs,Full Service Brick and Mortar Office,151 East Van Buren,Eureka Springs,AR,72632,36.39125946,-93.73748332
Arvest Bank,Farmington,Full Service Brick and Mortar Office,110 East Main Street,Farmington,AR,72730,36.043173,-94.235499
Arvest Bank,Financial Center,Full Service Brick and Mortar Office,405 South Walton Boulevard,Bentonville,AR,72712,36.36896297,-94.22168839
Arvest Bank,Fort Smith Downtown,Full Service Brick and Mortar Office,816 Garrison Ave,Fort Smith,AR,72901,35.385453,-94.422969
Arvest Bank,Gentry,Full Service Brick and Mortar Office,320 East Main Street,Gentry,AR,72734,36.267545,-94.48186701
Arvest Bank,Glenwood,Full Service Brick and Mortar Office,214 North First Street,Glenwood,AR,71943,34.327008,-93.551742
Arvest Bank,Gravette,Full Service Brick and Mortar Office,506 First Avenue Se,Gravette,AR,72736,36.417726,-94.452597
Arvest Bank,Greenwood,Full Service Brick and Mortar Office,224 Coker Street,Greenwood,AR,72936,35.20860406,-94.25959207
Arvest Bank,Heights,Limited Service Facility Office,1820 N Grant Street,Little Rock,AR,72207,34.76858412,-92.33950975
Arvest Bank,Hickory Street,Full Service Brick and Mortar Office,1608 Highway 71 North,Mena,AR,71953,34.58635052,-94.21395003
Arvest Bank,Highlands,Full Service Brick and Mortar Office,1802 Forest Hills Boulevard,Bella Vista,AR,72715,36.462312,-94.3025445
Arvest Bank,Highway 14,Full Service Brick and Mortar Office,167 Highway 14,Lead Hill,AR,72644,36.41998354,-92.9174085
Arvest Bank,Highway 412 East,Full Service Brick and Mortar Office,2730 Highway 412 East,Siloam Springs,AR,72761,36.180549,-94.5138195
Arvest Bank,Highway 62 East,Full Service Brick and Mortar Office,2619 Highway 62 East,Mountain Home,AR,72653,36.357516,-92.342115
Arvest Bank,Highway 62 West,Full Service Brick and Mortar Office,1627 Highway 62 West,Mountain Home,AR,72653,36.322704,-92.3921145
Arvest Bank,Highway 62-65 North,Full Service Brick and Mortar Office,1402 Highway 62-65 North,Harrison,AR,72601,36.263277,-93.135537
Arvest Bank,Highway 64 West,Full Service Brick and Mortar Office,408 Highway 64 West,Alma,AR,72921,35.482014,-94.230738
Arvest Bank,Highway 71 North,Full Service Brick and Mortar Office,612 N Walton,Bentonville,AR,72712,36.37951591,-94.22122314
Arvest Bank,Hot Springs - Southwest,Full Service Brick and Mortar Office,1500 Albert Pike,Hot Springs National Park,AR,71913,34.493229,-93.0870045
Arvest Bank,Hot Springs 70 West,Full Service Brick and Mortar Office,1710 Airport Road,Hot Springs National Park,AR,71913,34.46546004,-93.1439963
Arvest Bank,Hot Springs Central,Full Service Brick and Mortar Office,4570 Central Avenue,Hot Springs National Park,AR,71913,34.44885396,-93.08467389
Arvest Bank,Hot Springs Main,Full Service Brick and Mortar Office,135 Section Line Road,Hot Springs National Park,AR,71913,34.46533874,-93.06399343
Arvest Bank,Hot Springs Ouachita,Full Service Brick and Mortar Office,400 Ouachita Avenue,Hot Springs National Park,AR,71901,34.50592424,-93.05792724
Arvest Bank,Huntsville,Full Service Brick and Mortar Office,104 South Hughes,Huntsville,AR,72740,36.08714119,-93.73694929
Arvest Bank,Huntsville,Full Service Brick and Mortar Office,164 Gary Hatfield Way,Huntsville,AR,72740,36.1138485,-93.71668531
Arvest Bank,Jonesboro Hilltop,Full Service Brick and Mortar Office,5205 E Johnson,Jonesboro,AR,72401,35.863857,-90.629712
Arvest Bank,Joyce,Full Service Brick and Mortar Office,1627 Joyce Street,Fayetteville,AR,72703,36.119637,-94.136931
Arvest Bank,Kelley Highway,Full Service Brick and Mortar Office,4800 Kelley Highway,Fort Smith,AR,72904,35.40368591,-94.37778227
Arvest Bank,Kiehl,Full Service Brick and Mortar Office,4001 Kiehl Avenue,Sherwood,AR,72120,34.832673,-92.188395
Arvest Bank,Lakeside,Full Service Brick and Mortar Office,2320 Malvern Ave,Hot Springs National Park,AR,71901,34.47310275,-93.02237397
Arvest Bank,Lincoln,Full Service Brick and Mortar Office,317 East Pridemore Drive,Lincoln,AR,72744,35.94795415,-94.41935354
Arvest Bank,Loan Production,Limited Service Loan Production Office,"5100 South Thompson, Suite 203",Springdale,AR,72764,36.1363424,-94.1448715
Arvest Bank,Loan Production Office,Limited Service Loan Production Office,135 Section Line Road,Hot Springs National Park,AR,71913,34.46533874,-93.06399343
Arvest Bank,Lonoke,Full Service Brick and Mortar Office,1360 North Center Street,Lonoke,AR,72086,34.79641114,-91.89359302
Arvest Bank,Lowell,Full Service Brick and Mortar Office,103 South Bloomington,Lowell,AR,72745,36.253656,-94.1362065
Arvest Bank,Mabelvale,Full Service Brick and Mortar Office,10206 Mabelvale Plaza,Little Rock,AR,72209,34.66893581,-92.38023468
Arvest Bank,Manila,Full Service Brick and Mortar Office,709 W. Fleeman,Manila,AR,72442,35.87277544,-90.17363237
Arvest Bank,Mccain Boulevard,Full Service Brick and Mortar Office,4004 Mccain Boulevard,North Little Rock,AR,72116,34.79035933,-92.22743438
Arvest Bank,Military Road,Full Service Brick and Mortar Office,925 Military Road,Benton,AR,72015,34.571925,-92.5816005
Arvest Bank,Monette,Full Service Brick and Mortar Office,301 East Drew Avenue,Monette,AR,72447,35.89030767,-90.33906894
Arvest Bank,Morrilton,Full Service Brick and Mortar Office,1500 East Harding Street,Morrilton,AR,72110,35.1641867,-92.72778739
Arvest Bank,Mountain Home Facility,Full Service Brick and Mortar Office,819 Wallace Knob Road,Mountain Home,AR,72653,36.34940859,-92.37523154
Arvest Bank,Mt Ida Main,Full Service Brick and Mortar Office,221 South George Street,Mount Ida,AR,71957,34.55745622,-93.63417528
Arvest Bank,N Mall Supercenter,Full Service Retail Office,3919 North Mall Avenue,Fayetteville,AR,72703,36.12258,-94.1524875
Arvest Bank,Nashville,Full Service Brick and Mortar Office,420 South Main Street,Nashville,AR,71852,33.9396451,-93.84721523
Arvest Bank,North College Avenue,Full Service Brick and Mortar Office,2389 North College Avenue,Fayetteville,AR,72703,36.094716,-94.153482
Arvest Bank,Northside,Full Service Brick and Mortar Office,700 North Main,Harrison,AR,72601,36.23675014,-93.10717491
Arvest Bank,Park Hill,Full Service Brick and Mortar Office,3502 Jfk Boulevard,North Little Rock,AR,72116,34.787223,-92.259999
Arvest Bank,Parklane,Full Service Brick and Mortar Office,3200 Rogers Avenue,Fort Smith,AR,72903,35.373591,-94.397427
Arvest Bank,Pea Ridge,Full Service Brick and Mortar Office,132 North Curtis,Pea Ridge,AR,72751,36.442476,-94.1157495
Arvest Bank,Prairie Grove,Full Service Brick and Mortar Office,102 East Buchanan Street,Prairie Grove,AR,72753,35.97568552,-94.31703922
Arvest Bank,Rena Road,Full Service Brick and Mortar Office,1930 Fayetteville,Van Buren,AR,72956,35.465859,-94.355793
Arvest Bank,Rogers Downtown,Full Service Brick and Mortar Office,201 West Walnut Street,Rogers,AR,72756,36.333342,-94.117599
Arvest Bank,Rogers Supercenter,Full Service Retail Office,"2110 West Walnut, Suite 3",Rogers,AR,72756,36.331254,-94.148964
Arvest Bank,Russellville,Full Service Brick and Mortar Office,819 South Arkansas Avenue,Russellville,AR,72801,35.27048739,-93.13402269
Arvest Bank,Russellville,Full Service Brick and Mortar Office,121 North El Mira Avenue,Russellville,AR,72802,35.27937722,-93.10268901
Arvest Bank,Russellville Main,Full Service Brick and Mortar Office,209 West Main,Russellville,AR,72801,35.27807523,-93.134349
Arvest Bank,Russellville Motor Bank,Limited Service Facility Office,121 South Boulder Avenue,Russellville,AR,72801,35.27794252,-93.13435927
Arvest Bank,Rye Hill,Full Service Brick and Mortar Office,11808 Highway 71 South,Fort Smith,AR,72916,35.272107,-94.372011
Arvest Bank,Shackleford Road,Full Service Retail Office,2700 South Shackleford Road,Little Rock,AR,72205,34.728327,-92.397717
Arvest Bank,Sherwood,Full Service Brick and Mortar Office,8415 Highway 107,Sherwood,AR,72120,34.831818,-92.2321575
Arvest Bank,Siloam Springs Downtown,Full Service Brick and Mortar Office,109 East University,Siloam Springs,AR,72761,36.18599493,-94.54114269
Arvest Bank,Siloam Springs Main,Full Service Brick and Mortar Office,1645 Highway 412 West,Siloam Springs,AR,72761,36.176985,-94.5586125
Arvest Bank,South James,Full Service Brick and Mortar Office,1810 North 1st Street,Jacksonville,AR,72076,34.88326232,-92.10826582
Arvest Bank,South Rogers Street,Full Service Brick and Mortar Office,1107 South Rogers Street,Clarksville,AR,72830,35.46017192,-93.45982882
Arvest Bank,South Unversity Avenue,Full Service Brick and Mortar Office,1720 South Unverisity Avenue,Little Rock,AR,72201,34.73554629,-92.34183072
Arvest Bank,Southeast 14th Street,Full Service Brick and Mortar Office,3514 Southeast 14th Street,Bentonville,AR,72712,36.35619775,-94.17087333
Arvest Bank,Southwest Drive,Full Service Brick and Mortar Office,3101 Southwest Drive,Jonesboro,AR,72404,35.80666116,-90.7220329
Arvest Bank,Springdale East,Full Service Brick and Mortar Office,3263 East Robinson Avenue B-1,Springdale,AR,72764,36.16637965,-94.09483455
Arvest Bank,Springdale South,Full Service Brick and Mortar Office,2012 South Pleasant,Springdale,AR,72764,36.16569853,-94.14369253
Arvest Bank,Springdale Supercenter,Full Service Retail Office,2004 South Pleasant,Springdale,AR,72764,36.16618355,-94.14368206
Arvest Bank,Springdale West,Full Service Brick and Mortar Office,3950 West Sunset Avenue,Springdale,AR,72764,36.17518352,-94.17430847
Arvest Bank,Sugar Creek Center,Full Service Brick and Mortar Office,70 Sugar Creek Center,Bella Vista,AR,72714,36.44066231,-94.23699784
Arvest Bank,"Superior Bank, Fsb",Full Service Brick and Mortar Office,5000 Rogers Avenue,Fort Smith,AR,72903,35.364159,-94.37625
Arvest Bank,Teller's Window,Full Service Brick and Mortar Office,802 East Main,Flippin,AR,72634,36.26614569,-92.58046484
Arvest Bank,The Bank Of Yellville,Full Service Brick and Mortar Office,105 North Panther,Yellville,AR,72687,36.22545585,-92.68481154
Arvest Bank,Thompson,Full Service Brick and Mortar Office,3858 South Thompson,Springdale,AR,72764,36.15052486,-94.14394552
Arvest Bank,Tontitown,Full Service Brick and Mortar Office,918 East Henri De Tonti Boulevard,Tontitown,AR,72770,36.17604798,-94.22019348
Arvest Bank,Uams Markham,Full Service Brick and Mortar Office,4400 West Markham St.,Little Rock,AR,72205,34.7516485,-92.32218094
Arvest Bank,University,Full Service Brick and Mortar Office,1113 North Garland Avenue,Fayetteville,AR,72703,36.077931,-94.1758695
Arvest Bank,Village On The Creeks,Full Service Brick and Mortar Office,5201 Village Parkway,Rogers,AR,72758,36.31751712,-94.18781897
Arvest Bank,Waldron Main,Full Service Brick and Mortar Office,181 Highway 71 Byp S,Waldron,AR,72958,34.90096539,-94.10737752
Arvest Bank,Wedington,Full Service Brick and Mortar Office,1170 North Salem Road,Fayetteville,AR,72704,36.07908629,-94.20811923
Arvest Bank,West 6th Street,Full Service Brick and Mortar Office,"3045 Martin Luther King, Jr. Blvd.",Fayetteville,AR,72704,36.05147437,-94.20372055
Arvest Bank,West Fork,Full Service Brick and Mortar Office,15 North Centennial Avenue,West Fork,AR,72774,35.93190433,-94.18004491
Arvest Bank,West Main Place,Full Service Brick and Mortar Office,3005 West Main Place,Russellville,AR,72801,35.28709446,-93.163991
Arvest Bank,West New Hope,Full Service Brick and Mortar Office,701 West New Hope Road,Rogers,AR,72758,36.312147,-94.1244795
Arvest Bank,West Olive Street,Full Service Brick and Mortar Office,4302 West Olive Street,Rogers,AR,72756,36.341649,-94.178475
Arvest Bank,West Pleasant Grove Road,Full Service Brick and Mortar Office,2200 West Pleasant Grove Road,Rogers,AR,72758,36.282753,-94.150845
Arvest Bank,Zero Street,Full Service Brick and Mortar Office,1701 South Zero Street,Fort Smith,AR,72901,35.32804418,-94.41705605
Arvest Bank,Zero Street Supercenter,Full Service Retail Office,2425 South Zero Street,Fort Smith,AR,72901,35.32775796,-94.40622818
Bank OZK,Alma,Full Service Brick and Mortar Office,611 Highway 71 North,Alma,AR,72921,35.49255991,-94.22607148
Bank OZK,Altus,Full Service Brick and Mortar Office,1612 Franklin St,Altus,AR,72821,35.44645049,-93.76225054
Bank OZK,Arkadelphia Main,Full Service Brick and Mortar Office,409 Main Street,Arkadelphia,AR,71923,34.11951247,-93.05184167
Bank OZK,Arkadelphia West Pine,Full Service Brick and Mortar Office,2960 West Pine,Arkadelphia,AR,71923,34.11914454,-93.08682381
Bank OZK,Bank Ozk,Full Service Brick and Mortar Office,17901 Chenal Parkway,Little Rock,AR,72223,34.770006,-92.459871
Bank OZK,Bella Vista Highlands,Full Service Brick and Mortar Office,791 Lancashire Boulevard,Bella Vista,AR,72715,36.46271688,-94.30138927
Bank OZK,Bella Vista Sugar Creek,Full Service Brick and Mortar Office,80 Sugar Creek Center,Bella Vista,AR,72714,36.441387,-94.237731
Bank OZK,Bellefonte,Full Service Brick and Mortar Office,3334 Highway 65 South,Harrison,AR,72601,36.19829908,-93.04376668
Bank OZK,Benton Alcoa,Full Service Brick and Mortar Office,7250 Alcoa Road,Benton,AR,72015,34.60357861,-92.53427291
Bank OZK,Benton Hwy 35,Full Service Brick and Mortar Office,1216 Highway 35,Benton,AR,72015,34.55167382,-92.56633852
Bank OZK,Benton Lpo,Limited Service Loan Production Office,1800 Military Road,Benton,AR,72015,34.582194,-92.5720515
Bank OZK,Benton Military Rd,Full Service Brick and Mortar Office,1700 Military Rd,Benton,AR,72015,34.580115,-92.574432
Bank OZK,Bentonville Hwy 102,Full Service Brick and Mortar Office,405 Sw 14th Street,Bentonville,AR,72712,36.356571,-94.214241
Bank OZK,Bentonville Walton/Dodson,Full Service Brick and Mortar Office,1010 Southeast Walton Boulevard,Bentonville,AR,72712,36.33529509,-94.19838295
Bank OZK,Bryant Highway 5,Full Service Brick and Mortar Office,5910 Highway 5 North,Bryant,AR,72022,34.625367,-92.4982335
Bank OZK,Cabot Main,Full Service Brick and Mortar Office,615 West Main Street,Cabot,AR,72023,34.975395,-92.0209005
Bank OZK,Cabot South,Full Service Brick and Mortar Office,3091 Hwy 367 S,Cabot,AR,72023,34.94845529,-92.05925417
Bank OZK,Cantrell Road,Full Service Brick and Mortar Office,7500 Cantrell Road,Little Rock,AR,72207,34.77144923,-92.35736465
Bank OZK,Capitol,Full Service Brick and Mortar Office,325 West Capitol Avenue,Little Rock,AR,72201,34.744275,-92.2743765
Bank OZK,Chenal Parkway,Full Service Brick and Mortar Office,12615 Chenal Parkway,Little Rock,AR,72211,34.753725,-92.41533
Bank OZK,Chester,Full Service Brick and Mortar Office,109 North Chester,Little Rock,AR,72201,34.749675,-92.2806315
Bank OZK,Clarksville Main,Full Service Brick and Mortar Office,1010 West Main,Clarksville,AR,72830,35.47158135,-93.47940147
Bank OZK,Clarksville Rogers Ave,Full Service Brick and Mortar Office,1144 Rogers Avenue,Clarksville,AR,72830,35.45873692,-93.46129988
Bank OZK,Clinton,Full Service Brick and Mortar Office,1750 Highway 65 South,Clinton,AR,72031,35.56968244,-92.45205277
Bank OZK,Conway East,Full Service Brick and Mortar Office,1104 East Oak Street,Conway,AR,72032,35.091909,-92.4150105
Bank OZK,Conway Main,Full Service Brick and Mortar Office,551 Harkrider St,Conway,AR,72032,35.086995,-92.4373755
Bank OZK,Conway North,Full Service Brick and Mortar Office,1745 Old Morrilton Highway,Conway,AR,72032,35.11152,-92.4461325
Bank OZK,Conway Salem,Full Service Brick and Mortar Office,545 Salem Road,Conway,AR,72034,35.086239,-92.472201
Bank OZK,East Mccain,Full Service Brick and Mortar Office,4420 East Mccain Boulevard,North Little Rock,AR,72117,34.78912696,-92.21532859
Bank OZK,Fayetteville Crossover,Full Service Retail Office,2060 North Crossover Road,Fayetteville,AR,72703,36.08900147,-94.12146823
Bank OZK,Fayetteville Joyce,Full Service Brick and Mortar Office,1549 East Joyce Blvd,Fayetteville,AR,72703,36.119691,-94.13766
Bank OZK,Fayetteville Wedington,Full Service Brick and Mortar Office,3474 West Wedington Drive,Fayetteville,AR,72704,36.07853572,-94.20933315
Bank OZK,Fort Smith Phoenix,Full Service Brick and Mortar Office,8501 Phoenix Avenue,Fort Smith,AR,72903,35.34621539,-94.33819743
Bank OZK,Fort Smith Rogers,Full Service Brick and Mortar Office,5401 Rogers Avenue,Fort Smith,AR,72903,35.363061,-94.372155
Bank OZK,Fort Smith Zero St,Full Service Brick and Mortar Office,2520 South Zero St,Fort Smith,AR,72908,35.327277,-94.4069895
Bank OZK,Harrison Main,Full Service Brick and Mortar Office,315 North Walnut,Harrison,AR,72601,36.23221877,-93.10593631
Bank OZK,Harrison North,Full Service Brick and Mortar Office,725 Highway 62-65 North,Harrison,AR,72601,36.25118424,-93.11900726
Bank OZK,Hope Main,Full Service Brick and Mortar Office,600 South Main,Hope,AR,71801,33.663888,-93.5909415
Bank OZK,Hope North Hervey,Full Service Brick and Mortar Office,1303 North Hervey,Hope,AR,71801,33.67909295,-93.6029874
Bank OZK,Hot Springs - 70 West,Full Service Brick and Mortar Office,"1540 Airport Road, Suite A",Hot Springs National Park,AR,71913,34.46910244,-93.13741523
Bank OZK,Hot Springs Albert Pike,Full Service Brick and Mortar Office,1410 Albert Pike,Hot Springs National Park,AR,71913,34.49280675,-93.08542038
Bank OZK,Hot Springs Central,Full Service Brick and Mortar Office,4044 Central Avenue,Hot Springs National Park,AR,71913,34.45476089,-93.06461255
Bank OZK,Hot Springs Malvern Avenue,Full Service Brick and Mortar Office,1617 Malvern Avenue,Hot Springs National Park,AR,71901,34.49357034,-93.03798678
Bank OZK,Hot Springs Ouachita,Full Service Brick and Mortar Office,333 Ouachita Avenue,Hot Springs National Park,AR,71901,34.50634135,-93.05723377
Bank OZK,Hot Springs Section Line,Full Service Brick and Mortar Office,401 Section Line Road,Hot Springs National Park,AR,71913,34.464276,-93.072096
Bank OZK,Hot Springs Village Hwy 5,Full Service Brick and Mortar Office,24705 State Highway 5,Lonsdale,AR,72087,34.62121644,-92.85389338
Bank OZK,Hot Springs Village Hwy 7,Full Service Brick and Mortar Office,3650 North Highway 7,Hot Springs Village,AR,71909,34.6338598,-93.05942646
Bank OZK,Jasper,Full Service Brick and Mortar Office,100 East Church St,Jasper,AR,72641,36.00776527,-93.18685322
Bank OZK,Levy,Full Service Brick and Mortar Office,3640 Camp Robinson Road,North Little Rock,AR,72118,34.789392,-92.276001
Bank OZK,Little Rock - Heights,Full Service Brick and Mortar Office,1800 North Taylor,Little Rock,AR,72207,34.768449,-92.336337
Bank OZK,Little Rock Loan Production Office,Limited Service Loan Production Office,"1811 Rahling Road, Suite 100",Little Rock,AR,72223,34.77290027,-92.44780944
Bank OZK,Little Rock Lpo,Limited Service Loan Production Office,"Rahling Annex, 1811 Rahling Road, Suite 100",Little Rock,AR,72223,34.77290027,-92.44780944
Bank OZK,Lonoke,Full Service Brick and Mortar Office,303 East Front Street,Lonoke,AR,72086,34.78423724,-91.8979542
Bank OZK,Magnolia,Full Service Brick and Mortar Office,305 North Jackson,Magnolia,AR,71753,33.26958207,-93.23925885
Bank OZK,Malvern,Full Service Brick and Mortar Office,608 East Page,Malvern,AR,72104,34.363665,-92.804481
Bank OZK,Malvern Mlk,Full Service Brick and Mortar Office,1608 Mlk Boulevard,Malvern,AR,72104,34.38260694,-92.82782653
Bank OZK,Markham & Rodney Parham,Full Service Brick and Mortar Office,101 North Rodney Parham Road,Little Rock,AR,72205,34.753518,-92.366982
Bank OZK,Marshall,Full Service Brick and Mortar Office,600 Highway 65 North,Marshall,AR,72650,35.91095378,-92.64547978
Bank OZK,Maumelle,Full Service Brick and Mortar Office,120 Audubon Dr,Maumelle,AR,72113,34.850259,-92.404602
Bank OZK,Mountain Home East,Full Service Brick and Mortar Office,2575 Highway 62 East,Mountain Home,AR,72653,36.35748,-92.342934
Bank OZK,Mountain Home Main,Full Service Brick and Mortar Office,100 Highway 5 North,Mountain Home,AR,72653,36.340299,-92.3862015
Bank OZK,Mulberry,Full Service Brick and Mortar Office,115 Highway 64 West,Mulberry,AR,72947,35.50244562,-94.05080794
Bank OZK,North Hills,Full Service Brick and Mortar Office,4846 North Hills Blvd,North Little Rock,AR,72116,34.79905696,-92.23792932
Bank OZK,Otter Creek,Full Service Brick and Mortar Office,13415 Otter Creek Pkwy,Little Rock,AR,72210,34.65813801,-92.42660572
Bank OZK,Ozark Porter Hillard,Full Service Brick and Mortar Office,601 West Commerical Street,Ozark,AR,72949,35.48723524,-93.83062612
Bank OZK,Ozark Westside,Full Service Brick and Mortar Office,2011 West Commercial Street,Ozark,AR,72949,35.48985759,-93.8475619
Bank OZK,Ozk.Com,Full Service Cyber Office,600 W Commercial Street,Ozark,AR,72949,35.48742851,-93.8313849
Bank OZK,Paris,Full Service Brick and Mortar Office,1405 East Walnut,Paris,AR,72855,35.292285,-93.717378
Bank OZK,Rodney Parham,Full Service Brick and Mortar Office,11102 Rodney Parham,Little Rock,AR,72212,34.77167886,-92.39828592
Bank OZK,Rogers 47th St,Full Service Brick and Mortar Office,800 North 47th Street,Rogers,AR,72756,36.34318615,-94.18013853
Bank OZK,Rogers New Hope,Full Service Brick and Mortar Office,3567 West New Hope Road,Rogers,AR,72758,36.313209,-94.171842
Bank OZK,Rogers Pleasant Grove,Full Service Brick and Mortar Office,2501 West Pleasant Grove Road,Rogers,AR,72758,36.28329371,-94.15037526
Bank OZK,Russellville East Parkway,Full Service Brick and Mortar Office,2305 East Parkway,Russellville,AR,72802,35.282952,-93.1063005
Bank OZK,Russellville Main,Full Service Brick and Mortar Office,405 West Main Street,Russellville,AR,72801,35.278614,-93.137049
Bank OZK,Russellville West,Full Service Brick and Mortar Office,3110 West Main,Russellville,AR,72801,35.288253,-93.1641345
Bank OZK,Sherwood,Full Service Brick and Mortar Office,8718 Highway 107,Sherwood,AR,72120,34.834545,-92.231181
Bank OZK,Siloam Springs,Full Service Brick and Mortar Office,2401 East Main Street,Siloam Springs,AR,72761,36.181566,-94.51692
Bank OZK,Springdale Gutensohn,Full Service Brick and Mortar Office,2773 West Sunset Avenue,Springdale,AR,72762,36.17490049,-94.16104955
Bank OZK,Springdale Jones Road,Full Service Brick and Mortar Office,7154 West Sunset Ave,Springdale,AR,72762,36.17583349,-94.20988008
Bank OZK,Taylor Loop,Full Service Brick and Mortar Office,14825 Cantrell Road,Little Rock,AR,72223,34.80087074,-92.43745984
Bank OZK,Texarkana Arkansas Boulevard,Full Service Brick and Mortar Office,503 Arkansas Boulevard,Texarkana,AR,71854,33.460641,-94.037427
Bank OZK,Van Buren Main St,Full Service Brick and Mortar Office,1412 Main Street,Van Buren,AR,72956,35.436285,-94.3437285
Bank OZK,Van Buren Pointer Tr,Full Service Brick and Mortar Office,515 Pointer Trail East,Van Buren,AR,72956,35.45890209,-94.35503342
Bank OZK,Western Grove,Full Service Brick and Mortar Office,U.S. Highway 65 & State Highway 123,Western Grove,AR,72685,36.093699,-92.9551005
Bank OZK,Yellville,Full Service Brick and Mortar Office,104 West Old Main Street,Yellville,AR,72687,36.22541146,-92.68495116
Centennial Bank,812 North Church,Full Service Brick and Mortar Office,812 North Church,Atkins,AR,72823,35.249832,-92.937078
Centennial Bank,Asu,Limited Service Facility Office,2400 Aggie Road,Jonesboro,AR,72401,35.84238817,-90.67586685
Centennial Bank,Baseline,Full Service Brick and Mortar Office,10315 Interstate 30,Little Rock,AR,72209,34.668882,-92.3822415
Centennial Bank,Batesville,Full Service Brick and Mortar Office,1240 Main Street,Batesville,AR,72501,35.77700403,-91.64188383
Centennial Bank,Batesville Harrison Street,Full Service Brick and Mortar Office,1895 Harrison Street,Batesville,AR,72501,35.76964491,-91.63291972
Centennial Bank,Beebe,Full Service Brick and Mortar Office,707 Dewitt Henry Drive,Beebe,AR,72012,35.08092557,-91.87389062
Centennial Bank,Broadway,Full Service Brick and Mortar Office,718 Broadway,Little Rock,AR,72201,34.742106,-92.2769415
Centennial Bank,Bryant,Full Service Brick and Mortar Office,2224 N. Reynolds Rd.,Bryant,AR,72022,34.61669278,-92.4982915
Centennial Bank,Cabot Downtown,Full Service Brick and Mortar Office,1 City Plaza,Cabot,AR,72023,34.973316,-92.016873
Centennial Bank,Camp Robinson Road,Full Service Brick and Mortar Office,4515 Camp Robinson Road,North Little Rock,AR,72118,34.79601295,-92.27088252
Centennial Bank,Caraway Road,Full Service Brick and Mortar Office,2241 South Caraway Road,Jonesboro,AR,72401,35.817138,-90.678384
Centennial Bank,Centennial Bank,Full Service Brick and Mortar Office,620 Chestnut Street,Conway,AR,72032,35.088525,-92.437884
Centennial Bank,Centennial Trust,Full Service Brick and Mortar Office,"1445 Hogan Lane, Suite 1",Conway,AR,72034,35.09912685,-92.4976878
Centennial Bank,Chenal,Full Service Brick and Mortar Office,520 Bowman,Little Rock,AR,72211,34.74964703,-92.4071523
Centennial Bank,Chestnut Mobile,Limited Service Mobile Office,620 Chestnut Street,Conway,AR,72032,35.088525,-92.437884
Centennial Bank,Clarksville,Full Service Brick and Mortar Office,1000 South Rodgers,Clarksville,AR,72830,35.46074497,-93.45941612
Centennial Bank,Daranelle,Full Service Brick and Mortar Office,600 Union Street,Dardanelle,AR,72834,35.22124933,-93.16273077
Centennial Bank,Downtown,Full Service Brick and Mortar Office,1208 Oak Street,Conway,AR,72032,35.090928,-92.441205
Centennial Bank,Downtown East Washington,Limited Service Facility Office,211 East Washington,Jonesboro,AR,72401,35.83834852,-90.7035975
Centennial Bank,East,Full Service Brick and Mortar Office,1815 East Oak Street,Conway,AR,72032,35.09105451,-92.40218944
Centennial Bank,Fayetteville,Full Service Brick and Mortar Office,3010 W. 6th Street,Fayetteville,AR,72701,36.05169791,-94.20316577
Centennial Bank,Fayetteville Joyce Blvd,Full Service Brick and Mortar Office,1400 East Joyce Blvd,Fayetteville,AR,72703,36.120996,-94.1388345
Centennial Bank,Fort Smith,Limited Service Facility Office,6701 Boston St,Fort Smith,AR,72903,35.35433748,-94.3585605
Centennial Bank,Fort Smith Phoenix,Full Service Brick and Mortar Office,4625 Old Greenwood Road,Fort Smith,AR,72903,35.338869,-94.391199
Centennial Bank,Fort Smith Rogers Ave Main,Full Service Brick and Mortar Office,5801 Rogers Avenue,Fort Smith,AR,72903,35.361189,-94.3679385
Centennial Bank,Greenbrier,Full Service Brick and Mortar Office,#8 Business Park Drive,Greenbrier,AR,72058,35.22408255,-92.38688088
Centennial Bank,Hardy,Full Service Brick and Mortar Office,1927 Hwy 62/412,Hardy,AR,72542,36.2617204,-91.5289155
Centennial Bank,Heber Springs,Full Service Brick and Mortar Office,1631 Highway 25b North,Heber Springs,AR,72543,35.50874373,-92.02926471
Centennial Bank,Heights,Full Service Brick and Mortar Office,4924 Kavanaugh Boulevard,Little Rock,AR,72207,34.76884514,-92.32969554
Centennial Bank,Highway 10,Full Service Brick and Mortar Office,13910 Cantrell Road,Little Rock,AR,72223,34.80198174,-92.42773069
Centennial Bank,Hilltop,Limited Service Facility Office,3505 East Johnson Avenue,Jonesboro,AR,72401,35.85760782,-90.65596422
Centennial Bank,Hwy 321,Full Service Brick and Mortar Office,3111 Bill Foster Memorial Highway,Cabot,AR,72023,34.94588065,-92.06120595
Centennial Bank,Hwy 412,Full Service Brick and Mortar Office,101 Highway 412 East,Siloam Springs,AR,72761,36.172701,-94.541067
Centennial Bank,Hwy 64 Beebe,Full Service Brick and Mortar Office,30 Highway 64 West,Beebe,AR,72012,35.0694,-91.9221075
Centennial Bank,Indirect Lending,Limited Service Loan Production Office,1150 N. Museum Road Suite 102,Conway,AR,72032,35.09420811,-92.41883918
Centennial Bank,John Hardin Drive,Full Service Brick and Mortar Office,1900 John Hardin Drive,Jacksonville,AR,72076,34.88431592,-92.1098858
Centennial Bank,Jonesboro,Full Service Brick and Mortar Office,715 Southwest Drive,Jonesboro,AR,72401,35.81319602,-90.71480498
Centennial Bank,Jonesboro Main Office,Full Service Brick and Mortar Office,2901 East Highland Drive,Jonesboro,AR,72401,35.82108397,-90.67009734
Centennial Bank,Lakewood Village,Full Service Brick and Mortar Office,2716 Lakewood Village Place,North Little Rock,AR,72116,34.795485,-92.2338945
Centennial Bank,Levy,Full Service Brick and Mortar Office,3811 Mcarthur Drive,North Little Rock,AR,72118,34.79193598,-92.28594554
Centennial Bank,Lonoke County Mobile,Limited Service Mobile Office,620 Chestnut Street,Conway,AR,72032,35.088525,-92.437884
Centennial Bank,Main & Municipal,Full Service Brick and Mortar Office,1816 West Main Street,Jacksonville,AR,72076,34.86755212,-92.13004967
Centennial Bank,Main Street Argenta,Limited Service Mobile Office,305 East Broadway,North Little Rock,AR,72114,34.75602931,-92.26502368
Centennial Bank,Maumelle,Full Service Brick and Mortar Office,9453 Maumelle Boulevard,Maumelle,AR,72113,34.81928181,-92.36551452
Centennial Bank,Mayflower,Full Service Retail Office,582 Hwy 365 South,Mayflower,AR,72106,34.96532996,-92.42255248
Centennial Bank,Metro,Full Service Brick and Mortar Office,2901 South Walton Boulevard,Bentonville,AR,72712,36.342432,-94.2103215
Centennial Bank,Monette,Full Service Brick and Mortar Office,302 West Drew Avenue,Monette,AR,72447,35.89056169,-90.34366656
Centennial Bank,Morrilton,Full Service Brick and Mortar Office,1302 North Business Highway 9,Morrilton,AR,72110,35.16309799,-92.72994954
Centennial Bank,Mountain Home,Full Service Brick and Mortar Office,665 Highway 62 East,Mountain Home,AR,72653,36.345537,-92.3776065
Centennial Bank,Mountain View,Full Service Brick and Mortar Office,121 East Main Street,Mountain View,AR,72560,35.86783318,-92.11609998
Centennial Bank,North,Full Service Brick and Mortar Office,2690 Donaghey,Conway,AR,72032,35.1121688,-92.44773461
Centennial Bank,Paragould Kingshighway,Full Service Brick and Mortar Office,2300 West Kingshighway,Paragould,AR,72450,36.05978574,-90.51896649
Centennial Bank,Paragould Linwood Dr,Full Service Brick and Mortar Office,2404 Linwood Drive,Paragould,AR,72450,36.03188878,-90.52044885
Centennial Bank,Paragould-Main,Full Service Brick and Mortar Office,300 West Emerson,Paragould,AR,72450,36.05553353,-90.48891991
Centennial Bank,Parkway,Full Service Brick and Mortar Office,2506 East Parkway Drive,Russellville,AR,72802,35.28245778,-93.1044493
Centennial Bank,Plaza,Full Service Brick and Mortar Office,1445 Hogan Lane,Conway,AR,72034,35.09912685,-92.4976878
Centennial Bank,Pottsville,Full Service Brick and Mortar Office,5987 U.S. Highway 64 East,Pottsville,AR,72858,35.254161,-93.048183
Centennial Bank,Quitman Office,Full Service Brick and Mortar Office,6039 Heber Springs Road West,Quitman,AR,72131,35.38396822,-92.2162121
Centennial Bank,Race Avenue,Full Service Brick and Mortar Office,2620 East Race Avenue,Searcy,AR,72143,35.25057992,-91.70611042
Centennial Bank,Rector,Full Service Brick and Mortar Office,801 East 9th Street,Rector,AR,72461,36.25902146,-90.28358117
Centennial Bank,Riverdale,Full Service Brick and Mortar Office,2610 Cantrell Road,Little Rock,AR,72202,34.75921425,-92.3064189
Centennial Bank,Rodney Parham Road,Full Service Brick and Mortar Office,9712 Rodney Parham Road,Little Rock,AR,72227,34.761996,-92.3820345
Centennial Bank,Rogers,Full Service Brick and Mortar Office,4000 West Walnut,Rogers,AR,72756,36.33480565,-94.17567477
Centennial Bank,Rose City,Full Service Brick and Mortar Office,4308 Broadway,North Little Rock,AR,72117,34.75651388,-92.21706377
Centennial Bank,Russellville,Full Service Brick and Mortar Office,2701 West Main Street,Russellville,AR,72801,35.285841,-93.1612185
Centennial Bank,Russellville North Ave,Full Service Brick and Mortar Office,401 North Arkansas Avenue,Russellville,AR,72811,35.281611,-93.1345785
Centennial Bank,Saline County Mobile,Limited Service Mobile Office,620 Chestnut Street,Conway,AR,72032,35.088525,-92.437884
Centennial Bank,Searcy,Full Service Brick and Mortar Office,1300 West Beebe-Capps Expressway,Searcy,AR,72143,35.24420727,-91.7503776
Centennial Bank,Searcy Race Street,Full Service Brick and Mortar Office,3601 East Race Street,Searcy,AR,72143,35.25024784,-91.68562984
Centennial Bank,Sherwood,Full Service Brick and Mortar Office,7213 Highway 107,Sherwood,AR,72120,34.821144,-92.232855
Centennial Bank,Siloam Springs-Thompson,Full Service Brick and Mortar Office,2485 Highway 412 East,Siloam Springs,AR,72761,36.181674,-94.516038
Centennial Bank,South,Full Service Brick and Mortar Office,2500 Dave Ward Drive,Conway,AR,72034,35.070465,-92.46391283
Centennial Bank,Southside,Full Service Brick and Mortar Office,1204 South Pine Street,Cabot,AR,72023,34.953111,-92.0085963
Centennial Bank,Sylamore,Full Service Brick and Mortar Office,301 Sylamore Avenue,Mountain View,AR,72560,35.8670547,-92.10611415
Centennial Bank,Tontitown,Full Service Brick and Mortar Office,786 East Henri De Tonti Boulevard,Tontitown,AR,72770,36.17607787,-94.22236399
Centennial Bank,University,Full Service Brick and Mortar Office,2922 South University,Little Rock,AR,72204,34.724241,-92.3425425
Centennial Bank,Van Buren,Full Service Brick and Mortar Office,2110 Fayetteville Road,Van Buren,AR,72956,35.46769432,-94.35634713
Centennial Bank,Vilonia,Full Service Brick and Mortar Office,1044 Main Street,Vilonia,AR,72173,35.08278181,-92.21768634
Centennial Bank,Ward,Full Service Brick and Mortar Office,120 West North Street,Ward,AR,72176,35.03249013,-91.94733443
Centennial Bank,West,Full Service Brick and Mortar Office,945 Salem Road,Conway,AR,72034,35.091157,-92.47149753
Centennial Bank,West Main,Full Service Brick and Mortar Office,2171 West Main Street,Cabot,AR,72023,34.98248435,-92.04213714
Centennial Bank,West Sunset,Full Service Brick and Mortar Office,3395 West Sunset Avenue,Springdale,AR,72762,36.17502952,-94.16789961
First Security Bank,1140 Highway 25b,Full Service Brick and Mortar Office,1140 Highway 25b,Heber Springs,AR,72543,35.50387107,-92.02954649
First Security Bank,5 North Office,Full Service Brick and Mortar Office,520 Highway 5 North,Mountain Home,AR,72654,36.34418192,-92.39163754
First Security Bank,906 South Pine,Full Service Brick and Mortar Office,"906 South Pine, Suite 14",Cabot,AR,72023,34.957287,-92.0096145
First Security Bank,Beebe Capps,Full Service Brick and Mortar Office,2531 W Beebe-Capps Expressway,Searcy,AR,72143,35.24721816,-91.77329073
First Security Bank,Beebe West,Full Service Brick and Mortar Office,22 Highway 64 West,Beebe,AR,72012,35.069472,-91.920969
First Security Bank,Benton,Full Service Brick and Mortar Office,205 West Carpenter,Benton,AR,72015,34.56949218,-92.58471922
First Security Bank,Bentonville,Full Service Brick and Mortar Office,2300 South Walton Boulevard,Bentonville,AR,72712,36.347454,-94.211361
First Security Bank,Bentonville South Main,Full Service Brick and Mortar Office,108 S Main St,Bentonville,AR,72712,36.37187681,-94.20885712
First Security Bank,Branch At The Ranch,Full Service Brick and Mortar Office,17810 Cantrell Road,Little Rock,AR,72223,34.8077021,-92.46692285
First Security Bank,Broadway North Little Rock,Full Service Brick and Mortar Office,415 East Broadway,North Little Rock,AR,72114,34.756344,-92.2633425
First Security Bank,Bryant,Full Service Brick and Mortar Office,1823 North Reynolds Road,Bryant,AR,72022,34.61158539,-92.49576503
First Security Bank,Bryant,Full Service Brick and Mortar Office,20697 I-30,Bryant,AR,72022,34.60527,-92.5336125
First Security Bank,Cabot,Full Service Brick and Mortar Office,205 West Pine Street,Cabot,AR,72023,34.974594,-92.017053
First Security Bank,Cabot Highway 89,Full Service Brick and Mortar Office,2255 West Main Street,Cabot,AR,72023,34.98292761,-92.04338156
First Security Bank,Center Street,Full Service Brick and Mortar Office,400 West Center Street,Beebe,AR,72012,35.068527,-91.8834615
First Security Bank,Centerton,Full Service Brick and Mortar Office,1777 Centerton Avenue,Centerton,AR,72719,36.35780688,-94.25393749
First Security Bank,Central Boulevard,Full Service Brick and Mortar Office,Central Boulevard,Bull Shoals,AR,72619,36.37557259,-92.59951848
First Security Bank,Chenal,Full Service Brick and Mortar Office,15420 Chenal Parkway,Little Rock,AR,72211,34.757064,-92.442681
First Security Bank,Clarksville,Full Service Brick and Mortar Office,214 West Main Street,Clarksville,AR,72830,35.47129335,-93.4653578
First Security Bank,Clarksville South Rogers,Full Service Brick and Mortar Office,1007 South Rogers,Clarksville,AR,72830,35.45766263,-93.46221928
First Security Bank,Clinton Banking Center,Full Service Brick and Mortar Office,112 Volunteers Parkway,Clinton,AR,72031,35.56555647,-92.45235142
First Security Bank,Conway,Full Service Brick and Mortar Office,1001 Front Street,Conway,AR,72032,35.091621,-92.4415785
First Security Bank,Cravens Street Drive-Up Bking Ctr Br,Limited Service Facility Office,115 North Cravens Street,Clarksville,AR,72830,35.47176413,-93.46449781
First Security Bank,Dave Ward,Full Service Brick and Mortar Office,2101 Dave Ward Drive,Conway,AR,72032,35.06998842,-92.45460088
First Security Bank,Dewitt Henry Drive Facility,Full Service Brick and Mortar Office,Dewitt Henry Drive,Beebe,AR,72012,35.07761161,-91.89516321
First Security Bank,East,Full Service Brick and Mortar Office,1110 E Oak,Conway,AR,72032,35.091765,-92.414214
First Security Bank,East,Full Service Brick and Mortar Office,2012 East Robinson Avenue,Springdale,AR,72764,36.16677648,-94.10895939
First Security Bank,East Race,Full Service Brick and Mortar Office,2800 East Race Avenue,Searcy,AR,72143,35.251092,-91.7041815
First Security Bank,Fayetteville,Full Service Brick and Mortar Office,11 North College Avenue,Fayetteville,AR,72701,36.06346632,-94.15793926
First Security Bank,Fayetteville East,Full Service Brick and Mortar Office,2710 East Mission Blvd,Fayetteville,AR,72703,36.087597,-94.1228775
First Security Bank,Fayetteville Main,Full Service Brick and Mortar Office,1219 East Joyce Boulevard,Fayetteville,AR,72703,36.12164257,-94.14139193
First Security Bank,Fayetteville West,Full Service Brick and Mortar Office,3443 West Wedington Drive,Fayetteville,AR,72701,36.07794,-94.209732
First Security Bank,First Security Bank,Full Service Brick and Mortar Office,314 North Spring Street,Searcy,AR,72143,35.25053431,-91.73766805
First Security Bank,First Security Bank Of Mountain Home,Full Service Brick and Mortar Office,105 East Ninth Street,Mountain Home,AR,72653,36.33299149,-92.384046
First Security Bank,First Security Bank Of Mountain Home,Full Service Brick and Mortar Office,601 East Main Street,Mountain View,AR,72560,35.86526367,-92.11021858
First Security Bank,Fort Smith Garrison,Full Service Brick and Mortar Office,720 Garrison Ave,Fort Smith,AR,72901,35.386029,-94.4238645
First Security Bank,Gassville,Full Service Brick and Mortar Office,7447 Highway 62 West,Gassville,AR,72635,36.287595,-92.481021
First Security Bank,Gin Creek,Limited Service Administrative Office,2800 East Race Avenue,Searcy,AR,72143,35.251092,-91.7041815
First Security Bank,Greenbrier,Full Service Brick and Mortar Office,7 Wilson Farm Road,Greenbrier,AR,72058,35.22262045,-92.38692719
First Security Bank,Heber Springs South,Full Service Brick and Mortar Office,200 South Seventh Street,Heber Springs,AR,72543,35.49080128,-92.0364214
First Security Bank,Highway 12,Full Service Brick and Mortar Office,14512 Highway 12 East,Rogers,AR,72757,36.34224556,-94.06086701
First Security Bank,Hot Springs Airport Road,Full Service Brick and Mortar Office,1759 Airport Road,Hot Springs National Park,AR,71913,34.463205,-93.145419
First Security Bank,Hot Springs,Full Service Brick and Mortar Office,4129 Central Avenue,Hot Springs National Park,AR,71913,34.45371287,-93.06627689
First Security Bank,Hot Springs Malvern Avenue,Full Service Brick and Mortar Office,1729 Malvern Ave,Hot Springs National Park,AR,71901,34.48946958,-93.03583159
First Security Bank,Indian Hills North Little Rock Branc,Full Service Brick and Mortar Office,6855 Jfk Boulevard,North Little Rock,AR,72114,34.817922,-92.238273
First Security Bank,Jonesboro,Full Service Brick and Mortar Office,613 Southwest Drive,Jonesboro,AR,72401,35.814771,-90.712269
First Security Bank,Jonesboro Hilltop,Full Service Brick and Mortar Office,4204 East Johnson Avenue,Jonesboro,AR,72401,35.86148485,-90.64809434
First Security Bank,Judsonia,Full Service Brick and Mortar Office,Jefferson And Van Buren Streets,Judsonia,AR,72081,35.271018,-91.6396605
First Security Bank,Little Rock Bass Pro Drive,Full Service Brick and Mortar Office,10 Bass Pro Drive,Little Rock,AR,72201,34.65752409,-92.41160948
First Security Bank,Little Rock,Full Service Brick and Mortar Office,4934 And 4936 West Markham Street,Little Rock,AR,72205,34.7518865,-92.32881358
First Security Bank,Little Rock Cantrell,Full Service Brick and Mortar Office,11300 Cantrell Ste 100,Little Rock,AR,72201,34.793712,-92.3985405
First Security Bank,Little Rock Heights,Full Service Brick and Mortar Office,5600 Kavanaugh Drive,Little Rock,AR,72207,34.77022488,-92.33648404
First Security Bank,Lowell,Full Service Brick and Mortar Office,400 West Monroe,Lowell,AR,72745,36.25432219,-94.14382905
First Security Bank,Markham I-430,Full Service Brick and Mortar Office,10421 West Markham,Little Rock,AR,72205,34.753311,-92.389941
First Security Bank,Maumelle,Full Service Brick and Mortar Office,12005 Crystal Hill Road,Maumelle,AR,72113,34.8274802,-92.39262489
First Security Bank,Mayflower Banking Center,Full Service Brick and Mortar Office,624 Highway 365 South,Mayflower,AR,72106,34.95866754,-92.42303462
First Security Bank,Mccain,Full Service Brick and Mortar Office,2504 Mccain Boulevard,North Little Rock,AR,72116,34.796196,-92.236707
First Security Bank,Mcrae,Full Service Brick and Mortar Office,601 East First Street,Mc Rae,AR,72102,35.11298587,-91.82220974
First Security Bank,Messenger Service/Benton & Washingto,Limited Service Messenger Office,100 West Emma,Springdale,AR,72764,36.1851005,-94.13091986
First Security Bank,Military,Full Service Brick and Mortar Office,1401 Military Road,Benton,AR,72015,34.576929,-92.575953
First Security Bank,North Garland Avenue,Full Service Brick and Mortar Office,"640 North Garland Avenue, Suite 208",Fayetteville,AR,72701,36.07281799,-94.17544449
First Security Bank,Northeast,Full Service Brick and Mortar Office,949 Highway 62 East,Mountain Home,AR,72653,36.349461,-92.3726835
First Security Bank,Northwest,Full Service Brick and Mortar Office,1390 Highway 64 West,Conway,AR,72032,35.0980189,-92.43795383
First Security Bank,Pangburn,Full Service Brick and Mortar Office,502 Main Street,Pangburn,AR,72121,35.423982,-91.8414765
First Security Bank,President Clinton Avenue,Full Service Brick and Mortar Office,521 President Clinton Avenue,Little Rock,AR,72201,34.747146,-92.264688
First Security Bank,Prince St,Full Service Brick and Mortar Office,2925 Prince,Conway,AR,72032,35.091882,-92.472813
First Security Bank,Rogers Pinnacle,Full Service Brick and Mortar Office,3333 Pinnacle Hills Pkwy,Rogers,AR,72756,36.30483,-94.186683
First Security Bank,Russellville,Full Service Brick and Mortar Office,2504 West Main Street,Russellville,AR,72801,35.28558,-93.157479
First Security Bank,Salem,Full Service Brick and Mortar Office,1212 Salem Road,Benton,AR,72015,34.62811128,-92.56843017
First Security Bank,Sherwood,Full Service Brick and Mortar Office,9750 Brockington Road,Sherwood,AR,72120,34.84456989,-92.1906276
First Security Bank,South Main,Full Service Brick and Mortar Office,1118 South Main Street,Searcy,AR,72143,35.23782222,-91.73455807
First Security Bank,South Thompson,Full Service Brick and Mortar Office,5208 South Thompson,Springdale,AR,72764,36.13407853,-94.14559369
First Security Bank,Springdale West,Limited Service Trust Office,2500 West Sunset,Springdale,AR,72764,36.17491746,-94.15780803
First Security Bank,Stadium Boulevard - Jonesboro,Full Service Brick and Mortar Office,1341 Stadium Boulevard,Jonesboro,AR,72401,35.82999151,-90.66865176
First Security Bank,The First N.B. Of Springdale,Full Service Brick and Mortar Office,100 West Emma Street,Springdale,AR,72764,36.1851005,-94.13091986
First Security Bank,The Union Bank Of Bryant,Full Service Brick and Mortar Office,5619 Highway 5 North,Bryant,AR,72022,34.624458,-92.500515
First Security Bank,Vilonia Banking Center,Full Service Brick and Mortar Office,1137 Main St.,Vilonia,AR,72173,35.08501285,-92.19988913
First Security Bank,Wal-Mart Super Center,Full Service Brick and Mortar Office,2763 Highway 62 East,Mountain Home,AR,72653,36.35804001,-92.34011364
First Security Bank,West Main Street,Full Service Brick and Mortar Office,191 West Main Street,Farmington,AR,72730,36.04122,-94.2490395
First Security Bank,West Sunset,Full Service Brick and Mortar Office,2863 West Sunset,Springdale,AR,72762,36.17491849,-94.16184027
First Security Bank,West Walnut Street,Full Service Brick and Mortar Office,3901 West Walnut Street,Rogers,AR,72756,36.33534,-94.1733945
Regions Bank,Albert Pike,Full Service Brick and Mortar Office,900 Albert Pike,Hot Springs National Park,AR,71913,34.494219,-93.079845
Regions Bank,Arkadelphia Main,Full Service Brick and Mortar Office,506 Main Street,Arkadelphia,AR,71923,34.11957952,-93.05270983
Regions Bank,Bald Knob,Full Service Brick and Mortar Office,3410 Highway 367 N.,Bald Knob,AR,72010,35.3151205,-91.56408738
Regions Bank,Baseline,Full Service Brick and Mortar Office,6101 Baseline Road,Little Rock,AR,72209,34.66916147,-92.34558453
Regions Bank,Beebe,Full Service Brick and Mortar Office,1500 W. Dewitt Henry Drive,Beebe,AR,72012,35.07404862,-91.90091279
Regions Bank,Benton Ar Main,Full Service Brick and Mortar Office,146 W. South Street,Benton,AR,72015,34.563267,-92.5878015
Regions Bank,Bentonville 1409 S Walton Blvd Branc,Full Service Brick and Mortar Office,1409 S. Walton Boulevard,Bentonville,AR,72712,36.355815,-94.211271
Regions Bank,Bowman Remote Drive Thru,Limited Service Facility Office,12000 West Markham Street,Little Rock,AR,72211,34.75413646,-92.4079005
Regions Bank,Bryant,Full Service Brick and Mortar Office,1702 N. Reynolds Road,Bryant,AR,72022,34.610319,-92.4928515
Regions Bank,Cabot Downtown,Full Service Brick and Mortar Office,106 South 2nd Street,Cabot,AR,72023,34.97378092,-92.01748642
Regions Bank,Cabot Southside Remote Drive Thru Br,Limited Service Facility Office,3110 Bill Foster Memorial Highway,Cabot,AR,72023,34.94542743,-92.0608317
Regions Bank,Cantrell West,Full Service Brick and Mortar Office,8023 Cantrell Road,Little Rock,AR,72227,34.77567295,-92.36238662
Regions Bank,Carmona,Full Service Brick and Mortar Office,696 Desoto Boulevard,Hot Springs Village,AR,71909,34.679511,-92.998548
Regions Bank,Central,Full Service Brick and Mortar Office,5700 Rogers Avenue,Fort Smith,AR,72903,35.361054,-94.369347
Regions Bank,Chenal Promenade,Full Service Brick and Mortar Office,17615 Chenal Parkway,Little Rock,AR,72223,34.764966,-92.456019
Regions Bank,Clarksville Ar Main,Full Service Brick and Mortar Office,115 S. Cravens Street,Clarksville,AR,72830,35.47003054,-93.46450429
Regions Bank,Clinton Ar Main,Full Service Brick and Mortar Office,179 Elm Street,Clinton,AR,72031,35.59264946,-92.45771734
Regions Bank,Constitution,Full Service Brick and Mortar Office,620 S. Constitution Avenue,Ashdown,AR,71822,33.66567401,-94.12311072
Regions Bank,Conway Main,Full Service Brick and Mortar Office,1023 Main Street,Conway,AR,72032,35.08987242,-92.4387829
Regions Bank,Cypress Center,Full Service Brick and Mortar Office,2200 N. Rodney Parham Road,Little Rock,AR,72212,34.773048,-92.403486
Regions Bank,Dixieland,Full Service Brick and Mortar Office,1800 W. Walnut Street,Rogers,AR,72756,36.33399605,-94.14437263
Regions Bank,Earle,Full Service Brick and Mortar Office,801 Commerce Street,Earle,AR,72331,35.27210785,-90.46578864
Regions Bank,East Little Rock,Full Service Brick and Mortar Office,824 E. Ninth Street,Little Rock,AR,72202,34.74,-92.261601
Regions Bank,East Race St,Full Service Brick and Mortar Office,2717 E. Race Street,Searcy,AR,72143,35.25042784,-91.70450816
Regions Bank,East Russellville,Full Service Brick and Mortar Office,2404 East Parkway Drive,Russellville,AR,72802,35.28247706,-93.10567746
Regions Bank,El Dorado Main,Full Service Brick and Mortar Office,100 E. Peach Street,El Dorado,AR,71730,33.21404052,-92.66333014
Regions Bank,Fairfield Bay,Full Service Brick and Mortar Office,121 Lost Creek Parkway,Fairfield Bay,AR,72088,35.61264306,-92.26316376
Regions Bank,Fayetteville Ar,Full Service Brick and Mortar Office,1465 E. Joyce Boulevard,Fayetteville,AR,72703,36.119439,-94.1388075
Regions Bank,Fianna Hills,Full Service Brick and Mortar Office,9000 Jenny Lind Road,Fort Smith,AR,72908,35.29923689,-94.41004375
Regions Bank,Financial West,Full Service Brick and Mortar Office,800 S. Shackleford,Little Rock,AR,72211,34.746372,-92.3947245
Regions Bank,Fordyce,Full Service Brick and Mortar Office,611 W. Fourth Street,Fordyce,AR,71742,33.81240677,-92.41876359
Regions Bank,Forrest City,Full Service Brick and Mortar Office,321 N. Rosser Street,Forrest City,AR,72335,35.01085606,-90.78723833
Regions Bank,Forrest City Civic Ctr,Limited Service Facility Office,1403 Washington Street,Forrest City,AR,72335,35.02365962,-90.7875945
Regions Bank,Fourth St,Full Service Brick and Mortar Office,204 Wood Street,Texarkana,AR,71854,33.42252604,-94.04077695
Regions Bank,Ft Smith Main,Full Service Brick and Mortar Office,723 Garrison Avenue,Fort Smith,AR,72901,35.386515,-94.4233965
Regions Bank,Greenbrier,Full Service Brick and Mortar Office,48 S. Broadview Street,Greenbrier,AR,72058,35.22889635,-92.38802786
Regions Bank,Harrison Hester,Full Service Brick and Mortar Office,318 Hester Drive,Harrison,AR,72601,36.26298228,-93.13616742
Regions Bank,Heights Little Rock,Full Service Brick and Mortar Office,6001 R Street,Little Rock,AR,72207,34.76932919,-92.34109504
Regions Bank,Hot Springs Main,Full Service Brick and Mortar Office,302 Malvern Avenue,Hot Springs National Park,AR,71901,34.50884019,-93.0527876
Regions Bank,Hwy 10,Full Service Brick and Mortar Office,14920 Cantrell Road,Little Rock,AR,72223,34.80143626,-92.44096759
Regions Bank,Industrial,Full Service Brick and Mortar Office,870 Enterprise Avenue,Conway,AR,72032,35.06711958,-92.42759038
Regions Bank,Jfk And Mccain,Full Service Brick and Mortar Office,4900 John F. Kennedy Boulevard,North Little Rock,AR,72116,34.80093226,-92.25491861
Regions Bank,Jonesboro Main,Full Service Brick and Mortar Office,2400 E. Highland Drive,Jonesboro,AR,72401,35.822061,-90.6761655
Regions Bank,Lakewood Ar,Full Service Brick and Mortar Office,4545 Fairway,North Little Rock,AR,72116,34.797852,-92.233881
Regions Bank,Little Rock Main,Full Service Brick and Mortar Office,400 W. Capitol Avenue,Little Rock,AR,72201,34.745067,-92.275119
Regions Bank,Majestic Lodge,Full Service Brick and Mortar Office,101 Majestic Lodge Road,Hot Springs National Park,AR,71913,34.46841327,-93.13976788
Regions Bank,Mall,Full Service Brick and Mortar Office,4441 Central Avenue,Hot Springs National Park,AR,71913,34.45133564,-93.07754925
Regions Bank,Malvern,Full Service Brick and Mortar Office,1555 Malvern Avenue,Hot Springs National Park,AR,71913,34.49443033,-93.0381621
Regions Bank,Marion West,Full Service Brick and Mortar Office,141 Block Street,Marion,AR,72364,35.20944161,-90.20427017
Regions Bank,Massard Crossing,Full Service Brick and Mortar Office,8385 Rogers Avenue,Fort Smith,AR,72903,35.347653,-94.337595
Regions Bank,Maumelle,Full Service Brick and Mortar Office,101 Country Club Parkway,Maumelle,AR,72113,34.84080791,-92.40300649
Regions Bank,Medical Center Little Rock,Full Service Brick and Mortar Office,4224 W. Markham Street,Little Rock,AR,72205,34.751916,-92.3203215
Regions Bank,Military Rd,Full Service Brick and Mortar Office,917 Military Road,Benton,AR,72015,34.571421,-92.582541
Regions Bank,Morrilton Main,Full Service Brick and Mortar Office,300 North Moose Street,Morrilton,AR,72110,35.15487053,-92.74326832
Regions Bank,Morrilton Main Remote Drive Thru Bra,Limited Service Facility Office,213 E. Elm Street,Morrilton,AR,72110,35.15470524,-92.74312792
Regions Bank,Nashville Ar Main,Full Service Brick and Mortar Office,103 N. Main Street,Nashville,AR,71852,33.943626,-93.8473875
Regions Bank,Nashville S 4th St Remote Drive Thru,Limited Service Facility Office,1101 S. Fourth Street,Nashville,AR,71852,33.93332801,-93.8509151
Regions Bank,Newport,Full Service Brick and Mortar Office,2153 Malcolm Avenue,Newport,AR,72112,35.606295,-91.2534075
Regions Bank,North State Line,Full Service Brick and Mortar Office,2800 N. State Line Avenue,Texarkana,AR,71854,33.4496283,-94.0430847
Regions Bank,Northeast Remote Drive Thru,Limited Service Facility Office,1820 Highway 9,Morrilton,AR,72110,35.17165254,-92.71787985
Regions Bank,Oaklawn,Full Service Brick and Mortar Office,3027 Central Avenue,Hot Springs National Park,AR,71913,34.47916653,-93.05973784
Regions Bank,Osceola Ar,Full Service Brick and Mortar Office,1300 West Keiser Avenue,Osceola,AR,72370,35.69795848,-89.9882955
Regions Bank,Paragould Midtown,Full Service Brick and Mortar Office,1512 W Court Street,Paragould,AR,72450,36.0562645,-90.50606903
Regions Bank,River St Remote Drive Thru,Limited Service Facility Office,112 River Street,Benton,AR,72015,34.56292536,-92.58808724
Regions Bank,Rogers Main,Full Service Brick and Mortar Office,5050 Northgate Road,Rogers,AR,72758,36.30396493,-94.18583969
Regions Bank,Russellville Main,Full Service Brick and Mortar Office,201 S. Denver Avenue,Russellville,AR,72801,35.27760804,-93.13663111
Regions Bank,Russellville Remote Drive Thru Branc,Limited Service Facility Office,110 S. Denver Avenue,Russellville,AR,72801,35.278146,-93.136761
Regions Bank,Searcy Main,Full Service Brick and Mortar Office,200 W. Race Street,Searcy,AR,72143,35.251002,-91.7442225
Regions Bank,Searcy Main Remote Drive Thru,Limited Service Facility Office,200 Gum And Vine,Searcy,AR,72143,35.251614,-91.739691
Regions Bank,Sheridan,Full Service Brick and Mortar Office,121 S. Oak Street,Sheridan,AR,72150,34.30621753,-92.40151424
Regions Bank,Sherwood Little Rock,Full Service Brick and Mortar Office,3616 E. Kiehl Avenue,Sherwood,AR,72120,34.831827,-92.1913965
Regions Bank,South Side,Full Service Brick and Mortar Office,2000 S. Zero Street,Fort Smith,AR,72901,35.327583,-94.413699
Regions Bank,Southwest Rd,Full Service Brick and Mortar Office,617 Southwest Drive,Jonesboro,AR,72401,35.814465,-90.7126875
Regions Bank,University Little Rock,Full Service Brick and Mortar Office,5820 Asher Avenue,Little Rock,AR,72204,34.719228,-92.340144
Regions Bank,Walnut Ridge,Full Service Brick and Mortar Office,212 West Walnut Street,Walnut Ridge,AR,72476,36.06966419,-90.95613947
Regions Bank,West Conway,Full Service Brick and Mortar Office,2905 Prince Street,Conway,AR,72034,35.09227098,-92.47170066
Regions Bank,West Little Rock,Full Service Brick and Mortar Office,10120 North Rodney Parham Road,Little Rock,AR,72227,34.76599857,-92.3866684
Regions Bank,West Main Russellville,Full Service Brick and Mortar Office,1907 West Main Street,Russellville,AR,72801,35.282817,-93.151224
Regions Bank,West Memphis Main,Full Service Brick and Mortar Office,231 E. Broadway Street,West Memphis,AR,72301,35.14651549,-90.1832895
Regions Bank,West Pleasure,Full Service Brick and Mortar Office,2001 W Beebe Capps Expressway,Searcy,AR,72143,35.246898,-91.759797
Regions Bank,Wynne,Full Service Brick and Mortar Office,500 Falls Boulevard N.,Wynne,AR,72396,35.22622129,-90.78626866
Simmons Bank,Albert Pike,Full Service Brick and Mortar Office,1431 Albert Pike,Hot Springs National Park,AR,71913,34.49285311,-93.08679052
Simmons Bank,Albert Pike,Full Service Brick and Mortar Office,4200 Rogers Avenue,Fort Smith,AR,72903,35.3691,-94.3857585
Simmons Bank,Baseline,Full Service Brick and Mortar Office,6712 Baseline Road,Little Rock,AR,72209,34.669863,-92.3528295
Simmons Bank,Beebe Banking Center,Full Service Brick and Mortar Office,901 N Asu Blvd,Beebe,AR,72012,35.075961,-91.900053
Simmons Bank,Benton,Full Service Brick and Mortar Office,1323 Military,Benton,AR,72015,34.576533,-92.576565
Simmons Bank,Bentonville Walton & A Street,Full Service Brick and Mortar Office,1411 South Walton Boulevard,Bentonville,AR,72712,36.355203,-94.211046
Simmons Bank,Broadmoor,Full Service Brick and Mortar Office,1809 East Harding Avenue,Pine Bluff,AR,71601,34.21309947,-91.98219111
Simmons Bank,Bryant,Full Service Brick and Mortar Office,3109 North Reynolds Road,Bryant,AR,72022,34.622604,-92.4994485
Simmons Bank,Cabot,Full Service Brick and Mortar Office,202 South Rockwood Drive,Cabot,AR,72023,34.975053,-92.042478
Simmons Bank,Charleston,Full Service Brick and Mortar Office,521 East Main Street,Charleston,AR,72933,35.296857,-94.0373865
Simmons Bank,Chenal,Full Service Brick and Mortar Office,16600 Chenal Parkway,Little Rock,AR,72211,34.758873,-92.4500475
Simmons Bank,Clarksville,Full Service Brick and Mortar Office,1100 Rogers Street,Clarksville,AR,72830,35.45951214,-93.4605716
Simmons Bank,Colony West Shopping Center,Full Service Brick and Mortar Office,10300 N. Rodney Parham Rd,Little Rock,AR,72227,34.767963,-92.3870475
Simmons Bank,Conway,Full Service Brick and Mortar Office,"1055 Steel Avenue, Suite 110",Conway,AR,72032,35.10254133,-92.43879922
Simmons Bank,Conway,Full Service Brick and Mortar Office,600 Salem Road,Conway,AR,72034,35.08654507,-92.47162472
Simmons Bank,Conway Commons,Full Service Brick and Mortar Office,1005 East Oak Street,Conway,AR,72032,35.0913807,-92.41634052
Simmons Bank,Conway Oak,Full Service Brick and Mortar Office,414 Oak Street,Conway,AR,72032,35.09174035,-92.43146839
Simmons Bank,Delta Trust,Full Service Brick and Mortar Office,1853 Highway 165 South,Parkdale,AR,71661,33.12058524,-91.5424693
Simmons Bank,Dermott,Full Service Brick and Mortar Office,108 East Speedway,Dermott,AR,71638,33.52498539,-91.43557845
Simmons Bank,Dollarway,Full Service Brick and Mortar Office,4420 Dollarway Road,White Hall,AR,71602,34.23892604,-92.04857211
Simmons Bank,Downtown Motor Bank,Limited Service Facility Office,924 Broadway At I-630,Little Rock,AR,72201,34.739748,-92.27691
Simmons Bank,Dumas,Full Service Brick and Mortar Office,400 Highway 65 South,Dumas,AR,71639,33.88297938,-91.48345699
Simmons Bank,East End,Full Service Brick and Mortar Office,"20622 Arch Street, Suite 5",Hensley,AR,72065,34.56177963,-92.3364879
Simmons Bank,East Main,Full Service Brick and Mortar Office,3079 East Main,Russellville,AR,72801,35.27802594,-93.0962347
Simmons Bank,El Dorado,Full Service Brick and Mortar Office,100 West Grove Street,El Dorado,AR,71730,33.21828406,-92.66367049
Simmons Bank,Fayetteville Crossover,Full Service Brick and Mortar Office,N Crossover Road,Fayetteville,AR,72703,36.1271137,-94.11916625
Simmons Bank,Fayetteville Highway 62,Full Service Brick and Mortar Office,3111 Martin Luther King Boulevard,Fayetteville,AR,72701,36.05125646,-94.20470323
Simmons Bank,Fayetteville Joyce Street,Full Service Brick and Mortar Office,4033 North Shiloh Drive,Fayetteville,AR,72703,36.12443113,-94.14530861
Simmons Bank,Financial Centre,Full Service Brick and Mortar Office,11525 Financial Center Parkway,Little Rock,AR,72211,34.74694112,-92.40219397
Simmons Bank,Hamburg,Full Service Brick and Mortar Office,612 South Main Street,Hamburg,AR,71646,33.21737086,-91.7979908
Simmons Bank,Highway 10 And Chenal,Full Service Brick and Mortar Office,23816 Chenal Parkway,Little Rock,AR,72223,34.80947922,-92.48927416
Simmons Bank,Highway 65 South,Full Service Brick and Mortar Office,1783 Highway 65 South,Clinton,AR,72031,35.56979058,-92.45198775
Simmons Bank,Hillcrest,Full Service Brick and Mortar Office,2800 Kavanaugh Boulevard,Little Rock,AR,72205,34.75790856,-92.32462298
Simmons Bank,Hot Springs,Full Service Brick and Mortar Office,100 Werner Street,Hot Springs National Park,AR,71913,34.46617386,-93.06067411
Simmons Bank,Jefferson Square,Full Service Brick and Mortar Office,2711 Olive Street,Pine Bluff,AR,71603,34.20152134,-92.00698773
Simmons Bank,Jonesb0r0,Full Service Brick and Mortar Office,1720 South Caraway Road,Jonesboro,AR,72401,35.823654,-90.677088
Simmons Bank,Kavanaugh,Full Service Brick and Mortar Office,5500 Kavanaugh Boulevard,Little Rock,AR,72207,34.770393,-92.335077
Simmons Bank,Lake Village Highway,Full Service Brick and Mortar Office,728 North Highway 65,Lake Village,AR,71653,33.37383135,-91.30280954
Simmons Bank,Lakewood,Full Service Brick and Mortar Office,2401 Crestwood Road,North Little Rock,AR,72116,34.800129,-92.23703697
Simmons Bank,Landmark,Full Service Brick and Mortar Office,15602 Arch Street Pike,Little Rock,AR,72206,34.61079438,-92.31965598
Simmons Bank,Levy,Full Service Brick and Mortar Office,3901 Camp Robinson Road,North Little Rock,AR,72118,34.79140499,-92.27504965
Simmons Bank,Lincoln,Full Service Brick and Mortar Office,117 Boyer Avenue,Lincoln,AR,72744,35.94920487,-94.42388486
Simmons Bank,Linwood,Full Service Brick and Mortar Office,205 Linwood Drive,Paragould,AR,72450,36.05487407,-90.50511953
Simmons Bank,Malvern Avenue,Full Service Brick and Mortar Office,2350 Malvern Avenue,Hot Springs National Park,AR,71901,34.47249322,-93.0214578
Simmons Bank,Mammoth Springs,Full Service Brick and Mortar Office,165 Main Street,Mammoth Spring,AR,72554,36.49571027,-91.53880395
Simmons Bank,Markham,Full Service Brick and Mortar Office,8500 West Markham,Little Rock,AR,72205,34.753833,-92.3686245
Simmons Bank,Marshall,Full Service Brick and Mortar Office,300 Us Hwy 65 North,Marshall,AR,72650,35.91202636,-92.64074604
Simmons Bank,Maumelle,Full Service Brick and Mortar Office,201 Carnahan Drive,Maumelle,AR,72113,34.85495053,-92.40138
Simmons Bank,Metropolitan Nb,Full Service Brick and Mortar Office,425 West Capitol,Little Rock,AR,72201,34.744095,-92.2755195
Simmons Bank,Mid-City,Full Service Brick and Mortar Office,501 West Washington,Jonesboro,AR,72401,35.83838995,-90.70871207
Simmons Bank,Monticello,Full Service Brick and Mortar Office,473 Hwy 425 N,Monticello,AR,71655,33.63845265,-91.80142074
Simmons Bank,Mountain View,Full Service Brick and Mortar Office,205 Sylamore Avenue,Mountain View,AR,72560,35.86632347,-92.10717899
Simmons Bank,North Poplar,Full Service Brick and Mortar Office,125 North Poplar,Searcy,AR,72143,35.24824317,-91.691036
Simmons Bank,Oak Park,Full Service Brick and Mortar Office,2628 West 28th Avenue,Pine Bluff,AR,71603,34.20179352,-92.029959
Simmons Bank,Ozark,Full Service Brick and Mortar Office,100 West Commercial Street,Ozark,AR,72949,35.487144,-93.8255175
Simmons Bank,Pine Bluff,Limited Service Facility Office,501 Main Street,Pine Bluff,AR,71601,34.2243903,-92.00335524
Simmons Bank,Plaza West,Full Service Brick and Mortar Office,4220 North Rodney Parham Road,Little Rock,AR,72212,34.791552,-92.397834
Simmons Bank,River Market,Limited Service Administrative Office,601 East Third Street,Little Rock,AR,72201,34.74523267,-92.26427578
Simmons Bank,Rogers 8th Street,Full Service Brick and Mortar Office,111 North 8th Street,Rogers,AR,72756,36.335016,-94.125105
Simmons Bank,Rogers,Full Service Brick and Mortar Office,3975 West New Hope Road,Rogers,AR,72758,36.313623,-94.1750325
Simmons Bank,Russellville Main,Full Service Brick and Mortar Office,800 North Arkansas Avenue,Russellville,AR,72801,35.285751,-93.132972
Simmons Bank,Searcy,Full Service Brick and Mortar Office,401 South Main,Searcy,AR,72143,35.13912508,-91.78329577
Simmons Bank,Siloam Springs,Full Service Brick and Mortar Office,1002 South Mt. Olive,Siloam Springs,AR,72761,36.174105,-94.5418635
Simmons Bank,Simmons Bank,Full Service Brick and Mortar Office,501 Main Street,Pine Bluff,AR,71611,34.2243903,-92.00335524
Simmons Bank,South,Full Service Brick and Mortar Office,2305 Zero Street,Fort Smith,AR,72906,35.328204,-94.4101215
Simmons Bank,Southwest Drive,Full Service Brick and Mortar Office,711 Southwest Drive,Jonesboro,AR,72401,35.813475,-90.7140285
Simmons Bank,Springdale,Full Service Brick and Mortar Office,2832 West Sunset,Springdale,AR,72762,36.17496852,-94.16178039
Simmons Bank,Stagecoach Road,Full Service Brick and Mortar Office,10425 Stagecoach Road,Little Rock,AR,72210,34.656543,-92.425851
Simmons Bank,Star City,Full Service Brick and Mortar Office,300 North Lincoln Avenue,Star City,AR,71667,33.9454383,-91.8436578
Simmons Bank,Stonewood Villge,Full Service Brick and Mortar Office,7324 Rogers Avenue,Fort Smith,AR,72903,35.352594,-94.351509
Simmons Bank,Strong,Full Service Brick and Mortar Office,9652 Strong Highway,Strong,AR,71765,33.11157839,-92.35924226
Simmons Bank,The Mccain,Full Service Brick and Mortar Office,3929 Mccain Boulevard,North Little Rock,AR,72116,34.792587,-92.226222
Simmons Bank,Timberlane,Full Service Brick and Mortar Office,535 South Timberlane Drive,El Dorado,AR,71730,33.20474834,-92.68785582
Simmons Bank,University,Full Service Brick and Mortar Office,1704 North University Drive,Pine Bluff,AR,71601,34.24679995,-92.01755276
Simmons Bank,University,Full Service Brick and Mortar Office,5601 South University,Little Rock,AR,72209,34.69870479,-92.34546115
Simmons Bank,Watson Chapel,Full Service Brick and Mortar Office,"3803 Camden Road, Ste 30",Pine Bluff,AR,71603,34.19158506,-92.06261879
Simmons Bank,Weiner,Full Service Brick and Mortar Office,202 Ritter Street,Weiner,AR,72479,35.617203,-90.89870716
Simmons Bank,West Main Street,Full Service Brick and Mortar Office,2500 West Main,Russellville,AR,72801,35.28496876,-93.156807
Simmons Bank,White Hall,Full Service Brick and Mortar Office,8107 Dollarway Road,White Hall,AR,71602,34.27308649,-92.0902224
BancorpSouth Bank,Alma,Full Service Brick and Mortar Office,17 Highway 64 E,Alma,AR,72921,35.482788,-94.22568
BancorpSouth Bank,Ashdown,Full Service Brick and Mortar Office,611 E Wood St,Ashdown,AR,71822,33.66723257,-94.12264281
BancorpSouth Bank,Brinkley,Full Service Brick and Mortar Office,800 N Main St,Brinkley,AR,72021,34.896564,-91.19435502
BancorpSouth Bank,Calico Rock,Full Service Brick and Mortar Office,2006 Highway 56 E,Calico Rock,AR,72519,36.14017705,-92.12428598
BancorpSouth Bank,Camden Downtown,Full Service Brick and Mortar Office,123 Washington St Ne,Camden,AR,71701,33.5860805,-92.82941918
BancorpSouth Bank,Camden Garden Oaks,Full Service Brick and Mortar Office,1137 Washington,Camden,AR,71701,33.58482645,-92.84978519
BancorpSouth Bank,Carlisle,Full Service Brick and Mortar Office,118 N Court St,Carlisle,AR,72024,34.783452,-91.7462295
BancorpSouth Bank,Dequeen,Full Service Brick and Mortar Office,1011 W Collin Raye Dr,De Queen,AR,71832,34.04676251,-94.34927153
BancorpSouth Bank,El Dorado Main Street,Full Service Brick and Mortar Office,101 W Main Street,El Dorado,AR,71730,33.21184947,-92.6641215
BancorpSouth Bank,El Dorado North,Full Service Brick and Mortar Office,1510 N West Ave,El Dorado,AR,71730,33.22715145,-92.66571521
BancorpSouth Bank,Fayetteville,Full Service Brick and Mortar Office,3390 N Futrall Dr,Fayetteville,AR,72703,36.11285152,-94.15633438
BancorpSouth Bank,Fort Smith Downtown,Full Service Brick and Mortar Office,1222 Rogers Ave,Fort Smith,AR,72901,35.382339,-94.420269
BancorpSouth Bank,Fort Smith East,Full Service Brick and Mortar Office,7000 Rogers Ave,Fort Smith,AR,72903,35.353872,-94.3549695
BancorpSouth Bank,Fort Smith North,Full Service Brick and Mortar Office,3117 Grand Ave,Fort Smith,AR,72904,35.38592371,-94.3979886
BancorpSouth Bank,Fort Smith Riley Farm,Full Service Brick and Mortar Office,5900 Riley Park Dr,Fort Smith,AR,72916,35.27167678,-94.36984854
BancorpSouth Bank,Fort Smith South,Full Service Brick and Mortar Office,5800 Highway 71 S,Fort Smith,AR,72908,35.327043,-94.410099
BancorpSouth Bank,Greenwood,Full Service Brick and Mortar Office,803 W Center St,Greenwood,AR,72936,35.21594233,-94.26862129
BancorpSouth Bank,Hazen,Full Service Brick and Mortar Office,101 N Chester St,Hazen,AR,72064,34.78125483,-91.58350505
BancorpSouth Bank,Hope Downtown,Full Service Brick and Mortar Office,200 S Elm St,Hope,AR,71801,33.66703889,-93.59288175
BancorpSouth Bank,Horseshoe Bend,Full Service Brick and Mortar Office,103 Commerce St,Horseshoe Bend,AR,72512,36.2205787,-91.75810353
BancorpSouth Bank,Hot Springs Oaklawn,Full Service Brick and Mortar Office,3101 Central Ave,Hot Springs National Park,AR,71913,34.478631,-93.0594735
BancorpSouth Bank,Jonesboro Fair Park,Full Service Brick and Mortar Office,2201 Fair Park Blvd,Jonesboro,AR,72401,35.81453486,-90.6735782
BancorpSouth Bank,Jonesboro Farville,Full Service Brick and Mortar Office,5902 E Johnson Ave,Jonesboro,AR,72401,35.864631,-90.620514
BancorpSouth Bank,Jonesboro Main Street,Full Service Brick and Mortar Office,700 S Main St,Jonesboro,AR,72401,35.83658596,-90.70500325
BancorpSouth Bank,Jonesboro Ridgepark,Full Service Brick and Mortar Office,1901 W Parker Rd,Jonesboro,AR,72401,35.81604933,-90.73127337
BancorpSouth Bank,Lewisville Ar,Full Service Brick and Mortar Office,307 Spruce St,Lewisville,AR,71845,33.35752317,-93.577646
BancorpSouth Bank,Little Rock Cantrell,Full Service Brick and Mortar Office,2800 Cantrell Rd,Little Rock,AR,72202,34.760934,-92.308203
BancorpSouth Bank,Little Rock Highway 10,Full Service Brick and Mortar Office,17703 Cantrell Rd,Little Rock,AR,72223,34.80768622,-92.46703844
BancorpSouth Bank,Little Rock Pleasant Valley,Full Service Brick and Mortar Office,2201 N Rodney Parham Rd,Little Rock,AR,72212,34.77253059,-92.40248589
BancorpSouth Bank,Little Rock Shakleford,Full Service Brick and Mortar Office,1211 S Shackleford Rd,Little Rock,AR,72211,34.74219121,-92.3943576
BancorpSouth Bank,Magnolia,Full Service Brick and Mortar Office,300 N Jackson St,Magnolia,AR,71753,33.26921827,-93.23919997
BancorpSouth Bank,Main Street,Limited Service Facility Office,1309 Main Street,Conway,AR,72034,35.08899562,-92.44140272
BancorpSouth Bank,Marmaduke,Full Service Brick and Mortar Office,11525 Highway 49 N,Marmaduke,AR,72443,36.18796834,-90.38493699
BancorpSouth Bank,Melbourne,Full Service Brick and Mortar Office,121 E Main St,Melbourne,AR,72556,36.05909646,-91.9048812
BancorpSouth Bank,Osceola,Full Service Brick and Mortar Office,749 W Keiser Ave,Osceola,AR,72370,35.69765298,-89.97789905
BancorpSouth Bank,Paragould,Full Service Brick and Mortar Office,1833 Linwood Dr,Paragould,AR,72450,36.03717438,-90.51441771
BancorpSouth Bank,Pocahontas,Full Service Brick and Mortar Office,1411 Highway 67 S,Pocahontas,AR,72455,36.25144702,-90.96375207
BancorpSouth Bank,Rogers,Full Service Brick and Mortar Office,701 South 52nd Street,Rogers,AR,72758,36.32631837,-94.1863101
BancorpSouth Bank,Stuttgart Main Street,Full Service Brick and Mortar Office,412 S Main St,Stuttgart,AR,72160,34.49855784,-91.55265185
BancorpSouth Bank,Stuttgart South,Full Service Brick and Mortar Office,2006 S Main St,Stuttgart,AR,72160,34.48197886,-91.5531213
BancorpSouth Bank,Taylor,Full Service Brick and Mortar Office,112 W Pine St,Taylor,AR,71861,33.100452,-93.4627455
BancorpSouth Bank,Texarkana Stateline Road,Full Service Brick and Mortar Office,2200 N State Line Ave,Texarkana,AR,71854,33.4439403,-94.0430532
BancorpSouth Bank,Van Buren,Full Service Brick and Mortar Office,2721 Alma Hwy,Van Buren,AR,72956,35.441802,-94.32963
U.S. Bank,Alma,Full Service Brick and Mortar Office,115 Highway 64 West,Alma,AR,72921,35.48436094,-94.22354651
U.S. Bank,Arkadelphia Main Street,Full Service Brick and Mortar Office,526 Main Street,Arkadelphia,AR,71923,34.11958651,-93.05326783
U.S. Bank,Bismarck,Full Service Brick and Mortar Office,6677 Highway 7,Bismarck,AR,71929,34.315407,-93.171096
U.S. Bank,Bryant,Full Service Brick and Mortar Office,100 Commerce St.,Bryant,AR,72022,34.621272,-92.497842
U.S. Bank,Capitol,Full Service Brick and Mortar Office,401 West Capitol Avenue,Little Rock,AR,72201,34.74466485,-92.27507485
U.S. Bank,Chenal,Full Service Brick and Mortar Office,17200 Chenal Parkway,Little Rock,AR,72223,34.7623428,-92.45430009
U.S. Bank,Conway Main,Full Service Brick and Mortar Office,1122 Van Ronkle Street,Conway,AR,72032,35.09175817,-92.4406535
U.S. Bank,Conway West,Full Service Brick and Mortar Office,2620 Prince Street,Conway,AR,72032,35.09262,-92.4668325
U.S. Bank,Flippin,Full Service Brick and Mortar Office,Fourth And Main Streets,Flippin,AR,72634,36.277713,-92.5951185
U.S. Bank,Geyer Springs,Full Service Brick and Mortar Office,6004 Baseline Road,Little Rock,AR,72209,34.66919703,-92.34484641
U.S. Bank,Heber Springs,Full Service Brick and Mortar Office,821 West Main Street,Heber Springs,AR,72543,35.49194955,-92.03816075
U.S. Bank,Heights,Full Service Brick and Mortar Office,5200 Kavanaugh Boulevard,Little Rock,AR,72207,34.77005834,-92.33137822
U.S. Bank,Highway 7 North,Full Service Brick and Mortar Office,101 Cooper Circle,Hot Springs Village,AR,71909,34.65621709,-93.05630319
U.S. Bank,Highway 70 West,Full Service Brick and Mortar Office,1768 Airport Road,Hot Springs National Park,AR,71913,34.46371796,-93.14564509
U.S. Bank,Highway 9b,Full Service Brick and Mortar Office,1539 East Harding Street,Morrilton,AR,72110,35.16700003,-92.72495815
U.S. Bank,Hot Springs Central Avenue,Full Service Brick and Mortar Office,1234 Central Avenue,Hot Springs National Park,AR,71901,34.502211,-93.056337
U.S. Bank,Hot Springs Mall,Full Service Brick and Mortar Office,4451 Central Avenue,Hot Springs National Park,AR,71913,34.45137938,-93.07745131
U.S. Bank,Jacksonville,Full Service Brick and Mortar Office,1804 North First Street,Jacksonville,AR,72076,34.882722,-92.1080745
U.S. Bank,Kiehl,Full Service Brick and Mortar Office,4199 East Kiehl Avenue,Sherwood,AR,72120,34.83198241,-92.1846484
U.S. Bank,Levy,Full Service Brick and Mortar Office,3701 Camp Robinson Road,North Little Rock,AR,72118,34.790085,-92.2767075
U.S. Bank,Malvern Ash Street,Full Service Brick and Mortar Office,327 Ash Street,Malvern,AR,72104,34.36316332,-92.81149008
U.S. Bank,Malvern Avenue,Full Service Brick and Mortar Office,1875 Malvern Avenue,Hot Springs National Park,AR,71901,34.487262,-93.0337515
U.S. Bank,Maumelle,Full Service Brick and Mortar Office,119 Audubon Drive,Maumelle,AR,72113,34.850952,-92.4041565
U.S. Bank,Mccain Boulevard,Full Service Brick and Mortar Office,3703 Mccain Boulevard,North Little Rock,AR,72116,34.79273815,-92.23091313
U.S. Bank,Mountain Home,Full Service Brick and Mortar Office,100 South Main Street,Mountain Home,AR,72653,36.339624,-92.38527845
U.S. Bank,North Hills,Full Service Brick and Mortar Office,7001 John F. Kennedy Boulevard,North Little Rock,AR,72116,34.819443,-92.236365
U.S. Bank,One Riverfront Place,Full Service Brick and Mortar Office,One Riverfront Place,North Little Rock,AR,72114,34.7546115,-92.269035
U.S. Bank,Park Plaza,Full Service Brick and Mortar Office,6320 West Markham Street,Little Rock,AR,72205,34.75245215,-92.34521181
U.S. Bank,Perryville,Full Service Brick and Mortar Office,115 6th Street,Perryville,AR,72126,35.00818741,-92.80144691
U.S. Bank,Pointer Trail,Full Service Brick and Mortar Office,102 Pointer Trail West,Van Buren,AR,72956,35.45913179,-94.35952594
U.S. Bank,Quitman,Full Service Brick and Mortar Office,6149 Heber Springs Road,Quitman,AR,72131,35.38394339,-92.21645551
U.S. Bank,Rodney Parham,Full Service Brick and Mortar Office,10720 Rodney Parham Road,Little Rock,AR,72212,34.771689,-92.393046
U.S. Bank,Rose City,Full Service Brick and Mortar Office,4311 East Broadway Street,North Little Rock,AR,72117,34.75640383,-92.21732773
U.S. Bank,Sheridan,Full Service Brick and Mortar Office,101 North Oak,Sheridan,AR,72150,34.30699292,-92.40151476
U.S. Bank,Van Buren 6th & Webster,Full Service Brick and Mortar Office,510 Webster,Van Buren,AR,72956,35.434431,-94.3533045
U.S. Bank,West Markham,Full Service Brick and Mortar Office,11402 West Markham,Little Rock,AR,72211,34.75395899,-92.39995939
U.S. Bank,West Pine,Full Service Brick and Mortar Office,2701 Pine Street,Arkadelphia,AR,71923,34.122359,-93.08258559
Southern Bancorp Bank,Airport Rd,Full Service Brick and Mortar Office,206 Airport Rd,Hot Springs National Park,AR,71913,34.49015174,-93.08715214
Southern Bancorp Bank,Ash Street,Full Service Brick and Mortar Office,208 Ash Street,Malvern,AR,72104,34.364124,-92.8129545
Southern Bancorp Bank,Barton,Full Service Brick and Mortar Office,6140 Hwy 49,Barton,AR,72312,34.55514119,-90.77021504
Southern Bancorp Bank,Bismarck,Full Service Brick and Mortar Office,6764 Arkansas 7,Bismarck,AR,71929,34.31707457,-93.17115169
Southern Bancorp Bank,Blytheville,Full Service Brick and Mortar Office,120 South Second Street,Blytheville,AR,72315,35.92670889,-89.90409844
Southern Bancorp Bank,Cherry Street,Full Service Brick and Mortar Office,502 Cherry Street,Helena,AR,72342,34.52714975,-90.58613513
Southern Bancorp Bank,East,Limited Service Facility Office,1040 East Main Street,Blytheville,AR,72315,35.92894215,-89.88061877
Southern Bancorp Bank,El Dorado,Full Service Brick and Mortar Office,1615 West Hillsboro,El Dorado,AR,71730,33.2076035,-92.68352992
Southern Bancorp Bank,Eudora,Full Service Brick and Mortar Office,2943 S Highway 65,Eudora,AR,71640,33.109452,-91.257246
Southern Bancorp Bank,Glenwood,Full Service Brick and Mortar Office,3 Caddo Crossing,Glenwood,AR,71943,34.32322585,-93.55029863
Southern Bancorp Bank,Gosnell,Limited Service Facility Office,599 Airbase Highway,Blytheville,AR,72315,35.9544363,-89.9651373
Southern Bancorp Bank,Gurdon,Full Service Brick and Mortar Office,600 Main Street,Gurdon,AR,71743,33.91663847,-93.14779003
Southern Bancorp Bank,Hamburg,Full Service Brick and Mortar Office,210 North Main,Hamburg,AR,71646,33.22649336,-91.79746096
Southern Bancorp Bank,Hot Springs - East,Full Service Brick and Mortar Office,"2212 Malvern Avenue, Suite 1",Hot Springs National Park,AR,71901,34.47459474,-93.02406922
Southern Bancorp Bank,Hot Springs,Full Service Brick and Mortar Office,4138 Central Avenue,Hot Springs National Park,AR,71913,34.453305,-93.0682395
Southern Bancorp Bank,Little Rock,Limited Service Facility Office,8924 Kanis Road,Little Rock,AR,72205,34.741125,-92.374398
Southern Bancorp Bank,Main Street,Full Service Brick and Mortar Office,128 Main Street,Elaine,AR,72333,34.30812741,-90.85208944
Southern Bancorp Bank,Manila,Limited Service Facility Office,403 Highway 18 South,Manila,AR,72442,35.84916689,-90.04929842
Southern Bancorp Bank,Manila,Full Service Brick and Mortar Office,319 North Baltimore,Manila,AR,72442,35.87704376,-90.16638257
Southern Bancorp Bank,Marvell,Full Service Brick and Mortar Office,911 Highway 49,Marvell,AR,72366,34.56027103,-90.91328051
Southern Bancorp Bank,Mt Ida,Full Service Brick and Mortar Office,506 Highway 270 East,Mount Ida,AR,71957,34.552845,-93.628503
Southern Bancorp Bank,North,Limited Service Facility Office,807 North 6th Street,Blytheville,AR,72315,35.934471,-89.910477
Southern Bancorp Bank,Plaza,Full Service Brick and Mortar Office,425 East Plaza Street,West Helena,AR,72390,34.54390554,-90.64037178
Southern Bancorp Bank,Round,Full Service Brick and Mortar Office,432 N Sebastian,West Helena,AR,72390,34.55138556,-90.64879834
Southern Bancorp Bank,South,Limited Service Facility Office,1012 South Division Street,Blytheville,AR,72315,35.9173599,-89.91872986
Southern Bancorp Bank,Southern Bancorp Bank,Full Service Brick and Mortar Office,601 Main Street,Arkadelphia,AR,71923,34.11952852,-93.05373192
Southern Bancorp Bank,Timberland,Full Service Brick and Mortar Office,2421 North West Avenue,El Dorado,AR,71730,33.23605498,-92.66550625
Southern Bancorp Bank,Trumann,Full Service Brick and Mortar Office,326 Highway 463 North,Trumann,AR,72472,35.67622543,-90.52257434
Southern Bancorp Bank,West Pine,Full Service Brick and Mortar Office,2500 Pine St,Arkadelphia,AR,71923,34.12316645,-93.07938109
The Farmers & Merchants Bank,Bentonville,Full Service Brick and Mortar Office,3210 Sw Regency Pkwy,Bentonville,AR,72712,36.33980487,-94.2118019
The Farmers & Merchants Bank,College,Full Service Brick and Mortar Office,3120 North College Avenue,Fayetteville,AR,72703,36.107757,-94.1445945
The Farmers & Merchants Bank,Crossover,Full Service Brick and Mortar Office,1846 North Crossover Road,Fayetteville,AR,72701,36.087039,-94.1202585
The Farmers & Merchants Bank,Desarc,Full Service Brick and Mortar Office,110 W Third,Des Arc,AR,72040,34.97776267,-91.49521354
The Farmers & Merchants Bank,Drive-In,Limited Service Facility Office,Seventh And Maple Streets,Stuttgart,AR,72160,34.496514,-91.55394
The Farmers & Merchants Bank,East 22nd Street,Limited Service Facility Office,102 East 22nd Street,Stuttgart,AR,72160,34.47929348,-91.55234874
The Farmers & Merchants Bank,Farmington,Full Service Brick and Mortar Office,257 West Main,Farmington,AR,72730,36.039582,-94.2520095
The Farmers & Merchants Bank,Fayetteville,Full Service Brick and Mortar Office,One South Block,Fayetteville,AR,72703,36.05615587,-94.16079222
The Farmers & Merchants Bank,Flippin,Full Service Brick and Mortar Office,203 North 1st Street,Flippin,AR,72634,36.278847,-92.60086608
The Farmers & Merchants Bank,Gassville,Full Service Brick and Mortar Office,701 East Main Street,Gassville,AR,72635,36.286632,-92.483145
The Farmers & Merchants Bank,Gregg,Full Service Brick and Mortar Office,2592 North Gregg Ave,Fayetteville,AR,72703,36.098856,-94.1606865
The Farmers & Merchants Bank,Hazen,Full Service Brick and Mortar Office,110 North Front,Hazen,AR,72064,34.78091051,-91.5797564
The Farmers & Merchants Bank,Jonesboro,Full Service Brick and Mortar Office,400 East Highland Drive,Jonesboro,AR,72401,35.822142,-90.70074
The Farmers & Merchants Bank,Lakeview,Full Service Brick and Mortar Office,Sheffield Road And Highway 178 East,Lakeview,AR,72642,36.370728,-92.5417485
The Farmers & Merchants Bank,Marianna,Full Service Brick and Mortar Office,33 West Main Street,Marianna,AR,72360,34.77347354,-90.75848825
The Farmers & Merchants Bank,Morrilton,Full Service Brick and Mortar Office,1600 North Oak Street,Morrilton,AR,72110,35.172378,-92.74441791
The Farmers & Merchants Bank,Mountain Home,Full Service Brick and Mortar Office,502 South Hickory Street,Mountain Home,AR,72653,36.33606645,-92.38625954
The Farmers & Merchants Bank,Mt Home East,Full Service Brick and Mortar Office,2696 Highway 62 East,Mountain Home,AR,72653,36.358299,-92.340801
The Farmers & Merchants Bank,North Main Street,Limited Service Facility Office,801 North Main Street,Stuttgart,AR,72160,34.50855812,-91.55227046
The Farmers & Merchants Bank,Perryville,Full Service Brick and Mortar Office,813 North Fourche Avenue,Perryville,AR,72126,35.009991,-92.801268
The Farmers & Merchants Bank,Pocahontas East,Limited Service Facility Office,1608 U S Highway 67 South,Pocahontas,AR,72455,36.24862704,-90.95856374
The Farmers & Merchants Bank,Pocahontas Main,Full Service Brick and Mortar Office,1 Bank Plaza,Pocahontas,AR,72455,36.26058528,-90.97086243
The Farmers & Merchants Bank,Prairie Grove,Full Service Brick and Mortar Office,202 Hindman St,Prairie Grove,AR,72753,35.973117,-94.32710398
The Farmers & Merchants Bank,Teller's Window,Limited Service Facility Office,21st And Buerkle Streets,Stuttgart,AR,72160,34.481088,-91.558422
The Farmers & Merchants Bank,The Farmers & Merchants Bank,Full Service Brick and Mortar Office,708 South Main Street,Stuttgart,AR,72160,34.49625928,-91.55274036
The Farmers & Merchants Bank,Train,Limited Service Facility Office,542 West Dickson Street,Fayetteville,AR,72701,36.066699,-94.165686
The Farmers & Merchants Bank,Wedington,Full Service Brick and Mortar Office,3150 Wedington Drive,Fayetteville,AR,72704,36.07841534,-94.20445056
The Farmers & Merchants Bank,West Fork,Full Service Brick and Mortar Office,200 Main Street,West Fork,AR,72774,35.92598291,-94.1855479
The Farmers & Merchants Bank,Whitehead Drive,Full Service Brick and Mortar Office,1960 Whitehead Drive,De Witt,AR,72042,34.27231707,-91.34181725
Bank of England,Bank Of England,Full Service Brick and Mortar Office,123 South Main Street,England,AR,72046,34.54506109,-91.87387325
Bank of England,Bank Of England Mortgage,Limited Service Loan Production Office,"1600 Dave Ward Drive, Suite B",Conway,AR,72034,35.068987,-92.44515561
Bank of England,Bank Of England Mortgage,Limited Service Loan Production Office,"287 S. Broadview, Suite C4",Greenbrier,AR,72058,35.19368206,-92.39153429
Bank of England,Bank Of England Mortgage,Limited Service Loan Production Office,"100 Calella Road, Suite 303",Hot Springs Village,AR,71909,34.672662,-93.0321585
Bank of England,Bank Of England Mortgage,Limited Service Loan Production Office,"2105 Malcolm Avenue, Suite 118",Newport,AR,72112,35.606835,-91.255185
Bank of England,Bank Of England Mortgage,Limited Service Loan Production Office,"216 Olive Street, Suite 108",Texarkana,AR,71854,33.42294,-94.041747
Bank of England,Bank Of England Mortgage,Limited Service Loan Production Office,"500 W. Main Street, Suite 315",Russellville,AR,72801,35.27916082,-93.13755831
Bank of England,Bank Of England Mortgage,Limited Service Loan Production Office,"5813 Kavanaugh Blvd., Suite B",Little Rock,AR,72207,34.7702481,-92.33879314
Bank of England,Bank Of England Mortgage,Limited Service Loan Production Office,"2200 Rodney Parham Road, Suite 101",Little Rock,AR,72212,34.773048,-92.403486
Bank of England,Bank Of England Mortgage,Limited Service Loan Production Office,"5 State House Plaza, Suite 500",Little Rock,AR,72201,34.74814161,-92.27021247
Bank of England,Bank Of England Mortgage,Limited Service Loan Production Office,"11621 Rainwood Road, Suite 1",Little Rock,AR,72212,34.76883452,-92.4021585
Bank of England,Bank Of England Mortgage,Limited Service Loan Production Office,"650 Edgewood Drive, Suite 201",Maumelle,AR,72113,34.863273,-92.405223
Bank of England,Bank Of England Mortgage,Limited Service Loan Production Office,5345 John F Kennedy Blvd,North Little Rock,AR,72116,34.80431174,-92.25328098
Bank of England,Bank Of England Mortgage,Limited Service Loan Production Office,2213 North Reynolds Road,Bryant,AR,72022,34.615836,-92.499282
Bank of England,Bank Of England Mortgage,Limited Service Loan Production Office,"4700 S. Thompson Ave, Suite C-101",Springdale,AR,72764,36.14282103,-94.14420252
Bank of England,Bank Of England Mortgage,Limited Service Loan Production Office,2117 W. Beebe Capps Expressway,Searcy,AR,72143,35.24721228,-91.76482682
Bank of England,Cabot Lpo,Limited Service Loan Production Office,"2391 West Main Street, Suite C",Cabot,AR,72023,34.982937,-92.0450565
Bank of England,Carlisle,Full Service Brick and Mortar Office,101 Park Street,Carlisle,AR,72024,34.780095,-91.747035
Bank of England,East,Full Service Brick and Mortar Office,100 Stuttgart Highway,England,AR,72046,34.546077,-91.9572975
Bank of England,Lonoke Banking Center,Full Service Brick and Mortar Office,1109 North Center Street,Lonoke,AR,72086,34.7934216,-91.89838172
Bank of England,Oak Street Lpo,Limited Service Loan Production Office,"813 Oak Street, Suite 5",Conway,AR,72032,35.091306,-92.4352335
Bank of England,Riverdale,Full Service Brick and Mortar Office,1320 Rebsamen Park Road,Little Rock,AR,72202,34.762842,-92.3103675
Bank of England,Scott Banking Center,Full Service Brick and Mortar Office,11044 Hwy 165,North Little Rock,AR,72117,34.730856,-92.150046
First Arkansas Bank and Trust,Arnold Drive Lr Afb,Full Service Brick and Mortar Office,"Building 795, Arnold Drive",Jacksonville,AR,72076,34.89688415,-92.16459378
First Arkansas Bank and Trust,Austin,Full Service Brick and Mortar Office,1685 East Main,Austin,AR,72007,34.997904,-91.982808
First Arkansas Bank and Trust,Cabot Southside,Full Service Retail Office,121 Bill Foster Memorial Highway,Cabot,AR,72023,34.93809211,-92.00678189
First Arkansas Bank and Trust,Clinton,Full Service Brick and Mortar Office,185 Bone Street,Clinton,AR,72031,35.59743387,-92.46035538
First Arkansas Bank and Trust,Conway,Full Service Brick and Mortar Office,804 Hogan Lane,Conway,AR,72034,35.09019,-92.4972705
First Arkansas Bank and Trust,Cyber,Full Service Cyber Office,600 West Main Street,Jacksonville,AR,72076,34.86715211,-92.11531838
First Arkansas Bank and Trust,Damascus,Full Service Brick and Mortar Office,10 South Broadway,Damascus,AR,72039,35.36676146,-92.40938009
First Arkansas Bank and Trust,First Arkansas Bank And Trust,Full Service Brick and Mortar Office,600 West Main Street,Jacksonville,AR,72076,34.86715211,-92.11531838
First Arkansas Bank and Trust,Gravel Ridge,Full Service Brick and Mortar Office,14917 Hwy 107,Jacksonville,AR,72076,34.872741,-92.196477
First Arkansas Bank and Trust,Greenbrier,Full Service Brick and Mortar Office,11 North Broadview,Greenbrier,AR,72058,35.23496837,-92.38792668
First Arkansas Bank and Trust,Greers Ferry,Full Service Brick and Mortar Office,Greers Ferry Rd,Higden,AR,72067,35.59733393,-92.10940949
First Arkansas Bank and Trust,Guy Community,Full Service Brick and Mortar Office,367 Hwy 25 N #1,Greenbrier,AR,72058,35.3165454,-92.3437767
First Arkansas Bank and Trust,Heber Springs,Full Service Brick and Mortar Office,806 W Main St,Heber Springs,AR,72543,35.49198346,-92.03754988
First Arkansas Bank and Trust,Highway 5,Full Service Brick and Mortar Office,3166 Highway 367 South,Cabot,AR,72023,34.948044,-92.06118
First Arkansas Bank and Trust,Jacksonville Wal-Mart Shopping Cente,Full Service Retail Office,2030 John Harden Drive,Jacksonville,AR,72076,34.8850942,-92.10916601
First Arkansas Bank and Trust,Kiehl,Full Service Brick and Mortar Office,3607 Kiehl Avenue,Sherwood,AR,72120,34.832637,-92.192337
First Arkansas Bank and Trust,North,Full Service Brick and Mortar Office,501 J.P. Wright Loop Road,Jacksonville,AR,72076,34.88441878,-92.10709401
First Arkansas Bank and Trust,Northside,Full Service Brick and Mortar Office,1230 Highway 25b North,Heber Springs,AR,72543,35.50482012,-92.02949323
First Arkansas Bank and Trust,Quitman,Full Service Brick and Mortar Office,5825 Heber Springs Road West,Quitman,AR,72131,35.38471382,-92.20998272
First Arkansas Bank and Trust,Rockwood,Full Service Brick and Mortar Office,105 South Rockwood,Cabot,AR,72023,34.97661,-92.042271
First Arkansas Bank and Trust,Sugar Loaf Office,Full Service Brick and Mortar Office,1500-A Highway 25 By-Pass,Heber Springs,AR,72543,35.49659376,-91.99827586
First Arkansas Bank and Trust,West,Full Service Brick and Mortar Office,2519 W Main St,Jacksonville,AR,72076,34.866666,-92.138823
First Arkansas Bank and Trust,Wildwood,Full Service Brick and Mortar Office,2200 Wildwood Avenue,Sherwood,AR,72120,34.814871,-92.208051
First Community Bank,Bald Knob,Full Service Brick and Mortar Office,159 Highway 167,Bald Knob,AR,72010,35.32496929,-91.56149863
First Community Bank,Bay,Full Service Brick and Mortar Office,306 Elder Street,Bay,AR,72411,35.74274521,-90.56616465
First Community Bank,Cabot,Full Service Brick and Mortar Office,3084 Bill Foster Memorial Highway,Cabot,AR,72023,34.94471628,-92.06037372
First Community Bank,Cabot Prospect,Full Service Brick and Mortar Office,11 Prospect Court,Cabot,AR,72023,34.97661306,-92.02733393
First Community Bank,Caraway,Full Service Brick and Mortar Office,1617 S. Caraway Road,Jonesboro,AR,72401,35.82509043,-90.67780958
First Community Bank,Cave City,Full Service Brick and Mortar Office,102 South Main Street,Cave City,AR,72521,35.941599,-91.548063
First Community Bank,Downtown Jonesboro,Limited Service Loan Production Office,222 E. Washington Avenue,Jonesboro,AR,72401,35.83840653,-90.7032195
First Community Bank,Eagle Mountain,Full Service Brick and Mortar Office,3 Eagle Mountain Blvd.,Batesville,AR,72501,35.76539784,-91.61303888
First Community Bank,First Community Bank,Full Service Brick and Mortar Office,1325 Harrison Street,Batesville,AR,72501,35.76968746,-91.640619
First Community Bank,Highland/Hardy,Full Service Brick and Mortar Office,1 Iroquois Drive,Cherokee Village,AR,72529,36.26064,-91.547433
First Community Bank,Kavanaugh,Full Service Brick and Mortar Office,4900 Kavanaugh Boulevard,Little Rock,AR,72207,34.76829714,-92.32971484
First Community Bank,Little River Bank,Full Service Brick and Mortar Office,202 Greenwood Avenue,Lepanto,AR,72354,35.61241421,-90.33054519
First Community Bank,"Main Street, Batesville",Full Service Brick and Mortar Office,301 E. Main Street,Batesville,AR,72501,35.77123868,-91.65218567
First Community Bank,Mountain Home,Full Service Brick and Mortar Office,310 Hwy 62 E,Mountain Home,AR,72653,36.3411,-92.383119
First Community Bank,Newport,Full Service Brick and Mortar Office,2525 Mclain Street,Newport,AR,72112,35.60801051,-91.25192674
First Community Bank,Saddle Creek,Full Service Brick and Mortar Office,"8201 Ranch Blvd, Suite B4",Little Rock,AR,72223,34.80864157,-92.46502608
First Community Bank,Searcy,Full Service Brick and Mortar Office,800 East Beebe Capps Expressway,Searcy,AR,72143,35.24214113,-91.72904665
First Community Bank,Searcy,Full Service Brick and Mortar Office,2401 West Beebe-Capps Expressway,Searcy,AR,72143,35.24732336,-91.76879161
First Community Bank,Searcy - East,Full Service Brick and Mortar Office,2801 E Race Ave,Searcy,AR,72143,35.250057,-91.703412
First Community Bank,Southside,Full Service Brick and Mortar Office,One Allen Chapel Road,Batesville,AR,72501,35.71701546,-91.61860746
First Community Bank,Southwest Drive,Full Service Brick and Mortar Office,630 Southwest Drive,Jonesboro,AR,72401,35.81464047,-90.71305595
First Community Bank,Washington Avenue,Full Service Brick and Mortar Office,222 East Washington Avenue,Jonesboro,AR,72401,35.83840653,-90.7032195
The Citizens Bank,Airport,Full Service Brick and Mortar Office,805 Batesville Blvd,Batesville,AR,72501,35.73873651,-91.63894769
The Citizens Bank,Arkadelphia,Full Service Brick and Mortar Office,2710 Pine Street,Arkadelphia,AR,71923,34.12261165,-93.0822025
The Citizens Bank,Cave City,Full Service Brick and Mortar Office,201 South Main Street,Cave City,AR,72521,35.940123,-91.5477885
The Citizens Bank,Crossett,Full Service Brick and Mortar Office,123 Main Street,Crossett,AR,71635,33.13439086,-91.96153672
The Citizens Bank,Eagle Mountain,Full Service Brick and Mortar Office,2 Eagle Mountain Blvd,Batesville,AR,72501,35.76411704,-91.61240472
The Citizens Bank,Fayetteville - Wedington,Full Service Brick and Mortar Office,3971 West Wedington Drive,Fayetteville,AR,72704,36.078165,-94.216923
The Citizens Bank,Fayetteville,Full Service Brick and Mortar Office,1676 East Joyce Blvd,Fayetteville,AR,72703,36.12013602,-94.13582403
The Citizens Bank,Hot Springs - Airport,Full Service Brick and Mortar Office,150 Airport Road,Hot Springs National Park,AR,71913,34.49077875,-93.0867076
The Citizens Bank,Hot Springs - Central Avenue,Full Service Brick and Mortar Office,"4429 Central Avenue, Suite C",Hot Springs National Park,AR,71913,34.45154649,-93.07702421
The Citizens Bank,Hot Springs - Higdon Ferry,Full Service Brick and Mortar Office,1698 Higdon Ferry Road,Hot Springs National Park,AR,71913,34.46072912,-93.07646349
The Citizens Bank,Imboden,Full Service Brick and Mortar Office,103 West Third Street,Imboden,AR,72434,36.20213395,-91.1739061
The Citizens Bank,Little Rock - Chenal,Full Service Brick and Mortar Office,"17300 Chenal Parkway, Suite 320",Little Rock,AR,72223,34.763382,-92.4527205
The Citizens Bank,Monticello Division,Full Service Brick and Mortar Office,555 West Gaines Street,Monticello,AR,71655,33.62932651,-91.79827106
The Citizens Bank,Monticello Hwy 425 N,Full Service Brick and Mortar Office,329 Highway 425 North,Monticello,AR,71655,33.63399723,-91.80186379
The Citizens Bank,Motor Bank,Limited Service Facility Office,325 East Boswell Street,Batesville,AR,72501,35.76976423,-91.65071125
The Citizens Bank,Mountain View,Full Service Brick and Mortar Office,411 Sylamore Avenue,Mountain View,AR,72560,35.86859251,-92.10422115
The Citizens Bank,Operations Center Downtown,Limited Service Facility Office,200 South Third Street,Batesville,AR,72501,35.77024186,-91.65153
The Citizens Bank,Pleasant Plains,Full Service Brick and Mortar Office,5736 Blackland Road,Pleasant Plains,AR,72568,35.55764346,-91.62371053
The Citizens Bank,Portland,Full Service Brick and Mortar Office,217 North Main Street,Portland,AR,71663,33.23825343,-91.51157091
The Citizens Bank,Rogers,Full Service Brick and Mortar Office,3350 Pinnacle Hills Parkway,Rogers,AR,72758,36.30441237,-94.18839729
The Citizens Bank,The Citizens Bank,Full Service Brick and Mortar Office,655 Saint Louis Street,Batesville,AR,72501,35.7732085,-91.64084715
Relyance Bank,Airport Road,Full Service Brick and Mortar Office,102 Airport Road,Hot Springs National Park,AR,71913,34.49182522,-93.08585393
Relyance Bank,Bryant,Full Service Brick and Mortar Office,4937 Highway 5 North,Bryant,AR,72022,34.621776,-92.505303
Relyance Bank,Central,Full Service Brick and Mortar Office,4446 Central Avenue,Hot Springs National Park,AR,71913,34.451739,-93.0780135
Relyance Bank,East Harding,Full Service Brick and Mortar Office,1501 East Harding Avenue,Pine Bluff,AR,71601,34.21304622,-91.98677083
Relyance Bank,Financial Centre,Full Service Brick and Mortar Office,11000 Financial Centre Pkwy,Little Rock,AR,72211,34.74733751,-92.39772047
Relyance Bank,Fordyce,Full Service Brick and Mortar Office,610 West 4th Street,Fordyce,AR,71742,33.812721,-92.4192495
Relyance Bank,Hazel Street,Full Service Brick and Mortar Office,2804 Hazel Street,Pine Bluff,AR,71603,34.200648,-92.02466272
Relyance Bank,Heights Office,Full Service Brick and Mortar Office,1801 N. Fillmore Street,Little Rock,AR,72207,34.76872914,-92.33706342
Relyance Bank,Hsv - East Gate,Full Service Brick and Mortar Office,400 Ponce De Leon,Hot Springs Village,AR,71909,34.64110627,-92.88722341
Relyance Bank,Hsv - Village Square,Full Service Brick and Mortar Office,4579 Hwy 7 North,Hot Springs Village,AR,71909,34.65613679,-93.0575293
Relyance Bank,Hwy 10,Full Service Brick and Mortar Office,14220 Cantrell Road,Little Rock,AR,72223,34.80261735,-92.43037584
Relyance Bank,Malvern Avenue,Full Service Brick and Mortar Office,2240 Malvern Avenue,Hot Springs National Park,AR,71901,34.47407577,-93.02363319
Relyance Bank,Olive Street,Full Service Brick and Mortar Office,5503 Olive Street,Pine Bluff,AR,71603,34.17488476,-92.00642706
Relyance Bank,Redfield,Full Service Brick and Mortar Office,804 Sheridan Road,Redfield,AR,72132,34.441501,-92.18947773
Relyance Bank,National Association,Full Service Brick and Mortar Office,912 South Poplar Street,Pine Bluff,AR,71611,34.21983575,-92.01264421
Relyance Bank,Riverfront Office,Full Service Brick and Mortar Office,100 River Bluff Dr. Ste 310,Little Rock,AR,72202,34.31881983,-93.55122807
Relyance Bank,Sheridan,Full Service Brick and Mortar Office,108 South Main Street,Sheridan,AR,72150,34.3061007,-92.40027871
Relyance Bank,Star City,Full Service Brick and Mortar Office,102 South Lincoln St,Star City,AR,71667,33.94246763,-91.84369053
Relyance Bank,Watson Chapel,Full Service Brick and Mortar Office,2511 Camden Road,Pine Bluff,AR,71603,34.20429981,-92.04568157
Relyance Bank,Whitehall,Full Service Brick and Mortar Office,7907 Dollarway Road,Pine Bluff,AR,71601,34.27069194,-92.08903215
Chambers Bank,Bank Of Amity,Full Service Brick and Mortar Office,111 West Thompson Street,Amity,AR,71921,34.26477255,-93.4616885
Chambers Bank,Chambers Bank,Full Service Brick and Mortar Office,901 Main Street,Danville,AR,72833,35.05289522,-93.39326692
Chambers Bank,Chambers - Fort Smith,Full Service Brick and Mortar Office,8400 Rogers Avenue,Fort Smith,AR,72901,35.34732,-94.3396695
Chambers Bank,Danville,Full Service Brick and Mortar Office,310 East 8th Street,Danville,AR,72833,35.05420355,-93.39022909
Chambers Bank,Dardanelle,Full Service Brick and Mortar Office,510 Union Street,Dardanelle,AR,72834,35.22127536,-93.16264077
Chambers Bank,East Joyce Avenue,Full Service Brick and Mortar Office,1685 East Joyce Boulevard,Fayetteville,AR,72703,36.12008644,-94.13601504
Chambers Bank,Elkins,Full Service Brick and Mortar Office,348 N Center,Elkins,AR,72727,36.00397266,-94.0086753
Chambers Bank,Havana,Full Service Brick and Mortar Office,106 North Main Street,Havana,AR,72842,35.11057136,-93.52999254
Chambers Bank,Hot Springs Village,Full Service Brick and Mortar Office,4508 North Highway 7,Hot Springs Village,AR,71909,34.65488014,-93.05625541
Chambers Bank,Hot Springs Village,Full Service Brick and Mortar Office,101 Ponderosa Way,Hot Springs Village,AR,71909,34.65247499,-92.98454293
Chambers Bank,Johnson,Full Service Brick and Mortar Office,4100 Corporate Center Drive,Springdale,AR,72762,36.13963477,-94.18134103
Chambers Bank,Mansfield,Full Service Brick and Mortar Office,401 Huntington Avenue,Mansfield,AR,72944,35.06234378,-94.2500656
Chambers Bank,Mena,Full Service Brick and Mortar Office,300 Highway 71,Mena,AR,71953,34.58401504,-94.23359556
Chambers Bank,New Hope Road,Full Service Brick and Mortar Office,"4201 West New Hope Road, Suite 101",Rogers,AR,72758,36.31393094,-94.17830392
Chambers Bank,North Highway 16,Limited Service Facility Office,2019 North Center Street,Elkins,AR,72727,36.02870427,-94.02416618
Chambers Bank,Oak Streetbranch,Limited Service Loan Production Office,1950 E Oak Street,Conway,AR,72034,35.091558,-92.400777
Chambers Bank,Towson Avenue,Full Service Brick and Mortar Office,4418 Towson Avenue,Fort Smith,AR,72901,35.341254,-94.4237385
Chambers Bank,Van Buren Loan Production Office,Limited Service Loan Production Office,111 North Plaza Court,Van Buren,AR,72956,35.46021606,-94.35836952
Chambers Bank,Waldron,Full Service Brick and Mortar Office,418 South Main Street,Waldron,AR,72958,34.89668734,-94.0910725
Chambers Bank,West Grove Avenue,Full Service Brick and Mortar Office,100 West Grove Avenue,Springdale,AR,72764,36.18332748,-94.13198075
Farmers Bank & Trust Company,Arkansas Blvd,Limited Service Facility Office,1102 Arkansas Blvd,Texarkana,AR,71854,33.46078604,-94.03027312
Farmers Bank & Trust Company,Arkla,Limited Service Facility Office,15064 Highway 132,Taylor,AR,71861,36.63366859,-85.20120723
Farmers Bank & Trust Company,Blevins,Limited Service Facility Office,5461 Highway 371,Blevins,AR,71825,33.871383,-93.575997
Farmers Bank & Trust Company,Bryant Loan Production Office,Limited Service Loan Production Office,"3316 Highway 5 North, Suite 2",Benton,AR,72019,34.61443434,-92.51902957
Farmers Bank & Trust Company,Cardinal,Limited Service Facility Office,1125 Fairview Road,Camden,AR,71701,33.535971,-92.851047
Farmers Bank & Trust Company,Drive-In,Limited Service Facility Office,205 East Main,Magnolia,AR,71753,33.26705654,-93.2392397
Farmers Bank & Trust Company,East Camden,Limited Service Facility Office,536 Highway 274,Camden,AR,71701,33.612552,-92.7390825
Farmers Bank & Trust Company,Farmers Bank & Trust Company,Full Service Brick and Mortar Office,200 East Main Street,Magnolia,AR,71753,33.267294,-93.239073
Farmers Bank & Trust Company,Farmers Motor,Limited Service Facility Office,1128 East Main,Magnolia,AR,71753,33.2668201,-93.22552229
Farmers Bank & Trust Company,Haskell,Full Service Brick and Mortar Office,112 N. Hwy 229,Benton,AR,72015,34.529805,-92.6470215
Farmers Bank & Trust Company,Hope - Main,Full Service Brick and Mortar Office,201 East Third Street,Hope,AR,71801,33.667065,-93.5900505
Farmers Bank & Trust Company,Jefferson/Camden,Full Service Brick and Mortar Office,"116 Jefferson Street, S.W.",Camden,AR,71701,33.5851128,-92.82990913
Farmers Bank & Trust Company,Lewisville,Limited Service Facility Office,419 East 1st Street,Lewisville,AR,71845,33.35513741,-93.57415759
Farmers Bank & Trust Company,Malvern,Full Service Brick and Mortar Office,521 East Page,Malvern,AR,72104,34.3633705,-92.805516
Farmers Bank & Trust Company,North,Limited Service Facility Office,617 North Hervey,Hope,AR,71801,33.67359791,-93.59878835
Farmers Bank & Trust Company,Rockport,Full Service Brick and Mortar Office,1929 Oliver Lancaster Blvd.,Malvern,AR,72104,34.38704935,-92.82844363
Farmers Bank & Trust Company,South,Limited Service Facility Office,2103 South Main Street,Hope,AR,71801,33.64757223,-93.58707731
Farmers Bank & Trust Company,"Texarkana, Arkansas",Full Service Brick and Mortar Office,3601 East 9th Street,Texarkana,AR,71854,33.43059682,-94.00092667
Farmers Bank & Trust Company,University,Limited Service Facility Office,2106 North Jackson,Magnolia,AR,71753,33.28622319,-93.23516991
Farmers Bank & Trust Company,West Washington,Limited Service Facility Office,"1140 Washington Street, N.W.",Camden,AR,71701,33.58496785,-92.84985574
First National Bank,Baptist Medical Towers,Full Service Brick and Mortar Office,9601 Lile Drive,Little Rock,AR,72205,34.74654059,-92.38520217
First National Bank,Bentonville,Full Service Brick and Mortar Office,300 Se Walton Boulevard,Bentonville,AR,72712,36.33541671,-94.20601662
First National Bank,Capitol,Full Service Brick and Mortar Office,300 West Capitol Avenue,Little Rock,AR,72201,34.74486,-92.2737825
First National Bank,Chenal Parkway,Full Service Brick and Mortar Office,15721 Chenal Boulevard,Little Rock,AR,72211,34.756785,-92.445237
First National Bank,Corning Banking Center,Full Service Brick and Mortar Office,612 Missouri Avenue,Corning,AR,72422,36.41764472,-90.58622736
First National Bank,Elk Park,Full Service Brick and Mortar Office,912 Southwest Drive,Jonesboro,AR,72401,35.81045091,-90.71835897
First National Bank,Fayetteville,Full Service Brick and Mortar Office,2691 East Mission Blvd,Fayetteville,AR,72703,36.086796,-94.1231025
First National Bank,First National Bank,Full Service Brick and Mortar Office,200 West Court Street,Paragould,AR,72450,36.05618848,-90.4878
First National Bank,Heber Springs,Full Service Brick and Mortar Office,1324 Highway 25b North,Heber Springs,AR,72543,35.50541331,-92.02946524
First National Bank,Highland Drive,Full Service Brick and Mortar Office,2701 East Highland Drive,Jonesboro,AR,72401,35.820702,-90.672957
First National Bank,Johnson,Full Service Brick and Mortar Office,4000 Johnson Mill Blvd,Johnson,AR,72741,36.13727474,-94.17946883
First National Bank,Jonesboro/Hilltop,Full Service Brick and Mortar Office,3500 East Johnson Avenue,Jonesboro,AR,72401,35.85764039,-90.65601984
First National Bank,Kavanaugh Boulevard,Full Service Brick and Mortar Office,5601 Kavanaugh Boulevard,Little Rock,AR,72207,34.77015599,-92.33611578
First National Bank,Lakewood,Full Service Brick and Mortar Office,2424 Crestwood Avenue,Little Rock,AR,72216,34.80029421,-92.23803726
First National Bank,Piggott,Full Service Brick and Mortar Office,635 East Main Street,Piggott,AR,72454,36.38184054,-90.18386078
First National Bank,Reynold's Road,Full Service Brick and Mortar Office,2701 West Kings Highway,Paragould,AR,72450,36.05999352,-90.52169858
First National Bank,Rodney Parham,Full Service Brick and Mortar Office,11101 Rodney Parham Road,Little Rock,AR,72212,34.771086,-92.3967495
First National Bank,Rogers,Full Service Brick and Mortar Office,3701 Pinnacle Hills Parkway,Rogers,AR,72758,36.302859,-94.1886315
First National Bank,Springdale,Full Service Brick and Mortar Office,1950 South Pleasant Street,Springdale,AR,72764,36.16781378,-94.14365402
First National Bank,West,Limited Service Facility Office,201 Linwood Dr,Paragould,AR,72450,36.05535908,-90.50507691
Bank of America,Bentonville,Full Service Brick and Mortar Office,808 South Walton Boulevard,Bentonville,AR,72712,36.36412574,-94.21970324
Bank of America,Bowman,Full Service Brick and Mortar Office,300 South Bowman Road,Little Rock,AR,72211,34.75167588,-92.40708078
Bank of America,Downtown North Little Rock,Full Service Brick and Mortar Office,200 Main Street,North Little Rock,AR,72114,34.755732,-92.267208
Bank of America,Forest Heights,Full Service Brick and Mortar Office,6001 Kavanaugh,Little Rock,AR,72207,34.770042,-92.340954
Bank of America,Geyer Springs,Full Service Brick and Mortar Office,8200 Geyer Springs Road,Little Rock,AR,72209,34.675308,-92.344446
Bank of America,Gregory,Full Service Brick and Mortar Office,101 Gregory Street,Jacksonville,AR,72076,34.8807766,-92.10977108
Bank of America,Harkrider North,Full Service Brick and Mortar Office,2150 Harkrider Street,Conway,AR,72032,35.1079489,-92.44067079
Bank of America,Highland,Full Service Brick and Mortar Office,2500 East Highland Drive,Jonesboro,AR,72401,35.821683,-90.6753825
Bank of America,Highway 10,Full Service Brick and Mortar Office,14519 Cantrell Road,Little Rock,AR,72223,34.80192057,-92.43457082
Bank of America,Joyce Street,Full Service Brick and Mortar Office,1061 Joyce Street,Fayetteville,AR,72703,36.12343837,-94.14343547
Bank of America,Little Rock Pwm,Limited Service Facility Office,200 West Capitol Avenue,Little Rock,AR,72201,34.744968,-92.273085
Bank of America,Mccain,Full Service Brick and Mortar Office,2421 Mccain Boulevard,North Little Rock,AR,72116,34.798032,-92.2386555
Bank of America,Oak Park,Full Service Brick and Mortar Office,2219 W 28th St,Pine Bluff,AR,71603,34.20190069,-92.02492213
Bank of America,Rodney Parham,Full Service Brick and Mortar Office,11315 Rodney Parham Road,Little Rock,AR,72212,34.77197306,-92.39964578
Bank of America,Rogers,Full Service Brick and Mortar Office,1151 West Walnut,Rogers,AR,72756,36.334107,-94.1323185
Bank of America,Sunset West,Full Service Brick and Mortar Office,3144 W Sunset Ave,Springdale,AR,72762,36.17503952,-94.16509103
Bank of America,Town & Country,Full Service Brick and Mortar Office,3500 South University Ave Ste 1,Little Rock,AR,72204,34.720398,-92.342484
Bank of America,Uams Med School,Full Service Brick and Mortar Office,4024 West Markham Street,Little Rock,AR,72205,34.7517,-92.3183055
Bank of America,University Of Arkansas,Full Service Brick and Mortar Office,703 West Dickson St,Fayetteville,AR,72701,36.06633,-94.168359
The First National Bank of Fort Smith,Brooken Hill,Full Service Brick and Mortar Office,9300 Highway 71 South,Fort Smith,AR,72903,35.295354,-94.387698
The First National Bank of Fort Smith,Centerton,Full Service Brick and Mortar Office,350 East Centerton Boulevard,Centerton,AR,72719,36.35841923,-94.28116771
The First National Bank of Fort Smith,Central Mall,Full Service Brick and Mortar Office,5201 Rogers Ave,Fort Smith,AR,72903,35.363745,-94.373874
The First National Bank of Fort Smith,Chaffee Crossing,Full Service Brick and Mortar Office,8225 South Zero,Fort Smith,AR,72903,35.32402895,-94.34219517
The First National Bank of Fort Smith,Charleston,Full Service Brick and Mortar Office,225 E Main St,Charleston,AR,72933,35.296821,-94.0405635
The First National Bank of Fort Smith,Cornerstone,Full Service Brick and Mortar Office,3515 Greenwood Road,Fort Smith,AR,72903,35.31797491,-94.38733243
The First National Bank of Fort Smith,Dixieland,Full Service Brick and Mortar Office,801 North Dixieland,Rogers,AR,72756,36.34189993,-94.14337551
The First National Bank of Fort Smith,Fayetteville,Full Service Brick and Mortar Office,"2638 East Joyce Blvd., Suite 100",Fayetteville,AR,72703,36.120636,-94.1233455
The First National Bank of Fort Smith,"First National Bank Of Nwa, Bentonville",Full Service Brick and Mortar Office,401 Sw A Street,Bentonville,AR,72712,36.36804412,-94.210256
The First National Bank of Fort Smith,Grand Avenue,Full Service Brick and Mortar Office,2727 Grand Avenue,Fort Smith,AR,72901,35.38602853,-94.40217
The First National Bank of Fort Smith,Greenwood,Full Service Brick and Mortar Office,311 East Center Street,Greenwood,AR,72936,35.21240684,-94.25383186
The First National Bank of Fort Smith,Lavaca,Full Service Brick and Mortar Office,400 W Main Street,Lavaca,AR,72941,35.336511,-94.175676
The First National Bank of Fort Smith,Lowell,Full Service Brick and Mortar Office,1626 Empire St,Lowell,AR,72745,36.28224,-94.13241796
The First National Bank of Fort Smith,Midland Boulevard,Full Service Brick and Mortar Office,2000 Midland Boulevard,Fort Smith,AR,72901,35.399727,-94.4046585
The First National Bank of Fort Smith,Phoenix,Full Service Brick and Mortar Office,800 Phoenix Avenue,Fort Smith,AR,72901,35.338806,-94.4266455
The First National Bank of Fort Smith,Pinnacle,Full Service Brick and Mortar Office,3706 Pinnacle Parkway Hill,Rogers,AR,72758,36.30285013,-94.18946085
The First National Bank of Fort Smith,Stonewood,Full Service Brick and Mortar Office,7410 Rogers Avenue,Fort Smith,AR,72903,35.352279,-94.3507035
The First National Bank of Fort Smith,The First National Bank Of Fort Smit,Full Service Brick and Mortar Office,602 Garrison Avenue,Fort Smith,AR,72901,35.386965,-94.425255
Iberiabank,28th Street,Full Service Brick and Mortar Office,100 South 28th,Rogers,AR,72756,36.33335215,-94.161606
Iberiabank,Bentonville,Full Service Brick and Mortar Office,706 South Walton Blvd,Bentonville,AR,72712,36.365013,-94.2212205
Iberiabank,Bryant,Full Service Brick and Mortar Office,5111 Highway 5 North,Bryant,AR,72022,34.622496,-92.5041735
Iberiabank,Center Street,Full Service Brick and Mortar Office,"111 Center Street, Suite 102",Little Rock,AR,72201,34.747938,-92.272437
Iberiabank,Downtown Jonesboro,Full Service Brick and Mortar Office,420 South Main Street,Jonesboro,AR,72401,35.838576,-90.7046865
Iberiabank,East Robinson,Full Service Brick and Mortar Office,2422 East Robinson,Springdale,AR,72764,36.16668447,-94.10429739
Iberiabank,Jfk,Full Service Brick and Mortar Office,4600 Jfk Boulevard,North Little Rock,AR,72116,34.79623112,-92.25636509
Iberiabank,Jonesboro Main,Full Service Brick and Mortar Office,1700 East Highland Drive,Jonesboro,AR,72401,35.82126508,-90.68836447
Iberiabank,Newport,Full Service Brick and Mortar Office,200 Olivia Drive,Newport,AR,72112,35.60612037,-91.25139185
Iberiabank,Pocahontas,Full Service Brick and Mortar Office,205 Rice Street,Pocahontas,AR,72455,36.25960218,-90.97054133
Iberiabank,Pulaski Heights,Full Service Brick and Mortar Office,5800 R Street,Little Rock,AR,72207,34.76932553,-92.33883805
Iberiabank,Rodney Parham,Full Service Brick and Mortar Office,10901 North Rodney Parham Road,Little Rock,AR,72212,34.769196,-92.3943645
Iberiabank,Sam Peck,Full Service Brick and Mortar Office,12719 Cantrell Road,Little Rock,AR,72223,34.797258,-92.4142455
Iberiabank,Southwest,Full Service Brick and Mortar Office,"2702 South Culberhouse Street, Suite U",Jonesboro,AR,72401,35.813493,-90.712935
Iberiabank,Walnut Ridge,Full Service Brick and Mortar Office,121 Southwest Third Street,Walnut Ridge,AR,72476,36.06934021,-90.9582844
Iberiabank,Weddington Drive,Full Service Brick and Mortar Office,3430 Weddington Drive,Fayetteville,AR,72704,36.078993,-94.208679
Diamond Bank,Arkansas Diamond,Full Service Brick and Mortar Office,1200 Airport Road,Hot Springs National Park,AR,71913,34.475607,-93.120678
Diamond Bank,Ashdown,Full Service Brick and Mortar Office,1710 South Constitution Avenue,Ashdown,AR,71822,33.65417707,-94.11181081
Diamond Bank,Dequeen,Full Service Brick and Mortar Office,404 E. Collin Raye Drive,De Queen,AR,71832,34.0454585,-94.33477856
Diamond Bank,Diamond Bank,Full Service Brick and Mortar Office,319 East Main Street,Murfreesboro,AR,71958,34.06221718,-93.68781393
Diamond Bank,Dierks,Full Service Brick and Mortar Office,Highway 4,Dierks,AR,71833,34.16515966,-94.00953991
Diamond Bank,Hector,Full Service Brick and Mortar Office,23 Elm Street,Hector,AR,72843,35.4653083,-92.97534071
Diamond Bank,Highways 70 And 70 B,Full Service Brick and Mortar Office,205 Highway 70 East,Glenwood,AR,71943,34.32726,-93.5378415
Diamond Bank,Hope,Full Service Brick and Mortar Office,400 South Main,Hope,AR,71801,33.66578616,-93.59121018
Diamond Bank,Lakeside Diamond Bank,Full Service Brick and Mortar Office,2350 Malvern Avenue Suite B,Hot Springs National Park,AR,71901,34.47250122,-93.02146738
Diamond Bank,Mena,Full Service Brick and Mortar Office,203 Highway 71 North,Mena,AR,71953,34.5858201,-94.22998398
Diamond Bank,Mineral Springs,Full Service Brick and Mortar Office,100 W Runnels Street,Mineral Springs,AR,71851,33.87541326,-93.91751573
Diamond Bank,Mount Ida,Full Service Brick and Mortar Office,Highway 270 East And Cedar Street,Mount Ida,AR,71957,34.552368,-93.6283725
Diamond Bank,Nashville,Full Service Brick and Mortar Office,301 North Main,Nashville,AR,71852,33.94554812,-93.84714593
Diamond Bank,Nashville,Full Service Brick and Mortar Office,1410 South 4th Street,Nashville,AR,71852,33.92993944,-93.85118796
Diamond Bank,Russellville,Full Service Brick and Mortar Office,2209 East Pkwy Drive,Russellville,AR,72802,35.28261863,-93.10802276
The Malvern National Bank,Airport Road,Full Service Brick and Mortar Office,1010 Airport Road,Hot Springs National Park,AR,71913,34.479126,-93.111282
The Malvern National Bank,Benton,Full Service Brick and Mortar Office,1111 Military Road,Benton,AR,72015,34.57378719,-92.58033945
The Malvern National Bank,Bryant,Full Service Brick and Mortar Office,4430 Highway 5 North,Bryant,AR,72022,34.618833,-92.5082685
The Malvern National Bank,Central Operations,Limited Service Administrative Office,403 South Main Street,Malvern,AR,72104,34.36236,-92.8120725
The Malvern National Bank,Corporate Center,Limited Service Administrative Office,425 South Main,Malvern,AR,72104,34.36163179,-92.81166637
The Malvern National Bank,East End,Full Service Brick and Mortar Office,20523 Arch Street Pike,Little Rock,AR,72206,34.562475,-92.3370345
The Malvern National Bank,Grand Avenue,Full Service Brick and Mortar Office,548 W Grand Ave,Hot Springs National Park,AR,71901,34.50262357,-93.06075812
The Malvern National Bank,Heights,Full Service Brick and Mortar Office,1818 North Taylor Street,Little Rock,AR,72207,34.76889,-92.336337
The Malvern National Bank,Main Street,Limited Service Facility Office,127 Pine Bluff Street,Malvern,AR,72104,34.36174766,-92.8104529
The Malvern National Bank,Markham,Full Service Brick and Mortar Office,1025 Markham Street,Conway,AR,72032,35.092674,-92.440404
The Malvern National Bank,Otter Creek,Full Service Brick and Mortar Office,10700 Bass Pro Pkwy,Little Rock,AR,72210,34.66044867,-92.40506878
The Malvern National Bank,Riverview,Full Service Brick and Mortar Office,1884 Martin Luther King Blvd.,Malvern,AR,72104,34.39157325,-92.82900843
The Malvern National Bank,Section Line Road,Full Service Brick and Mortar Office,"321 Section Line Road, Suite A",Hot Springs National Park,AR,71913,34.464861,-93.0701385
The Malvern National Bank,Sheridan,Full Service Brick and Mortar Office,207 North Oak Street,Sheridan,AR,72150,34.30855834,-92.40147331
The Malvern National Bank,The Malvern National Bank,Full Service Brick and Mortar Office,501 S. Main Street,Malvern,AR,72104,34.361406,-92.8111005
FNBC Bank,Batesville,Full Service Brick and Mortar Office,1388 Harrison Street,Batesville,AR,72501,35.76962354,-91.63974103
FNBC Bank,Cherokee Village,Full Service Brick and Mortar Office,10 Santee Drive,Hardy,AR,72542,36.30985895,-91.52816161
FNBC Bank,Fnbc Bank,Full Service Brick and Mortar Office,636 Ash Flat Drive,Ash Flat,AR,72513,36.22611507,-91.60781291
FNBC Bank,Fnbc Bank Jonesboro,Full Service Brick and Mortar Office,1118 Windover,Jonesboro,AR,72401,35.81411348,-90.68767881
FNBC Bank,Hardy,Full Service Brick and Mortar Office,201 W Main Street,Hardy,AR,72542,36.3155144,-91.48476041
FNBC Bank,Highland,Full Service Brick and Mortar Office,1476 Highway 62/412,Hardy,AR,72542,36.26002639,-91.54822045
FNBC Bank,Horseshoe Bend,Full Service Brick and Mortar Office,405 Market Street,Horseshoe Bend,AR,72512,36.2185805,-91.7548515
FNBC Bank,Mammoth Spring,Full Service Brick and Mortar Office,358 Highway 63 South,Mammoth Spring,AR,72554,36.49148281,-91.53271786
FNBC Bank,Melbourne,Full Service Brick and Mortar Office,1069 East Main,Melbourne,AR,72556,36.05898745,-91.8845332
FNBC Bank,Messenger Service,Limited Service Messenger Office,636 Ash Flat Drive,Ash Flat,AR,72513,36.22611507,-91.60781291
FNBC Bank,Mobile #1,Limited Service Mobile Office,636 Ash Flat Drive,Ash Flat,AR,72513,36.22611507,-91.60781291
FNBC Bank,Mountain Home,Full Service Brick and Mortar Office,102 South Main Street,Mountain Home,AR,72653,36.33979061,-92.3853093
FNBC Bank,Salem,Full Service Brick and Mortar Office,233 N Main Street,Salem,AR,72576,36.37382428,-91.82256951
FNBC Bank,Www.Fnbc.us,Full Service Cyber Office,636 Ash Flat Drive,Ash Flat,AR,72513,36.22611507,-91.60781291
First National Bank of Eastern Arkansas,Colt,Full Service Brick and Mortar Office,8896 Highway 1 North,Colt,AR,72326,35.12255088,-90.8114834
First National Bank of Eastern Arkansas,Earle,Full Service Brick and Mortar Office,1146 Barton Street,Earle,AR,72331,35.2745372,-90.46895513
First National Bank of Eastern Arkansas,First National Bank Of Eastern Arkan,Full Service Brick and Mortar Office,101 North Washington Street,Forrest City,AR,72335,35.0092849,-90.78535817
First National Bank of Eastern Arkansas,Holly Grove,Full Service Brick and Mortar Office,400 Elm St,Holly Grove,AR,72069,42.79555322,-83.62357445
First National Bank of Eastern Arkansas,Hughes,Full Service Brick and Mortar Office,103 First Street North,Hughes,AR,72348,34.95011395,-90.47947198
First National Bank of Eastern Arkansas,Izard Street,Full Service Brick and Mortar Office,123 North Izard Street,Forrest City,AR,72335,35.01011978,-90.78447057
First National Bank of Eastern Arkansas,Marianna,Full Service Brick and Mortar Office,48 South Poplar Street,Marianna,AR,72360,34.77213975,-90.75760494
First National Bank of Eastern Arkansas,Marion,Full Service Brick and Mortar Office,1381 Highway 64,Marion,AR,72364,35.20802928,-90.22012136
First National Bank of Eastern Arkansas,North Washington,Full Service Brick and Mortar Office,2217 North Washington Street,Forrest City,AR,72335,35.03024864,-90.78974505
First National Bank of Eastern Arkansas,Osceola Of First National Ban,Full Service Brick and Mortar Office,1460 West Keiser Avenue,Osceola,AR,72370,35.69800314,-89.99310704
First National Bank of Eastern Arkansas,Palestine,Full Service Brick and Mortar Office,101 North Main Street,Palestine,AR,72372,34.96854112,-90.90062946
First National Bank of Eastern Arkansas,Wheatley,Full Service Brick and Mortar Office,108 Little Rock Street,Wheatley,AR,72392,34.9142215,-91.10841751
First National Bank of Eastern Arkansas,Wynne,Full Service Brick and Mortar Office,363 East Union,Wynne,AR,72396,35.2235395,-90.7895115
Eagle Bank and Trust Company,Drasco,Full Service Brick and Mortar Office,6699 Herber Springs Road,Drasco,AR,72530,35.63317806,-91.94711221
Eagle Bank and Trust Company,Eagle Bank And Trust Company,Full Service Brick and Mortar Office,650 South Shackleford Road Suite 150,Little Rock,AR,72211,34.74747747,-92.39406938
Eagle Bank and Trust Company,East Kiehl,Full Service Brick and Mortar Office,2300 Kiehl Avenue,North Little Rock,AR,72116,34.83253106,-92.20800951
Eagle Bank and Trust Company,Fairfield Bay,Full Service Brick and Mortar Office,370 Dave Creek Parkway,Fairfield Bay,AR,72088,35.6106822,-92.26295847
Eagle Bank and Trust Company,Gravel Ridge,Full Service Brick and Mortar Office,14600 Arkansas 107,Jacksonville,AR,72076,34.86942128,-92.19724671
Eagle Bank and Trust Company,Heber Springs,Full Service Brick and Mortar Office,1510 Highway 25b North,Heber Springs,AR,72543,35.50734928,-92.02939168
Eagle Bank and Trust Company,Maumelle,Full Service Brick and Mortar Office,9801 Maumelle Blvd,Maumelle,AR,72113,34.8223004,-92.37048601
Eagle Bank and Trust Company,North Hills,Full Service Brick and Mortar Office,"7311 North Hills Boulevard, #4",North Little Rock,AR,72116,34.818561,-92.23452
Eagle Bank and Trust Company,Quitman,Full Service Brick and Mortar Office,6224 Heber Springs Road,Quitman,AR,72131,35.38321442,-92.21904296
Eagle Bank and Trust Company,Rose Bud,Full Service Brick and Mortar Office,6022 Highway 36 West,Rose Bud,AR,72137,35.331984,-92.0809845
Eagle Bank and Trust Company,Second And Main,Full Service Brick and Mortar Office,Second And Main Streets,Heber Springs,AR,72543,35.491491,-92.030202
Eagle Bank and Trust Company,Vilonia,Full Service Brick and Mortar Office,1152 Main Street,Vilonia,AR,72173,35.0852226,-92.19911005
Eagle Bank and Trust Company,West Side,Full Service Brick and Mortar Office,8454 Edgemont Road,Higden,AR,72067,35.56964863,-92.17674474
First State Bank,Carlisle,Full Service Brick and Mortar Office,213 North Court,Carlisle,AR,72024,34.78437383,-91.74660781
First State Bank,First State Bank,Full Service Brick and Mortar Office,3103 East Main Street,Russellville,AR,72802,35.27772968,-93.09322517
First State Bank,First State Bank,Full Service Brick and Mortar Office,101 South Center Street,Lonoke,AR,72086,34.78368035,-91.90005785
First State Bank,First State Bank,Full Service Brick and Mortar Office,200 Pine Street,Crossett,AR,71635,33.1335628,-91.96016282
First State Bank,Gurdon,Full Service Brick and Mortar Office,100 East Main Street,Gurdon,AR,71743,33.91965506,-93.15249831
First State Bank,Heber Springs,Full Service Brick and Mortar Office,1450 Southridge Boulevard,Heber Springs,AR,72543,35.49257837,-91.99896913
First State Bank,Joyce Boulevard,Full Service Brick and Mortar Office,2125 East Joyce Boulevard,Fayetteville,AR,72703,36.11952,-94.13109
First State Bank,Lonoke,Limited Service Facility Office,110 West Front Street,Lonoke,AR,72086,34.78397478,-91.90022766
First State Bank,North Crossett Tellers Window,Limited Service Facility Office,Us Highway 82,Crossett,AR,71635,33.14099449,-91.99742177
First State Bank,Ola,Full Service Brick and Mortar Office,Fourche Avenue At Boles Street,Ola,AR,72853,35.03342,-93.22334
First State Bank,Russellville,Full Service Brick and Mortar Office,501 West Main Street,Russellville,AR,72801,35.27909741,-93.13753516
First State Bank,West Main,Full Service Brick and Mortar Office,3005 West Main,Russellville,AR,72801,35.28721245,-93.16423558
Merchants & Planters' Bank,Batesville Main Office,Limited Service Facility Office,555 East Main,Batesville,AR,72501,35.77260095,-91.64972331
Merchants & Planters' Bank,Batesville-Harrison,Full Service Brick and Mortar Office,3081 Harrison St,Batesville,AR,72501,35.76455941,-91.61567013
Merchants & Planters' Bank,Des Arc Office,Full Service Brick and Mortar Office,416 Main St.,Des Arc,AR,72040,34.97696348,-91.4971185
Merchants & Planters' Bank,Mccrory,Full Service Brick and Mortar Office,218 North Edmonds,Mc Crory,AR,72101,35.258202,-91.19991519
Merchants & Planters' Bank,Merchants & Planters Bank,Limited Service Loan Production Office,904 East Race Street,Searcy,AR,72143,35.25079476,-91.72731989
Merchants & Planters' Bank,Merchants & Planters' Bank,Full Service Brick and Mortar Office,Second And Hazel Streets,Newport,AR,72112,35.606052,-91.2817395
Merchants & Planters' Bank,Newark Merchants And Planters Bank,Full Service Brick and Mortar Office,595 Vine Street,Newark,AR,72562,35.70295409,-91.44797139
Merchants & Planters' Bank,North,Full Service Brick and Mortar Office,915 Highway 67 North,Newport,AR,72112,35.73829062,-91.19443667
Merchants & Planters' Bank,Searcy,Full Service Brick and Mortar Office,1621 West Beebe Capps Expressway,Searcy,AR,72143,35.2453934,-91.75483185
Merchants & Planters' Bank,Southside,Full Service Brick and Mortar Office,851 Batesville Boulevard,Batesville,AR,72501,35.7374192,-91.63900749
Merchants & Planters' Bank,Swifton,Full Service Brick and Mortar Office,100 Second Street,Swifton,AR,72471,35.82434871,-91.13079415
Merchants & Planters' Bank,Tuckerman Office,Full Service Brick and Mortar Office,P.O. Box 963,Tuckerman,AR,72473,35.73151,-91.19896
Anstaff Bank,Anstaff Bank,Full Service Brick and Mortar Office,100 First National Avenue,Green Forest,AR,72638,36.335259,-93.434382
Anstaff Bank,Auto Bank,Limited Service Facility Office,303 West Main,Green Forest,AR,72638,36.33549672,-93.43889972
Anstaff Bank,Berryville,Full Service Brick and Mortar Office,812 West Trimble,Berryville,AR,72616,36.37395,-93.5820135
Anstaff Bank,Berryville South,Full Service Brick and Mortar Office,210 South Main Street,Berryville,AR,72616,36.36261,-93.566628
Anstaff Bank,East Main Street,Full Service Brick and Mortar Office,210 East Main Street,Huntsville,AR,72740,36.08732057,-93.73364799
Anstaff Bank,Flippin,Full Service Brick and Mortar Office,301 South First,Flippin,AR,72634,36.27549712,-92.60089559
Anstaff Bank,Harrison,Full Service Brick and Mortar Office,1106 Highway 65 North,Harrison,AR,72601,36.25851749,-93.12610355
Anstaff Bank,Harrison - South,Full Service Brick and Mortar Office,702 Highway 62-65 South,Harrison,AR,72601,36.21782842,-93.07927826
Anstaff Bank,Jasper,Full Service Brick and Mortar Office,400 East Court Street,Jasper,AR,72641,36.01105118,-93.18374353
Anstaff Bank,Kingston,Full Service Brick and Mortar Office,101 Public Square,Kingston,AR,72742,36.364869,-93.568005
Anstaff Bank,Mountain Home,Full Service Brick and Mortar Office,150 West End Way,Mountain Home,AR,72653,36.319788,-92.3960475
Anstaff Bank,Norfork,Full Service Brick and Mortar Office,23 Wolf Street,Norfork,AR,72658,36.21017116,-92.28619719
Today's Bank,Alma,Full Service Brick and Mortar Office,115 Highway 71 North,Alma,AR,72921,35.48511,-94.2267735
Today's Bank,Fayetteville,Full Service Brick and Mortar Office,300 North College Avenue,Fayetteville,AR,72701,36.066555,-94.157451
Today's Bank,Fiesta Square,Full Service Brick and Mortar Office,2971 North College Avenue,Fayetteville,AR,72703,36.10562409,-94.14676472
Today's Bank,Mansfield,Full Service Brick and Mortar Office,101 South Seba Scott Avenue,Mansfield,AR,72944,35.059419,-94.25115
Today's Bank,Motor,Limited Service Facility Office,5th And Main Streets,Mulberry,AR,72947,35.500725,-94.0518585
Today's Bank,Mulberry,Full Service Brick and Mortar Office,311 Main Street,Mulberry,AR,72947,35.49836963,-94.05197141
Today's Bank,Ozark,Full Service Brick and Mortar Office,111 North 2nd Street,Ozark,AR,72949,35.48745,-93.8263815
Today's Bank,Ozark Center Point Place,Full Service Brick and Mortar Office,5178 West Sunset Avenue,Springdale,AR,72762,36.1755138,-94.18908155
Today's Bank,Today's Bank,Full Service Brick and Mortar Office,432 Madison 1650,Huntsville,AR,72740,36.11279853,-93.71200675
Today's Bank,Van Buren,Full Service Brick and Mortar Office,615 E. Pointer Trail,Van Buren,AR,72956,35.45891771,-94.35414851
Today's Bank,West Main Street,Full Service Brick and Mortar Office,312 West Main Street,Huntsville,AR,72740,36.08745169,-93.73769039
First National Bank of North Arkansas,Carroll Center,Limited Service Trust Office,910 West Trimble Suite 1,Berryville,AR,72616,36.37655485,-93.58337052
First National Bank of North Arkansas,Eureka Springs Office,Full Service Brick and Mortar Office,149 Huntsville Rd,Eureka Springs,AR,72632,36.38441484,-93.73631699
First National Bank of North Arkansas,First National Bank Of Arkansas,Full Service Brick and Mortar Office,1311 Highway 62 N,Harrison,AR,72601,36.21051213,-93.07025526
First National Bank of North Arkansas,First National Bank Of North Arkansa,Full Service Brick and Mortar Office,305-307 Public Square,Berryville,AR,72616,36.36420971,-93.56731918
First National Bank of North Arkansas,Green Forest,Full Service Brick and Mortar Office,604 West Main,Green Forest,AR,72638,36.33572786,-93.44429505
First National Bank of North Arkansas,Harrison,Full Service Brick and Mortar Office,204 East Rush,Harrison,AR,72601,36.23090798,-93.10635095
First National Bank of North Arkansas,Holiday Island,Full Service Brick and Mortar Office,5 Forrest Park Avenue,Eureka Springs,AR,72631,36.45486392,-93.72102194
First National Bank of North Arkansas,Huntsville,Full Service Brick and Mortar Office,403 West Main Street,Huntsville,AR,72740,36.0873643,-93.73815335
First National Bank of North Arkansas,Marshall,Full Service Brick and Mortar Office,620 Highway 65 North,Marshall,AR,72650,35.90999677,-92.64879688
First National Bank of North Arkansas,West 62,Full Service Brick and Mortar Office,1004 West Trimble,Berryville,AR,72616,36.378864,-93.588075
First National Bank of North Arkansas,Yellville,Full Service Brick and Mortar Office,317 Hwy 62 West,Yellville,AR,72687,36.22609349,-92.68679236
Farmers Bank,Barling,Full Service Brick and Mortar Office,227 Fort Street,Barling,AR,72923,35.32395083,-94.29865613
Farmers Bank,Bonanza,Full Service Brick and Mortar Office,103 North State Highway 45,Fort Smith,AR,72916,35.24047953,-94.42145189
Farmers Bank,Center Street Motor,Full Service Brick and Mortar Office,1308 West Center,Greenwood,AR,72936,35.221176,-94.2777315
Farmers Bank,Eastside,Full Service Brick and Mortar Office,7820 Rogers Avenue,Fort Smith,AR,72901,35.349822,-94.345461
Farmers Bank,Farmers Bank,Full Service Brick and Mortar Office,71 West Center St,Greenwood,AR,72936,35.21249047,-94.257624
Farmers Bank,Fort Smith South,Full Service Brick and Mortar Office,8420 Highway 71 South,Fort Smith,AR,72901,35.30448,-94.394736
Farmers Bank,"Huntington, Arkansas",Full Service Brick and Mortar Office,120 Highway 71 Ne,Huntington,AR,72940,35.08326,-94.263039
Farmers Bank,Lavaca,Full Service Brick and Mortar Office,501 West Main Street,Lavaca,AR,72941,35.33618431,-94.17591665
Farmers Bank,Mansfield,Full Service Brick and Mortar Office,16 Huntington Avenue,Mansfield,AR,72944,35.05971842,-94.25006134
Farmers Bank,Teller's Window,Full Service Brick and Mortar Office,200 Main Street,Hackett,AR,72937,35.18721,-94.413348
Farmers Bank,Teller's Window,Full Service Brick and Mortar Office,25 S Broadway St,Hartford,AR,72938,35.02233,-94.3815825
First Service Bank,Clinton,Full Service Brick and Mortar Office,486 Highway 65,Clinton,AR,72031,35.59683222,-92.45829283
First Service Bank,Conway,Full Service Brick and Mortar Office,2475 Washington Avenue,Conway,AR,72032,35.110881,-92.447289
First Service Bank,Conway South,Full Service Brick and Mortar Office,540 United Drive,Conway,AR,72033,35.058546,-92.423241
First Service Bank,Dermott,Full Service Brick and Mortar Office,114 E. Peddicord,Dermott,AR,71638,33.52636393,-91.43578415
First Service Bank,First Service Bank,Full Service Brick and Mortar Office,134 South Broadview,Greenbrier,AR,72058,35.21828697,-92.38828586
First Service Bank,First Service Bank,Full Service Brick and Mortar Office,"12921 Cantrell Road, Suite 204",Little Rock,AR,72223,34.79895335,-92.41760363
First Service Bank,Flippin,Full Service Brick and Mortar Office,311 North 1st Street,Flippin,AR,72634,36.28072846,-92.60148355
First Service Bank,Little Rock,Full Service Brick and Mortar Office,700 Hardin Rd.,Little Rock,AR,72211,34.747326,-92.3986575
First Service Bank,Marshall,Full Service Brick and Mortar Office,500 Highway 65,Marshall,AR,72650,35.91151381,-92.64351672
First Service Bank,Mountain View -,Full Service Brick and Mortar Office,410 Sylamore Avenue,Mountain View,AR,72560,35.86882366,-92.10422394
First Service Bank,Yellville,Full Service Brick and Mortar Office,425 Hwy 62 East,Yellville,AR,72687,36.22567043,-92.67803955
Generations Bank,Camden Operations,Full Service Brick and Mortar Office,1325 Highway 278 By-Pass,Camden,AR,71701,33.5745644,-92.85381493
Generations Bank,East Camden,Full Service Brick and Mortar Office,119 Highway 274,Camden,AR,71701,33.611337,-92.757195
Generations Bank,Fayetteville,Full Service Brick and Mortar Office,3665 N Investment Drive,Fayetteville,AR,72703,36.118206,-94.1588415
Generations Bank,First Bank Loan Production Office,Limited Service Loan Production Office,"1450 East Zion Road, Suite 10",Fayetteville,AR,72703,36.129753,-94.13793
Generations Bank,Generations Bank,Full Service Brick and Mortar Office,"3710 Southern Hills Boulevard, Suite 100",Rogers,AR,72758,36.28605035,-94.16431514
Generations Bank,Hampton,Full Service Brick and Mortar Office,302 W. Main Street,Hampton,AR,71744,33.53810973,-92.47196571
Generations Bank,Junction City,Full Service Brick and Mortar Office,131 North Main Street,Junction City,AR,71749,33.015051,-92.72475719
Generations Bank,Rogers Southern Hills,Full Service Brick and Mortar Office,"3710 Southern Hills Boulevard, Suite 100",Rogers,AR,72758,36.28605035,-94.16431514
Generations Bank,Siloam Springs,Full Service Brick and Mortar Office,"200 Progress Avenue, Suite 100",Siloam Springs,AR,72761,36.1834607,-94.51432274
Generations Bank,Van Buren,Full Service Brick and Mortar Office,2925 Alma Highway,Van Buren,AR,72956,35.44443,-94.326336
Generations Bank,Washington,Full Service Brick and Mortar Office,"1120 Washington Street, N.W.",Camden,AR,71701,33.5849431,-92.84936919
First Western Bank,Bella Vista,Full Service Brick and Mortar Office,575 Memorial Drive,Bella Vista,AR,72714,36.475461,-94.243914
First Western Bank,Bentonville,Full Service Brick and Mortar Office,1108 South Walton Blvd,Bentonville,AR,72712,36.35962365,-94.21564697
First Western Bank,Caulksville-Ratcliff,Full Service Brick and Mortar Office,9418 West State Hwy 22,Ratcliff,AR,72951,35.303382,-93.8725155
First Western Bank,Downtown West Walnut,Full Service Brick and Mortar Office,401 West Walnut,Rogers,AR,72756,36.333693,-94.1201685
First Western Bank,East,Full Service Brick and Mortar Office,1663 East Main,Booneville,AR,72927,35.1421223,-93.90078557
First Western Bank,First Western Bank,Full Service Brick and Mortar Office,80 W Main St,Booneville,AR,72927,35.140068,-93.922893
First Western Bank,Fort Smith,Full Service Brick and Mortar Office,"8399 Rogers Avenue, Suite A-1",Fort Smith,AR,72903,35.346744,-94.3365195
First Western Bank,Magazine,Full Service Brick and Mortar Office,89 East Priddy Street,Magazine,AR,72943,35.150076,-93.8055735
First Western Bank,Pinnacle Hills,Full Service Brick and Mortar Office,2601 Champions Boulevard,Rogers,AR,72758,36.30932679,-94.18707962
First Western Bank,Rogers West,Full Service Brick and Mortar Office,2722 West Walnut,Rogers,AR,72756,36.333945,-94.15512
Cross County Bank,Cherry Valley,Full Service Brick and Mortar Office,3826 Highway 1,Cherry Valley,AR,72324,35.40300604,-90.7586325
Cross County Bank,Cross County Bank,Full Service Brick and Mortar Office,1 Cross County Plaza,Wynne,AR,72396,35.22204,-90.78738
Cross County Bank,First Commercial Bank - Brinkley,Full Service Brick and Mortar Office,302 North Main Street,Brinkley,AR,72021,34.889472,-91.1945045
Cross County Bank,"First Commercial Bank, Blytheville",Full Service Brick and Mortar Office,208 North Second Street,Blytheville,AR,72316,35.92890873,-89.90415157
Cross County Bank,"First Commercial Bank, Jonesboro",Full Service Brick and Mortar Office,900 Enterprise Drive,Jonesboro,AR,72403,35.81106068,-90.69284946
Cross County Bank,"First Commercial Bank, Manila",Full Service Brick and Mortar Office,102 North Baltimore,Manila,AR,72442,35.878851,-90.1658565
Cross County Bank,"First Commercial Bank, Osceola",Full Service Brick and Mortar Office,750 West Keiser,Osceola,AR,72370,35.698068,-89.978373
Cross County Bank,Hickory Ridge,Full Service Brick and Mortar Office,108 Highway 49,Hickory Ridge,AR,72347,35.40248644,-90.99521658
Cross County Bank,North,Full Service Brick and Mortar Office,2098 Cross County Bank Boulevard,Wynne,AR,72396,43.76739375,-91.2176454
Grand Savings Bank,Bentonville,Full Service Brick and Mortar Office,"3401 Sw 2nd Street, Suite 115",Bentonville,AR,72712,36.37050784,-94.24958571
Grand Savings Bank,Decatur,Full Service Brick and Mortar Office,372 Sh 59 N,Decatur,AR,72722,36.34011633,-94.45820163
Grand Savings Bank,Fayetteville,Full Service Brick and Mortar Office,15 S Block Ave Suite 102,Fayetteville,AR,72701,36.062226,-94.160745
Grand Savings Bank,Ft. Smith,Full Service Brick and Mortar Office,9117 Hwy 71 S,Fort Smith,AR,72908,35.29692,-94.387248
Grand Savings Bank,Gentry,Full Service Brick and Mortar Office,101 S Gentry Blvd,Gentry,AR,72734,36.267264,-94.479219
Grand Savings Bank,Gravette,Full Service Brick and Mortar Office,198 Atlanta Street Se,Gravette,AR,72736,36.42146065,-94.45193875
Grand Savings Bank,Rogers,Full Service Brick and Mortar Office,2350 W. Hudson Rd.,Rogers,AR,72756,36.355329,-94.151403
Grand Savings Bank,Rogers-Pleasant Grove,Full Service Brick and Mortar Office,4201 South Dixieland Road,Rogers,AR,72758,36.28198498,-94.14645795
Grand Savings Bank,Siloam Springs,Full Service Brick and Mortar Office,1660 West U.S. Highway 412,Siloam Springs,AR,72761,36.1762707,-94.55852021
Southern Bank,Bald Knob Facility,Full Service Brick and Mortar Office,306 South Elm Street,Bald Knob,AR,72010,35.31031669,-91.56855082
Southern Bank,Batesville Facility,Full Service Brick and Mortar Office,1583 South St. Louis Street,Batesville,AR,72501,35.76348786,-91.6412142
Southern Bank,Bradford Facility,Full Service Brick and Mortar Office,5227 North Highway 367,Bradford,AR,72020,35.422632,-91.4564745
Southern Bank,First Southern Bank,Limited Service Loan Production Office,10825 Financial Centre Parkway,Little Rock,AR,72211,34.747335,-92.3960385
Southern Bank,Jonesboro South Main Facility,Full Service Brick and Mortar Office,1925 South Main Street,Jonesboro,AR,72401,35.82161775,-90.70567942
Southern Bank,Jonesboro-Nettleton Facility,Full Service Brick and Mortar Office,2775 East Nettleton Avenue,Jonesboro,AR,72401,35.828091,-90.6711975
Southern Bank,Paragould Facility,Full Service Brick and Mortar Office,1727 West Kingshighway,Paragould,AR,72451,36.05396305,-90.50833871
Southern Bank,Searcy Facility,Full Service Brick and Mortar Office,2208 East Race Avenue,Searcy,AR,72143,35.25059007,-91.7107416
Southern Bank,Searcy Loan Production Office,Limited Service Loan Production Office,"2930 East Moore Avenue, Suite C",Searcy,AR,72143,35.25368149,-91.69875612
River Town Bank,Atkins,Full Service Brick and Mortar Office,1511 North Church,Atkins,AR,72823,35.257491,-92.937416
River Town Bank,Danville,Full Service Brick and Mortar Office,402 E 8th Street,Danville,AR,72833,35.05413171,-93.38949305
River Town Bank,Dover,Full Service Brick and Mortar Office,9247 Market St,Dover,AR,72837,35.39552412,-93.11427517
River Town Bank,Hogan Lane,Full Service Brick and Mortar Office,490 Hogan Lane,Conway,AR,72034,35.08547834,-92.49803721
River Town Bank,Parkway,Full Service Brick and Mortar Office,110 East D Parkway,Russellville,AR,72801,35.28121131,-93.13310479
River Town Bank,River Town Bank,Full Service Brick and Mortar Office,102 North Front Street,Dardanelle,AR,72834,35.22051405,-93.15316976
River Town Bank,Skyline,Full Service Brick and Mortar Office,3201 West Main Street,Russellville,AR,72801,35.28818238,-93.16568387
River Town Bank,Thomas V. Jones,Full Service Brick and Mortar Office,314 Union Street,Dardanelle,AR,72834,35.22289287,-93.15828707
Citizens' Bank & Trust Co.,Alma,Full Service Brick and Mortar Office,200 Hwy 71,Alma,AR,72921,35.485803,-94.225347
Citizens' Bank & Trust Co.,Cedarville,Full Service Brick and Mortar Office,8828 Hwy 59 North,Cedarville,AR,72932,35.56625495,-94.36733106
Citizens' Bank & Trust Co.,Citizens' Bank & Trust Co.,Full Service Brick and Mortar Office,3110 Alma Highway,Van Buren,AR,72956,35.44330625,-94.32391345
Citizens' Bank & Trust Co.,Downtown,Full Service Brick and Mortar Office,617 Broadway Street,Van Buren,AR,72956,35.434197,-94.3517295
Citizens' Bank & Trust Co.,Internet Banking,Full Service Cyber Office,3110 Alma Highway,Van Buren,AR,72956,35.44330625,-94.32391345
Citizens' Bank & Trust Co.,Mountainburg,Limited Service Facility Office,124 Us Highway 71 North,Mountainburg,AR,72946,35.63389484,-94.16886763
Citizens' Bank & Trust Co.,North Hills,Full Service Brick and Mortar Office,1519 Fayetteville Road,Van Buren,AR,72956,35.45850196,-94.35664471
Citizens' Bank & Trust Co.,Northridge Drive,Full Service Brick and Mortar Office,4 Northridge Drive,Van Buren,AR,72956,35.47584012,-94.35668052
First Financial Bank,122 West Seventh Street,Full Service Brick and Mortar Office,122 West Seventh Street,Smackover,AR,71762,33.36515976,-92.72601334
First Financial Bank,318 Griffith Street,Full Service Brick and Mortar Office,318 Griffith Street,El Dorado,AR,71730,33.23305449,-92.665908
First Financial Bank,East Main,Full Service Brick and Mortar Office,2300 East Main,El Dorado,AR,71730,33.21353001,-92.63633762
First Financial Bank,First Financial Bank,Full Service Brick and Mortar Office,315 West Main Street,El Dorado,AR,71730,33.21186649,-92.66614128
First Financial Bank,Little Rock,Full Service Brick and Mortar Office,1501 North University Avenue,Little Rock,AR,72207,34.766262,-92.339559
First Financial Bank,Mena Main,Full Service Brick and Mortar Office,600 Highway 71 South,Mena,AR,71953,34.58226205,-94.23669641
First Financial Bank,Timberlane,Full Service Brick and Mortar Office,500 Timberlane,El Dorado,AR,71730,33.21642043,-92.68671202
First Financial Bank,Washington Street,Full Service Brick and Mortar Office,214 North Washington,El Dorado,AR,71730,33.21308574,-92.66375184
The First National Bank of Wynne,Cherry Valley,Full Service Brick and Mortar Office,3251 Highway 42,Cherry Valley,AR,72324,35.40235548,-90.753399
The First National Bank of Wynne,Forrest City,Full Service Brick and Mortar Office,810 North Washington,Forrest City,AR,72335,35.01537241,-90.78727845
The First National Bank of Wynne,Harrisburg,Full Service Brick and Mortar Office,201 East Jackson,Harrisburg,AR,72432,35.56468322,-90.71885683
The First National Bank of Wynne,Harrisburg,Full Service Retail Office,"605 N Illinois, Suite 2",Harrisburg,AR,72432,35.57042183,-90.72416344
The First National Bank of Wynne,Mccrory,Full Service Brick and Mortar Office,124 North Edmonds Avenue,Mc Crory,AR,72101,35.25725641,-91.19992265
The First National Bank of Wynne,Ridgeview,Full Service Brick and Mortar Office,806 Highway 64e,Wynne,AR,72396,35.25108369,-90.77604128
The First National Bank of Wynne,The First National Bank Of Wynne,Full Service Brick and Mortar Office,528 East Merriman Avenue,Wynne,AR,72396,35.22371733,-90.7877059
UNICO Bank,Harrisburg,Full Service Brick and Mortar Office,1100 North Illinois,Harrisburg,AR,72432,35.57580224,-90.72350553
UNICO Bank,Linwood Drive,Full Service Brick and Mortar Office,1908 Linwood Drive,Paragould,AR,72450,36.03618352,-90.51632711
UNICO Bank,Marked Tree,Full Service Brick and Mortar Office,210 Frisco Street,Marked Tree,AR,72365,35.53076305,-90.41900043
UNICO Bank,Paragould,Full Service Brick and Mortar Office,506 West Kings Highway,Paragould,AR,72450,36.05246352,-90.4913415
UNICO Bank,Reynolds Road,Full Service Brick and Mortar Office,201 Reynolds Road,Paragould,AR,72450,36.06145261,-90.52119801
UNICO Bank,Trumann,Full Service Brick and Mortar Office,514 Industrial Drive,Trumann,AR,72472,35.68015719,-90.55114669
UNICO Bank,Unico Bank - Lake City Office,Full Service Brick and Mortar Office,100 Cobean Blvd,Lake City,AR,72437,35.820171,-90.443538
First State Bank of DeQueen,First State Bank Of Dequeen,Full Service Brick and Mortar Office,402 West Collin Raye Drive,De Queen,AR,71832,34.04596404,-94.3429042
First State Bank of DeQueen,First State Bank Of Dierks,Full Service Brick and Mortar Office,507 Front St,Dierks,AR,71833,34.11632833,-94.02267555
First State Bank of DeQueen,First State Bank Of Glenwood,Full Service Brick and Mortar Office,122 Fagan Street,Glenwood,AR,71943,34.327461,-93.55165624
First State Bank of DeQueen,First State Bank Of Nashville,Full Service Brick and Mortar Office,422 Issac Perkins Blvd,Nashville,AR,71852,33.94801373,-93.84323204
First State Bank of DeQueen,First State Bank Of Pike County Bran,Full Service Brick and Mortar Office,322 E 13th St,Murfreesboro,AR,71958,34.069869,-93.6857565
First State Bank of DeQueen,North Camellia Street,Full Service Brick and Mortar Office,3402 North Camellia Street,Lockesburg,AR,71846,33.96919118,-94.16848636
First State Bank of DeQueen,North Side,Limited Service Facility Office,310 N Third St,De Queen,AR,71832,34.03905275,-94.34023782
Signature Bank of Arkansas,130 South New Orleans,Full Service Brick and Mortar Office,130 South New Orleans,Brinkley,AR,72021,34.88605183,-91.19288397
Signature Bank of Arkansas,Bentonville,Full Service Brick and Mortar Office,"700 S. E. Walton Boulevard, Suite #2",Bentonville,AR,72712,36.33538281,-94.20324731
Signature Bank of Arkansas,Brinkley North,Full Service Brick and Mortar Office,1405 North Main Street,Brinkley,AR,72021,34.9048137,-91.1982678
Signature Bank of Arkansas,Rogers,Full Service Brick and Mortar Office,3712 Pinnacle Hills Parkway,Rogers,AR,72758,36.30227391,-94.18939328
Signature Bank of Arkansas,Rogers Lpo,Limited Service Loan Production Office,"5500 Pinnacle Point Drive, Suite 200",Rogers,AR,72758,36.311598,-94.190409
Signature Bank of Arkansas,Signature Bank Of Arkansas,Full Service Brick and Mortar Office,"3878 North Crossover Road, Suite 20",Fayetteville,AR,72703,36.121302,-94.1185215
Signature Bank of Arkansas,Springdale,Full Service Brick and Mortar Office,1071 Har-Ber Lakes Drive,Springdale,AR,72762,36.17690421,-94.20794577
Farmers Bank and Trust Company,Blytheville,Limited Service Facility Office,3824 East Main St.,Blytheville,AR,72315,35.92879,-89.86681495
Farmers Bank and Trust Company,Farmers Bank And Trust Company,Full Service Brick and Mortar Office,400 West Main Street,Blytheville,AR,72315,35.92749298,-89.90732538
Farmers Bank and Trust Company,Gosnell,Limited Service Facility Office,State Highway 151 And Terrace Drive,Blytheville,AR,72315,35.95842,-89.96508
Farmers Bank and Trust Company,Manila,Full Service Brick and Mortar Office,3626 W. State Highway 18,Manila,AR,72442,35.887851,-90.1918845
Farmers Bank and Trust Company,Northside,Limited Service Facility Office,600 West Moultrie,Blytheville,AR,72315,35.93638785,-89.89448521
Farmers Bank and Trust Company,Teller's Window,Limited Service Facility Office,401 West Walnut Street,Blytheville,AR,72315,35.928189,-89.9077275
Farmers Bank and Trust Company,Wilson,Full Service Brick and Mortar Office,1 Park Avenue,Wilson,AR,72395,35.5685569,-90.0418815
The First National Bank at Paris,Booneville,Full Service Brick and Mortar Office,480 East Main,Booneville,AR,72927,35.13979093,-93.91610057
The First National Bank at Paris,Caulksville-Ratcliff,Full Service Brick and Mortar Office,8935 W State Hwy 22,Ratcliff,AR,72951,35.301681,-93.864339
The First National Bank at Paris,First National Bank Of Clarskville B,Full Service Brick and Mortar Office,1320 West Main Street,Clarksville,AR,72830,35.47291713,-93.48435038
The First National Bank at Paris,First National Bank Of Ozark,Full Service Brick and Mortar Office,1607 W Commercial St,Ozark,AR,72949,35.488494,-93.8420865
The First National Bank at Paris,The First National Bank At Paris,Full Service Brick and Mortar Office,11 E. Main Street,Paris,AR,72855,35.29282547,-93.72965551
The First National Bank at Paris,Waldron,Full Service Brick and Mortar Office,934 West Second Street,Waldron,AR,72958,34.90026845,-94.10157922
Stone Bank,Cave City Lpo,Limited Service Loan Production Office,"416 N. Main Street, Suite J",Cave City,AR,72521,35.9486668,-91.54830131
Stone Bank,Fayetteville Lpo,Limited Service Loan Production Office,36 E. Center Street,Fayetteville,AR,72701,36.0626193,-94.15839801
Stone Bank,Harrison,Full Service Brick and Mortar Office,1309 Hwy 62/65 N,Harrison,AR,72601,36.261999,-93.1312575
Stone Bank,Little Rock,Full Service Brick and Mortar Office,"900 South Shackleford Road, Suite 210",Little Rock,AR,72211,34.74532916,-92.39415486
Stone Bank,Stone Bank,Full Service Brick and Mortar Office,802 East Main Street,Mountain View,AR,72560,35.8641869,-92.1060026
Stone Bank,White Hall,Full Service Brick and Mortar Office,7739 Sheridan Road,White Hall,AR,71602,34.25756354,-92.09493961
Cornerstone Bank,Berryville,Full Service Brick and Mortar Office,907 W Trimble,Berryville,AR,72616,36.37498843,-93.58206558
Cornerstone Bank,Cornerstone Bank,Full Service Brick and Mortar Office,70 South Main Street,Eureka Springs,AR,72632,36.40020445,-93.74000769
Cornerstone Bank,Financial Center,Full Service Brick and Mortar Office,152 East Van Buren,Eureka Springs,AR,72632,36.39094566,-93.73741063
Cornerstone Bank,Harrison,Full Service Brick and Mortar Office,1426 Highway 65 North,Harrison,AR,72601,36.26584983,-93.1386046
Cornerstone Bank,Holiday Island,Full Service Brick and Mortar Office,1 Parkwood Drive,Eureka Springs,AR,72632,36.454725,-93.7250075
Cornerstone Bank,Huntsville,Full Service Brick and Mortar Office,270 Curtis Hutchins Way,Huntsville,AR,72740,36.11332875,-93.71429973
Focus Bank,Hilltop,Full Service Brick and Mortar Office,3313 East Johnson Avenue,Jonesboro,AR,72401,35.856261,-90.6575985
Focus Bank,Jonesboro,Full Service Brick and Mortar Office,2525 Red Wolf Blvd.,Jonesboro,AR,72401,35.814717,-90.66905553
Focus Bank,Jonesboro Southwest Drive Facility,Full Service Brick and Mortar Office,406 Southwest Drive,Jonesboro,AR,72401,35.81792573,-90.70893508
Focus Bank,Marmaduke Facility,Limited Service Facility Office,7281 Highway 34 East,Marmaduke,AR,72443,36.18702799,-90.38560899
Focus Bank,Paragould Highway 49 South Facility,Full Service Brick and Mortar Office,3100 Linwood Drive,Paragould,AR,72450,36.02253165,-90.52437681
Focus Bank,Paragould Kingshighway Facility,Full Service Brick and Mortar Office,3005 W Kings Highway,Paragould,AR,72450,36.05995349,-90.52667864
Partners Bank,Marion,Full Service Brick and Mortar Office,2770 Highway 77,Marion,AR,72364,35.20403128,-90.19156627
Partners Bank,Marvell,Full Service Brick and Mortar Office,Highway 49 West,Marvell,AR,72366,34.56035655,-90.91344217
Partners Bank,Mid City,Full Service Brick and Mortar Office,623 Oakland Avenue,Helena,AR,72342,34.53960367,-90.62256799
Partners Bank,Partners Bank,Full Service Brick and Mortar Office,302 Cherry Street,Helena,AR,72342,34.52498816,-90.58618672
Partners Bank,West,Full Service Brick and Mortar Office,Highway 49,Helena,AR,72342,34.4993601,-90.59936167
Partners Bank,Wynne,Full Service Brick and Mortar Office,1812 North Falls Boulevard,Wynne,AR,72396,35.24292419,-90.78258487
The First National Bank of Lawrence County at Walnut Ridge,Bono,Full Service Brick and Mortar Office,131 Highway 63 North,Bono,AR,72416,35.902512,-90.7991235
The First National Bank of Lawrence County at Walnut Ridge,Hoxie,Full Service Brick and Mortar Office,300 S.W. Texas Street,Hoxie,AR,72433,36.04998773,-90.97529397
The First National Bank of Lawrence County at Walnut Ridge,Imboden,Full Service Brick and Mortar Office,1115 W 3rd St,Imboden,AR,72434,36.20412158,-91.190671
The First National Bank of Lawrence County at Walnut Ridge,Pocahontas,Full Service Brick and Mortar Office,1755 Hwy 62 West,Pocahontas,AR,72455,36.25660623,-90.98093795
The First National Bank of Lawrence County at Walnut Ridge,Pocahontas Thomasville,Full Service Brick and Mortar Office,1603 N Thomasville Street,Pocahontas,AR,72455,36.2719855,-90.97418717
The First National Bank of Lawrence County at Walnut Ridge,The First National Bank Of Lawrence,Full Service Brick and Mortar Office,202 West Main Street,Walnut Ridge,AR,72476,36.06920114,-90.95681368
Legacy National Bank,Bentonville,Full Service Brick and Mortar Office,2904 South Walton Blvd,Bentonville,AR,72712,36.342684,-94.211406
Legacy National Bank,Butterfield Coach Road``,Full Service Brick and Mortar Office,2081 Butterfield Coach Road,Springdale,AR,72764,36.16569841,-94.09440397
Legacy National Bank,East Joyce,Full Service Brick and Mortar Office,1325 East Joyce Boulevard,Fayetteville,AR,72703,36.12061939,-94.13988714
Legacy National Bank,Legacy National Bank,Full Service Brick and Mortar Office,4055 West Sunset,Springdale,AR,72762,36.17515251,-94.17516244
Legacy National Bank,Legacy National Bank,Full Service Brick and Mortar Office,4901 W Pauline Whitaker Parkway,Rogers,AR,72758,36.297873,-94.18491
Legacy National Bank,South,Full Service Brick and Mortar Office,3607 South Thompson Street,Springdale,AR,72764,36.1526395,-94.14381445
FSNB,Conway,Full Service Retail Office,3900 Dave Ward Dr,Conway,AR,72034,35.072874,-92.495205
FSNB,North Conway,Full Service Retail Office,1155 Highway 65 North,Conway,AR,72032,35.10984724,-92.44033259
FSNB,Pine Bluff,Full Service Retail Office,5501 S. Olive St,Pine Bluff,AR,71603,34.17404193,-92.00646781
FSNB,Russellville,Full Service Retail Office,2409 E Main St,Russellville,AR,72802,35.280486,-93.105216
FSNB,West Memphis,Full Service Retail Office,798 W Service Rd,West Memphis,AR,72301,35.16656735,-90.20214976
Equity Bank,Berryville,Full Service Brick and Mortar Office,911 W. Trimble,Berryville,AR,72616,36.37641298,-93.58308387
Equity Bank,"Community First Bank, Pea Ridge",Full Service Brick and Mortar Office,198 Slack Street,Pea Ridge,AR,72751,36.442575,-94.118049
Equity Bank,Harrison,Full Service Brick and Mortar Office,200 East Ridge Avenue,Harrison,AR,72601,36.23197102,-93.10512799
Equity Bank,Harrison,Full Service Brick and Mortar Office,1304 Highway 62/65 North,Harrison,AR,72601,36.26154973,-93.13155188
Equity Bank,West Van Buren,Full Service Brick and Mortar Office,107 West Van Buren,Eureka Springs,AR,72632,36.393543,-93.7428255
FBT Bank & Mortgage,Fbt Bank & Mortgage,Full Service Brick and Mortar Office,200 West Fourth Street,Fordyce,AR,71742,33.813297,-92.4143715
FBT Bank & Mortgage,Northwest,Limited Service Facility Office,Upton Drive And U.S. Highway 79-167,Fordyce,AR,71742,33.821082,-92.437164
FBT Bank & Mortgage,Rison,Full Service Brick and Mortar Office,103 West Magnolia,Rison,AR,71665,33.95804388,-92.1909991
FBT Bank & Mortgage,Watson Chapel Financial Center,Full Service Brick and Mortar Office,3404 Camden Road,Pine Bluff,AR,71603,34.19519844,-92.05745913
FBT Bank & Mortgage,White Hall Financial,Full Service Brick and Mortar Office,7199 Sheridan Road,White Hall,AR,71602,34.25556498,-92.09023774
Bank of Little Rock,Bank Of Little Rock,Full Service Brick and Mortar Office,200 North State Street,Little Rock,AR,72201,34.750557,-92.278899
Bank of Little Rock,Cantrell Road,Full Service Brick and Mortar Office,15901 Cantrell Road Branch,Little Rock,AR,72223,34.802163,-92.4485175
Bank of Little Rock,Heights,Full Service Brick and Mortar Office,5120 Kavanaugh,Little Rock,AR,72207,34.770357,-92.3308245
Bank of Little Rock,Merrill,Full Service Brick and Mortar Office,7171 Merrill Drive,Little Rock,AR,72212,34.7704452,-92.4007294
Bank of Little Rock,Rahling Road,Full Service Brick and Mortar Office,1201 Rahling Road,Little Rock,AR,72201,34.76991061,-92.4553455
Armor Bank,Armor Bank,Full Service Brick and Mortar Office,715 N Washington,Forrest City,AR,72335,35.01425635,-90.78734392
Armor Bank,Cantrell,Full Service Retail Office,7401 Cantrell Road,Little Rock,AR,72207,34.77103821,-92.35620149
Armor Bank,Express Bank,Limited Service Facility Office,3200 North Washington,Forrest City,AR,72335,35.04479959,-90.79307063
Armor Bank,Little Rock,Limited Service Retail Office,2300 Cottondale Lane,Little Rock,AR,72223,34.76110754,-92.30067231
Armor Bank,Little Rock,Full Service Retail Office,2300 Cottondale Lane,Little Rock,AR,72223,34.76110754,-92.30067231
Home Bank of Arkansas,Damascus,Full Service Brick and Mortar Office,17401 Highway 65 South,Damascus,AR,72039,35.36861897,-92.40727153
Home Bank of Arkansas,Greenbrier,Full Service Brick and Mortar Office,67 South Broadview,Greenbrier,AR,72058,35.2262321,-92.38814311
Home Bank of Arkansas,Home Bank Of Arkansas,Full Service Brick and Mortar Office,113 Highway 165 South,Portland,AR,71663,33.23539008,-91.5080316
Home Bank of Arkansas,Marshall,Full Service Brick and Mortar Office,113 East Nome Street,Marshall,AR,72650,35.90994474,-92.63136006
Home Bank of Arkansas,Otter Creek,Full Service Brick and Mortar Office,8800 Stagecoach Road,Little Rock,AR,72210,34.672034,-92.41769991
Armstrong Bank,Green Road,Full Service Brick and Mortar Office,2930 Old Greenwood Road,Fort Smith,AR,72903,35.35382193,-94.39450081
Armstrong Bank,Highway 71,Full Service Brick and Mortar Office,9201 Highway 71 South,Fort Smith,AR,72903,35.29629,-94.3867305
Armstrong Bank,Phoenix,Full Service Brick and Mortar Office,8300 Phoenix Avenue,Fort Smith,AR,72903,35.344701,-94.3402905
Armstrong Bank,Springdale,Full Service Brick and Mortar Office,3942 Elm Springs Road,Springdale,AR,72762,36.19317445,-94.17371095
Armstrong Bank,Waldron,Full Service Brick and Mortar Office,1301 S Waldron Rd.,Fort Smith,AR,72903,35.369379,-94.3721865
The First National Bank of Izard County,Horseshoe Bend,Full Service Brick and Mortar Office,South Bend Drive,Horseshoe Bend,AR,72512,36.2091547,-91.75117638
The First National Bank of Izard County,Melbourne,Full Service Brick and Mortar Office,East Main Street,Melbourne,AR,72556,36.05956362,-91.86968053
The First National Bank of Izard County,Mount Pleasant,Full Service Brick and Mortar Office,Main Street And Guion Road,Mount Pleasant,AR,72561,35.9261814,-91.94101681
The First National Bank of Izard County,Mountain View,Full Service Brick and Mortar Office,Highway 5 North,Mountain View,AR,72560,35.95957227,-92.10497457
The First National Bank of Izard County,The First National Bank Of Izard Cou,Full Service Brick and Mortar Office,2005 Highway 56,Calico Rock,AR,72519,36.14013948,-92.12431264
Commercial Bank & Trust Company,Commercial Bank & Trust Company,Full Service Brick and Mortar Office,212 West Gaines Street,Monticello,AR,71655,33.62914851,-91.79217863
Commercial Bank & Trust Company,East,Limited Service Facility Office,902 Us Highway 278 And 4 East,Monticello,AR,71655,33.62874151,-91.77730067
Commercial Bank & Trust Company,North Park Of Commercial Bank,Limited Service Facility Office,"200 North Park Village, Suite 2",Monticello,AR,71655,33.64768767,-91.79737034
Commercial Bank & Trust Company,West,Limited Service Facility Office,241 Us Highway 425 And 35 North,Monticello,AR,71655,33.62641871,-91.80251674
Commercial Bank & Trust Company,Westgate,Limited Service Facility Office,428 Highway 425 South,Monticello,AR,71655,33.62020435,-91.80184063
Bank of Cave City,Bank Of Cave City,Full Service Brick and Mortar Office,137 S Main Street,Cave City,AR,72521,35.94006575,-91.54799586
Bank of Cave City,Bank Of Cave City-Batesville,Full Service Brick and Mortar Office,1141 East Main Suite 100,Batesville,AR,72501,35.77623801,-91.64336367
Bank of Cave City,Evening Shade,Full Service Brick and Mortar Office,2089 Evening Shade Drive,Evening Shade,AR,72532,36.069444,-91.615383
Bank of Cave City,Lynn,Full Service Brick and Mortar Office,137 Arkansas Highway 25,Lynn,AR,72440,36.00513346,-91.25452415
Bank of Cave City,Strawberry,Full Service Brick and Mortar Office,114 West River Drive,Strawberry,AR,72469,35.96692769,-91.32301176
Connect Bank,Connect Bank,Full Service Brick and Mortar Office,116 North Lincoln,Star City,AR,71667,33.94331863,-91.84367423
Connect Bank,Damas,Full Service Brick and Mortar Office,265 Highway 65 South,Dumas,AR,71639,33.88585583,-91.48390963
Connect Bank,Pine Bluff,Full Service Brick and Mortar Office,2401 East Harding,Pine Bluff,AR,71601,34.21315347,-91.97747855
Connect Bank,Watson Chapel,Full Service Brick and Mortar Office,3100 Camden Road,Pine Bluff,AR,71603,34.19877115,-92.05193241
Connect Bank,White Hall,Full Service Brick and Mortar Office,7101 Dollarway Rd,White Hall,AR,71602,34.26214288,-92.08256191
Bank of Delight,Bank Of Delight,Full Service Brick and Mortar Office,503 E Antioch Street,Delight,AR,71940,34.031142,-93.501711
Bank of Delight,Gurdon,Full Service Brick and Mortar Office,600 East Smith Street,Gurdon,AR,71743,33.9136749,-93.14805211
Bank of Delight,Gurdon Loan Processing Office,Limited Service Loan Production Office,600 Smith Street,Gurdon,AR,71743,33.9136749,-93.14805211
Bank of Delight,Prescott,Full Service Brick and Mortar Office,106 East 2nd St S,Prescott,AR,71857,33.80134828,-93.37974762
United Bank,Fayetteville,Full Service Brick and Mortar Office,670 East Joyce Boulevard,Fayetteville,AR,72703,36.12364544,-94.14776803
United Bank,Rogers,Full Service Brick and Mortar Office,3333 West Walnut,Rogers,AR,72756,36.33456084,-94.16597411
United Bank,Springdale,Full Service Brick and Mortar Office,607 West Emma,Springdale,AR,72764,36.18509052,-94.13608106
United Bank,United Bank,Full Service Brick and Mortar Office,2600 South Thompson,Springdale,AR,72764,36.160947,-94.14375507
Smackover State Bank,125 West 5th,Full Service Brick and Mortar Office,125 West 5th,El Dorado,AR,71730,33.22197951,-92.66432272
Smackover State Bank,El Dorado,Full Service Brick and Mortar Office,602 South Timberlane Drive,El Dorado,AR,71730,33.20368471,-92.68867664
Smackover State Bank,Norphlet,Full Service Brick and Mortar Office,300 East Padgett Road,Norphlet,AR,71759,33.31483038,-92.66162683
Smackover State Bank,Smackover State Bank,Full Service Brick and Mortar Office,708 North Broadway,Smackover,AR,71762,33.36414485,-92.72539762
Fidelity Bank,Fidelity Bank,Full Service Brick and Mortar Office,330 West Broadway,West Memphis,AR,72301,35.14645353,-90.19172761
Fidelity Bank,Marion,Full Service Brick and Mortar Office,330 West Military Road,Marion,AR,72364,35.21345002,-90.20259756
Fidelity Bank,Mid-Continent,Full Service Brick and Mortar Office,350 West Service Road,West Memphis,AR,72301,35.16972299,-90.19317398
Fidelity Bank,Midway,Full Service Brick and Mortar Office,1200 State Highway 77,Marion,AR,72364,35.18530133,-90.18438535
Warren Bank and Trust Company,Drive-In Facility,Limited Service Facility Office,Cypress And Myrtle Streets,Warren,AR,71671,33.613893,-92.063088
Warren Bank and Trust Company,Hermitage,Full Service Brick and Mortar Office,303 South Main,Hermitage,AR,71647,33.447384,-92.173968
Warren Bank and Trust Company,Warren Bank And Trust Company,Full Service Brick and Mortar Office,201 South Main Street,Warren,AR,71671,33.613668,-92.064078
Warren Bank and Trust Company,West,Limited Service Facility Office,312 South Martin Street,Warren,AR,71671,33.61088082,-92.07165052
Century Next Bank,First National Bank Of Crossett Bran,Full Service Brick and Mortar Office,210 Main Street,Crossett,AR,71635,33.13367304,-91.96161058
Century Next Bank,Fountain Hill,Full Service Brick and Mortar Office,105 Highway 160,Fountain Hill,AR,71642,33.35777879,-91.85085501
Century Next Bank,Hamburg,Full Service Brick and Mortar Office,603 North Main,Hamburg,AR,71646,33.23014981,-91.79747482
Century Next Bank,North,Full Service Brick and Mortar Office,1218 Highway 133,Crossett,AR,71635,33.16429808,-91.94229221
First State Bank of Warren,First State Bank Of Warren,Full Service Brick and Mortar Office,104 S Main Street,Warren,AR,71671,33.614262,-92.0644065
First State Bank of Warren,Hampton,Full Service Brick and Mortar Office,Highway 4 And Highway 167,Hampton,AR,71744,33.53796,-92.4697485
First State Bank of Warren,Hermitage,Full Service Brick and Mortar Office,Main Street,Hermitage,AR,71647,33.44855834,-92.17369925
First State Bank of Warren,Martin And Pine,Full Service Brick and Mortar Office,413 West Pine Street,Warren,AR,71671,33.61732905,-92.07092287
Riverwind Bank,Hwy 64,Full Service Retail Office,Highway 64,Augusta,AR,72006,35.28576754,-91.34333569
Riverwind Bank,Riverwind Bank,Full Service Brick and Mortar Office,100 South Second Street,Augusta,AR,72006,35.28342095,-91.36660512
Riverwind Bank,Searcy,Full Service Brick and Mortar Office,411 Hartsfield Drive,Searcy,AR,72143,35.251344,-91.6984395
Riverwind Bank,Searcy,Full Service Brick and Mortar Office,1241 West Beebe Capps Expressway,Searcy,AR,72143,35.24393347,-91.74965374
Bank of Gravett,Bank Of Gravett,Full Service Brick and Mortar Office,211 Main St Se,Gravette,AR,72736,36.42224728,-94.45113665
Bank of Gravett,Centerton,Full Service Brick and Mortar Office,192 East Centerton Boulevard,Centerton,AR,72719,36.359055,-94.283901
Bank of Gravett,Gravette Motor,Limited Service Facility Office,303 Atlanta Street Se,Gravette,AR,72736,36.4213088,-94.45077494
Bank of Gravett,Hiwasse-Bellavista,Full Service Brick and Mortar Office,13540 W Highway 72,Hiwasse,AR,72739,36.43167767,-94.3265883
Commercial National Bank of Texarkana,Arkansas Boulevard,Full Service Brick and Mortar Office,1222 Arkansas Boulevard,Texarkana,AR,71854,33.460389,-94.029489
Commercial National Bank of Texarkana,East Ninth Street,Full Service Brick and Mortar Office,3204 East 9th Street,Texarkana,AR,71854,33.430185,-94.0055445
Commercial National Bank of Texarkana,Fouke,Full Service Brick and Mortar Office,U.S. Highway 71 And Redcut Road,Fouke,AR,71837,33.264891,-93.885471
Commercial National Bank of Texarkana,Fourth Street,Full Service Brick and Mortar Office,224 East Fourth Street,Texarkana,AR,71854,33.423966,-94.0408515
Union Bank & Trust Company,Express,Limited Service Facility Office,510 Us 425 North,Monticello,AR,71657,33.63966071,-91.8012372
Union Bank & Trust Company,Union Bank & Trust Company,Full Service Brick and Mortar Office,102 West Mccloy,Monticello,AR,71655,33.62961744,-91.79114694
Union Bank & Trust Company,University,Full Service Brick and Mortar Office,569 Us 425,Monticello,AR,71655,33.61820312,-91.80084066
Union Bank & Trust Company,Warren,Full Service Brick and Mortar Office,201 N. Martin Street,Warren,AR,71671,33.61491,-92.0721015
McGehee Bank,Highway 65,Limited Service Facility Office,Highway 65 South,Mc Gehee,AR,71654,33.60406028,-91.38305991
McGehee Bank,Mcgehee Bank,Full Service Brick and Mortar Office,301 North Second Street,Mc Gehee,AR,71654,33.63023065,-91.39799756
McGehee Bank,Teller's Window,Limited Service Facility Office,Highway 4,Arkansas City,AR,71630,33.6776492,-91.2417705
McGehee Bank,Teller's Window,Limited Service Facility Office,Highway 1,Watson,AR,71674,33.83557867,-91.25934577
Piggott State Bank,Drive-In,Limited Service Facility Office,182 North Second Street,Piggott,AR,72454,36.38334704,-90.19118841
Piggott State Bank,Piggott State Bank,Full Service Brick and Mortar Office,271 West Cherry Street,Piggott,AR,72454,36.38387597,-90.19176085
Piggott State Bank,Retor,Full Service Brick and Mortar Office,400 South Main Street,Rector,AR,72461,36.263457,-90.29278356
First Delta Bank,First Delta Bank,Full Service Brick and Mortar Office,214 Hester Parker Drive,Marked Tree,AR,72365,35.52800812,-90.43262188
First Delta Bank,Trumann,Full Service Brick and Mortar Office,445 Hwy 463 South,Trumann,AR,72472,35.66691908,-90.51209193
First Delta Bank,Tyronza,Full Service Brick and Mortar Office,230 S Main,Tyronza,AR,72386,35.48831702,-90.35852797
Central Bank,Bentonville,Full Service Brick and Mortar Office,3001 Se J Street,Bentonville,AR,72712,36.33975488,-94.19741951
Central Bank,Central Bank,Full Service Brick and Mortar Office,"1506 Market Street, Suite C180",Little Rock,AR,72211,34.76872537,-92.39823758
Central Bank,Markham Street,Full Service Brick and Mortar Office,5000 W. Markham Street,Little Rock,AR,72205,34.752339,-92.329713
Bank of Salem,Bank Of Salem,Full Service Brick and Mortar Office,207 Church Street,Salem,AR,72576,36.37111476,-91.82410954
Bank of Salem,Mammoth Spring Bank,Full Service Brick and Mortar Office,465 W Main Street,Mammoth Spring,AR,72554,36.49571345,-91.54244214
Bank of Salem,Viola,Full Service Brick and Mortar Office,9338 Hwy 62 West,Viola,AR,72583,36.3980215,-91.97483707
The Union Bank of Mena,Hatfield,Full Service Brick and Mortar Office,Highway 71 North At Taylor Street,Hatfield,AR,71945,34.48773,-94.3766415
The Union Bank of Mena,The Union Bank Of Mena,Full Service Brick and Mortar Office,303 Highway 71 North,Mena,AR,71953,34.58595157,-94.22869931
The Union Bank of Mena,Wickes Teller Window,Full Service Brick and Mortar Office,First Street And State Highway 4,Wickes,AR,71973,34.303608,-94.3375995
Priority Bank,Ozark,Full Service Brick and Mortar Office,400 West Commercial Street,Ozark,AR,72949,35.487243,-93.8283885
Priority Bank,Prairie Grove,Full Service Brick and Mortar Office,703 East Douglas Street,Prairie Grove,AR,72753,35.98261458,-94.30855059
Priority Bank,Priority Bank,Full Service Brick and Mortar Office,3401 East Mission Blvd,Fayetteville,AR,72703,36.088839,-94.1119425
Arkansas County Bank,Arkansas County Bank,Full Service Brick and Mortar Office,220 W Cross Street,De Witt,AR,72042,34.29532849,-91.337139
Arkansas County Bank,Arkansas County Bank,Full Service Brick and Mortar Office,600 East 22nd Street,Stuttgart,AR,72160,34.47917915,-91.54758309
Arkansas County Bank,Lockesburg,Full Service Brick and Mortar Office,103 W. Main,Lockesburg,AR,71846,33.96729051,-94.16876875
Evolve Bank & Trust,Evolve Bank & Trust,Full Service Brick and Mortar Office,301 Shoppingway Boulevard,West Memphis,AR,72301,35.16577614,-90.19102432
Evolve Bank & Trust,Parkin,Full Service Brick and Mortar Office,123 West Parkin,Parkin,AR,72373,35.26685623,-90.54667419
Evolve Bank & Trust,Wynne,Full Service Brick and Mortar Office,1690 Falls Boulevard North,Wynne,AR,72396,35.23841574,-90.78358801
First Naturalstate Bank,Dumas,Full Service Brick and Mortar Office,703 Meador Drive,Dumas,AR,71639,33.87766701,-91.47873241
First Naturalstate Bank,First Naturalstate Bank,Full Service Brick and Mortar Office,500 North Second Street,Mc Gehee,AR,71654,33.63213748,-91.39907451
First Naturalstate Bank,Mcgehee,Full Service Brick and Mortar Office,703 Ushwy 65 N.,Mc Gehee,AR,71654,33.61609854,-91.38259458
The Peoples Bank,Golden Oaks,Full Service Brick and Mortar Office,East Dixon And South Walnut Streets,Waldo,AR,71770,33.352398,-93.2936895
The Peoples Bank,Lakewood Banking Center,Full Service Brick and Mortar Office,103 Highway 79 Bypass North,Magnolia,AR,71753,33.28287485,-93.21433851
The Peoples Bank,The Peoples Bank,Full Service Brick and Mortar Office,500 North Jackson,Magnolia,AR,71753,33.2714874,-93.23913758
RiverBank,Corning,Full Service Brick and Mortar Office,309 S Missouri Avenue,Corning,AR,72422,36.410683,-90.58646459
RiverBank,Riverbank,Full Service Brick and Mortar Office,1700 Old County Road,Pocahontas,AR,72455,36.24851608,-90.96156747
Bank of Lake Village,Bank Of Lake Village,Full Service Brick and Mortar Office,101 Main Street,Lake Village,AR,71653,33.33095116,-91.28207431
Bank of Lake Village,Highway,Full Service Brick and Mortar Office,1015 Us Highway 65,Lake Village,AR,71653,33.3230881,-91.291967
COMMUNITY STATE BANK,Community State Bank,Full Service Brick and Mortar Office,208 West 4th Street,Bradley,AR,71826,33.09812733,-93.65712042
COMMUNITY STATE BANK,Jacksonville Loan Production Office,Limited Service Loan Production Office,104-B North James Street,Jacksonville,AR,72076,34.86762,-92.1192615
Logan County Bank,Conrad Street,Full Service Brick and Mortar Office,57 East State Highway 197,Subiaco,AR,72865,35.294625,-93.637143
Logan County Bank,Logan County Bank,Full Service Brick and Mortar Office,600 Main Street,Scranton,AR,72863,35.361117,-93.536928
Petit Jean State Bank,Petit Jean State Bank,Full Service Brick and Mortar Office,707 North St. Joseph Street,Morrilton,AR,72110,35.15888535,-92.73995144
Petit Jean State Bank,Petit Jean State Bank University Bra,Full Service Brick and Mortar Office,1620 University Boulevard,Morrilton,AR,72110,35.17067854,-92.72627156
Great Southern Bank,Southern Bankcorp Bank Of Trumann Br,Full Service Brick and Mortar Office,"2522 Pinnacle Hills Parkway, Suite 101",Rogers,AR,72758,36.31131,-94.187286
Great Southern Bank,University Square Shopping Center Br,Full Service Brick and Mortar Office,2552 W. Martin Luther King Blvd,Fayetteville,AR,72701,36.05350834,-94.1964472
Riverside Bank,Little Rock,Full Service Brick and Mortar Office,1001 West Markham Street,Little Rock,AR,72201,34.749342,-92.2812705
Riverside Bank,Riverside Bank,Full Service Brick and Mortar Office,Commerce And Main Streets,Sparkman,AR,71763,33.916599,-92.84796
The First National Bank of Tom Bean,Hope,Full Service Brick and Mortar Office,301 North Hervey Street,Hope,AR,71801,33.67061413,-93.59780076
The First National Bank of Tom Bean,Lewisville,Full Service Brick and Mortar Office,120 East First Street,Lewisville,AR,71845,33.355647,-93.576798
PREMIER BANK OF ARKANSAS,Missouri Street,Full Service Brick and Mortar Office,1103 North Missouri Street,West Memphis,AR,72301,35.15900716,-90.1847004
PREMIER BANK OF ARKANSAS,Premier Bank Of Arkansas,Full Service Brick and Mortar Office,205 Block Street,Marion,AR,72364,35.20759308,-90.20329657
Merchants and Farmers Bank,Bryant,Full Service Brick and Mortar Office,3512 Highway 5 North,Benton,AR,72019,34.61532542,-92.51692732
Merchants and Farmers Bank,Merchants And Farmers Bank,Full Service Brick and Mortar Office,500 Highway 65 South,Dumas,AR,71639,33.88027085,-91.48292226
BOKF,Bentonville,Full Service Brick and Mortar Office,1303 South East Walton Boulevard,Bentonville,AR,72712,36.33526441,-94.19342987
BOKF,Bk Arkansas Fayetteville,Full Service Brick and Mortar Office,3500 North College Ave,Fayetteville,AR,72703,36.115146,-94.144176
PEOPLES BANK,Peoples Bank,Full Service Brick and Mortar Office,1120 South Rock Street,Sheridan,AR,72150,34.29248437,-92.39895781
PEOPLES BANK,Peoples Bank (East End),Full Service Brick and Mortar Office,20409 Arch Street,Little Rock,AR,72206,34.56378132,-92.33680453
Horatio State Bank,Foreman,Full Service Brick and Mortar Office,707 Tracy Lawrence Avenue,Foreman,AR,71836,33.72164148,-94.39329103
Horatio State Bank,Horatio State Bank,Full Service Brick and Mortar Office,Pride And Main,Horatio,AR,71842,33.938469,-94.3572195
Security Bank,Security Bank,Full Service Brick and Mortar Office,108 Ruby Street,Stephens,AR,71764,33.41145141,-93.07022433
Security Bank,Security Bank Mortgage,Limited Service Loan Production Office,"1801 Central Aven., Suite D",Hot Springs National Park,AR,71901,34.494993,-93.0571695
De Witt Bank and Trust Company,De Witt Bank And Trust Company,Full Service Brick and Mortar Office,Second And Jefferson Streets,De Witt,AR,72042,34.293195,-91.3376115
De Witt Bank and Trust Company,Planters & Merchants Bank,Full Service Brick and Mortar Office,Main And Third Streets,Gillett,AR,72055,34.117416,-91.3797315
Bodcaw Bank,Bodcaw Bank,Full Service Brick and Mortar Office,307 Thomas Street,Stamps,AR,71860,33.361758,-93.4977285
Bodcaw Bank,Magnolia,Full Service Brick and Mortar Office,2125 North Jackson,Magnolia,AR,71753,33.2869735,-93.23537711
Gateway Bank,Bryant,Full Service Brick and Mortar Office,6110 Hwy 5 N,Bryant,AR,72022,34.627068,-92.496051
Gateway Bank,Gateway Bank,Full Service Brick and Mortar Office,112 Main Street,Rison,AR,71665,33.96040273,-92.19164105
Texana Bank,Arkansas Blvd,Full Service Brick and Mortar Office,502 Arkansas Blvd,Texarkana,AR,71854,33.459525,-94.037454
The Merchants & Planters Bank,The Merchants & Planters Bank,Full Service Brick and Mortar Office,297 Madison Street,Clarendon,AR,72029,34.69276952,-91.31194314
Bank of Bearden,Bank Of Bearden,Full Service Brick and Mortar Office,1 Second Street Nw,Bearden,AR,71720,33.72538687,-92.61625095
Firstar Bank,Fort Smith,Full Service Brick and Mortar Office,"4300 Rogers Avenue, Suite 7",Fort Smith,AR,72903,35.367867,-94.385484
Bank of Prescott,Bank Of Prescott,Full Service Brick and Mortar Office,East 2nd And Main Streets,Prescott,AR,71857,33.801354,-93.37968
ENCORE BANK,Encore Bank,Full Service Brick and Mortar Office,12224 Chenal Parkway,Little Rock,AR,72211,34.75009217,-92.41023482
SunTrust Bank,West Memphis Main,Full Service Brick and Mortar Office,125 West Broadway St,West Memphis,AR,72301,35.1465585,-90.1872495
Commerce Community Bank,The Eudora Bank Main Office,Full Service Brick and Mortar Office,111 North Main Street,Eudora,AR,71640,33.110325,-91.2616785
First Missouri Bank of SEMO,Leachville,Full Service Brick and Mortar Office,100 North Main Street,Leachville,AR,72438,35.93862682,-90.25798477
First National Banker's Bank,Arkansas,Full Service Brick and Mortar Office,"325 West Capitol, Suite 300",Little Rock,AR,72201,34.744248,-92.274381
Intrust Bank,"Rogers, Arkansas",Full Service Brick and Mortar Office,3300 Market Street,Rogers,AR,72758,36.306576,-94.188519
Commercial Capital Bank,East Adams Street Lpo,Limited Service Loan Production Office,308 E. Adams Street,Hamburg,AR,71646,33.2263185,-91.79530225
Wells Fargo Bank,Jefferson,Full Service Brick and Mortar Office,1301 Arkansas Blvd,Texarkana,AR,71854,33.461217,-94.0287465
