bank,branch,service,street,city,state,zip,latitude,longitude
Trustmark National Bank,Airpark,Full Service Brick and Mortar Office,4295 Hwy 80 East,Pearl,MS,39208,32.282784,-90.066222
Trustmark National Bank,Baptist Belhaven,Full Service Retail Office,"1200 North State Street, Suite 140",Jackson,MS,39202,32.31409533,-90.17815823
Trustmark National Bank,Barnes Crossing,Full Service Brick and Mortar Office,3907 N. Gloster,Tupelo,MS,38801,34.30779306,-88.7071947
Trustmark National Bank,Battlefield,Full Service Brick and Mortar Office,1725 Terry Road,Jackson,MS,39204,32.28517532,-90.20711048
Trustmark National Bank,Battlefield,Full Service Brick and Mortar Office,2205 N Frontage Rd,Vicksburg,MS,39180,32.32485311,-90.86530939
Trustmark National Bank,Beaumont,Full Service Brick and Mortar Office,935 Lodge Street,Beaumont,MS,39423,33.30223812,-88.63566704
Trustmark National Bank,Beechwood,Full Service Brick and Mortar Office,876 Highway 61 North,Vicksburg,MS,39180,32.35685627,-90.82854608
Trustmark National Bank,Broad Street,Full Service Brick and Mortar Office,722 Broad Street,Columbia,MS,39429,31.25069598,-89.82461829
Trustmark National Bank,Broadway Drive,Full Service Brick and Mortar Office,951 Broadway Drive,Hattiesburg,MS,39401,31.31002868,-89.31361373
Trustmark National Bank,Brookhaven Main,Full Service Brick and Mortar Office,148 South Whitworth Avenue,Brookhaven,MS,39601,31.57912492,-90.44316256
Trustmark National Bank,Byram,Full Service Brick and Mortar Office,7270 Siwell Road,Jackson,MS,39212,32.1902951,-90.26813269
Trustmark National Bank,Canton,Full Service Brick and Mortar Office,3319 South Liberty Street,Canton,MS,39046,32.611716,-90.035451
Trustmark National Bank,Castlewood,Full Service Brick and Mortar Office,5627 Highway 25,Flowood,MS,39232,32.356863,-90.013149
Trustmark National Bank,Cedar Lake,Full Service Brick and Mortar Office,1695 Popps Ferry Road,Biloxi,MS,39532,30.44266555,-88.93360944
Trustmark National Bank,Chateau Ridgeland,Limited Service Facility Office,745 South Pear Orchard,Ridgeland,MS,39157,32.4021531,-90.12354861
Trustmark National Bank,Choctaw Town Center,Full Service Brick and Mortar Office,110 Choctaw Town Center,Philadelphia,MS,39350,32.77164716,-89.19142269
Trustmark National Bank,Church Street Drive-In,Limited Service Facility Office,309 Walthall Street,Greenwood,MS,38930,33.5198785,-90.17998348
Trustmark National Bank,Clinton,Full Service Brick and Mortar Office,203 Clinton Boulevard,Clinton,MS,39056,32.33495277,-90.31394054
Trustmark National Bank,Colony Park,Full Service Brick and Mortar Office,1029 Highland Colony Parkway,Ridgeland,MS,39157,32.43941435,-90.14785287
Trustmark National Bank,Columbia,Full Service Brick and Mortar Office,709 Main Street,Columbia,MS,39429,31.25140165,-89.83527626
Trustmark National Bank,Columbus Main,Full Service Brick and Mortar Office,624 Main Street,Columbus,MS,39701,33.4953367,-88.42596472
Trustmark National Bank,Corinth Main,Full Service Brick and Mortar Office,501 Fillmore Street,Corinth,MS,38834,34.93511495,-88.52044214
Trustmark National Bank,Courthouse Square,Full Service Brick and Mortar Office,106 Courthouse Square,Oxford,MS,38655,34.3668592,-89.51903385
Trustmark National Bank,Crossgates,Full Service Brick and Mortar Office,101 Office Park Drive,Brandon,MS,39042,32.282802,-90.02727
Trustmark National Bank,Delaware,Full Service Brick and Mortar Office,1215 Delaware Avenue,Mccomb,MS,39648,31.24754254,-90.4674915
Trustmark National Bank,Dogwood,Full Service Brick and Mortar Office,101 Laurel Park Drive,Flowood,MS,39232,32.33791142,-90.06992492
Trustmark National Bank,Downtown Drive-In,Limited Service Facility Office,102 North Railroad Avenue,Brookhaven,MS,39601,31.57959931,-90.44213495
Trustmark National Bank,Drive-In,Full Service Brick and Mortar Office,106 Highway 16,Carthage,MS,39051,32.73369581,-89.53278228
Trustmark National Bank,East,Full Service Brick and Mortar Office,2001 Highway 45 North,Meridian,MS,39301,32.37781427,-88.68071903
Trustmark National Bank,East Canton Shopping Ctr,Full Service Brick and Mortar Office,658 East Peace Street,Canton,MS,39046,32.6128531,-90.01892754
Trustmark National Bank,Fairpark Crossing,Full Service Brick and Mortar Office,"110 East Main Street, Suite A",Tupelo,MS,38804,34.25744647,-88.702371
Trustmark National Bank,Fillmore,Limited Service Facility Office,611 Fillmore Street,Corinth,MS,38834,34.93588511,-88.52014355
Trustmark National Bank,Florence,Full Service Brick and Mortar Office,3081 Highway 49 South,Florence,MS,39073,32.155155,-90.1260585
Trustmark National Bank,Fondren,Full Service Brick and Mortar Office,3221 Old Canton Road,Jackson,MS,39216,32.33609463,-90.17371004
Trustmark National Bank,Fulton,Full Service Brick and Mortar Office,102 South Cummings Street,Fulton,MS,38843,34.27358496,-88.40910929
Trustmark National Bank,Gateway Center,Full Service Brick and Mortar Office,207 Alabama Street,Columbus,MS,39702,33.49600921,-88.38386313
Trustmark National Bank,Gloster,Full Service Brick and Mortar Office,162 Main Street,Gloster,MS,39638,31.19743862,-91.01955473
Trustmark National Bank,Goodman Airways,Full Service Brick and Mortar Office,50 Goodman Rd W,Southaven,MS,38671,34.9627598,-89.99062293
Trustmark National Bank,Greenville Main,Full Service Brick and Mortar Office,604 Washington Avenue,Greenville,MS,38701,33.41014688,-91.05846653
Trustmark National Bank,Greenville Mall,Full Service Brick and Mortar Office,1637 Highway 1 South,Greenville,MS,38701,33.37710462,-91.03953476
Trustmark National Bank,Greenwood Main,Full Service Brick and Mortar Office,212 Howard Street,Greenwood,MS,38930,33.52010726,-90.18258935
Trustmark National Bank,Gulfport,Full Service Brick and Mortar Office,2320 14th Street,Gulfport,MS,39501,30.36825815,-89.09057373
Trustmark National Bank,Halls Ferry Road,Full Service Brick and Mortar Office,3406 Halls Ferry Road,Vicksburg,MS,39180,32.31330718,-90.87645018
Trustmark National Bank,Hattiesburg Main,Full Service Brick and Mortar Office,One Trustmark Plaza,Hattiesburg,MS,39401,31.32735,-89.29071
Trustmark National Bank,Hazlehurst,Full Service Brick and Mortar Office,105 Caldwell Drive,Hazlehurst,MS,39083,31.86029422,-90.39616736
Trustmark National Bank,Heritage Banking Group,Full Service Brick and Mortar Office,114 South Pearl Street,Carthage,MS,39051,32.73659955,-89.5345459
Trustmark National Bank,Hernando Main,Full Service Brick and Mortar Office,2510 Highway 51 South,Hernando,MS,38632,34.8233937,-89.9940747
Trustmark National Bank,Highland Square,Full Service Brick and Mortar Office,776 Brookway Boulevard,Brookhaven,MS,39601,31.5793353,-90.46102514
Trustmark National Bank,Highland Village,Full Service Brick and Mortar Office,1351 East Northside Drive,Jackson,MS,39211,32.35570617,-90.14669841
Trustmark National Bank,Highway 18,Full Service Brick and Mortar Office,4801 Highway 18,Jackson,MS,39209,32.290308,-90.2707155
Trustmark National Bank,Highway 72,Full Service Brick and Mortar Office,101 Highway 72,Corinth,MS,38834,34.92524929,-88.52320892
Trustmark National Bank,Horn Lake,Full Service Brick and Mortar Office,2475 Goodman Road,Horn Lake,MS,38637,34.96259009,-90.0331792
Trustmark National Bank,Hwy 463,Full Service Brick and Mortar Office,229 New Mansdale Road,Madison,MS,39110,32.47434506,-90.15038801
Trustmark National Bank,Hwy 49,Limited Service Loan Production Office,"15465 Oak Lane, Unit 100a",Gulfport,MS,39503,30.45680543,-89.10188226
Trustmark National Bank,I-55 Drive-In,Limited Service Facility Office,534 East Commerce Street,Hernando,MS,38632,34.824321,-89.980218
Trustmark National Bank,Jackson Mall,Full Service Brick and Mortar Office,302 Woodrow Wilson Boulevard,Jackson,MS,39213,32.3269423,-90.18422653
Trustmark National Bank,Lake Harbour,Full Service Brick and Mortar Office,752 Lake Harbour Drive,Ridgeland,MS,39157,32.414562,-90.111321
Trustmark National Bank,Lakeland,Full Service Brick and Mortar Office,1895 Lakeland Drive,Jackson,MS,39216,32.33357108,-90.13844586
Trustmark National Bank,Laurel Main,Full Service Brick and Mortar Office,415 North Magnolia Street,Laurel,MS,39440,31.69349952,-89.12936118
Trustmark National Bank,Leigh Mall,Full Service Brick and Mortar Office,1404 Old Aberdeen Rd.,Columbus,MS,39701,33.51161491,-88.43308907
Trustmark National Bank,Leland,Full Service Brick and Mortar Office,201 North Broad Street,Leland,MS,38756,33.4046733,-90.89838423
Trustmark National Bank,Liberty,Full Service Brick and Mortar Office,140 Main Street,Liberty,MS,39645,31.15809492,-90.80857719
Trustmark National Bank,Lincoln Plaza,Full Service Brick and Mortar Office,200 Highway 51,Brookhaven,MS,39601,31.59739659,-90.45284432
Trustmark National Bank,Lincoln Road,Full Service Brick and Mortar Office,4358 Lincoln Road Extension Suite 30,Hattiesburg,MS,39402,31.299939,-89.3751885
Trustmark National Bank,Madison,Full Service Brick and Mortar Office,1015 Highway 51 North,Madison,MS,39110,32.46087334,-90.11175008
Trustmark National Bank,Magee Main,Full Service Brick and Mortar Office,103 Pinola Dr Sw,Magee,MS,39111,31.86540658,-89.73307118
Trustmark National Bank,Mccomb,Full Service Brick and Mortar Office,133 North Broadway,Mccomb,MS,39648,31.24483022,-90.45391231
Trustmark National Bank,Meadowbrook,Full Service Brick and Mortar Office,205 Meadowbrook Road,Jackson,MS,39206,32.3500484,-90.17732091
Trustmark National Bank,Medgar Evers Boulevard,Full Service Brick and Mortar Office,4890 Medgar Evers Boulevard,Jackson,MS,39213,32.35654601,-90.23237892
Trustmark National Bank,Meridian Main,Full Service Brick and Mortar Office,700 23rd Avenue,Meridian,MS,39301,32.364477,-88.70144698
Trustmark National Bank,Mize,Full Service Brick and Mortar Office,302 Highway 28 East,Mize,MS,39116,31.86739776,-89.55240035
Trustmark National Bank,Mortgage Loan Ser.-Jackson,Limited Service Loan Production Office,277 East Pearl Street,Jackson,MS,39201,32.29868126,-90.18482731
Trustmark National Bank,Mortgage Loan Services-Tupelo,Limited Service Loan Production Office,"301 South Thomas Street, Suite 106",Tupelo,MS,38801,34.251102,-88.74631272
Trustmark National Bank,Motor Bank,Limited Service Facility Office,605 Main Street,Greenville,MS,38701,33.40878113,-91.05951316
Trustmark National Bank,New Augusta,Full Service Brick and Mortar Office,100 Main Street,New Augusta,MS,39462,31.20415116,-89.03480836
Trustmark National Bank,North,Full Service Brick and Mortar Office,4921 Poplar Springs Drive,Meridian,MS,39301,32.41054303,-88.7004531
Trustmark National Bank,North Laurel,Full Service Brick and Mortar Office,3145 Audubon Drive,Laurel,MS,39440,31.72935886,-89.13897104
Trustmark National Bank,North State Street,Limited Service Facility Office,935 North State Street,Jackson,MS,39202,32.311044,-90.1788255
Trustmark National Bank,Northpark,Full Service Brick and Mortar Office,1108 County Line Road,Ridgeland,MS,39157,32.40045705,-90.24375593
Trustmark National Bank,Northpointe,Full Service Brick and Mortar Office,6248 Old Canton Road,Jackson,MS,39211,32.38850576,-90.11442188
Trustmark National Bank,Northside,Limited Service Facility Office,654 Caldwell Drive,Hazlehurst,MS,39083,31.87287623,-90.3979828
Trustmark National Bank,Oak Grove,Full Service Brick and Mortar Office,6401 Us Highway 98,Hattiesburg,MS,39402,31.31784719,-89.40797581
Trustmark National Bank,Olive,Full Service Brick and Mortar Office,9039 Pigeon Roost Rd,Olive Branch,MS,38654,34.96389246,-89.83016064
Trustmark National Bank,Operations Center,Limited Service Facility Office,101 West Water Street,Carthage,MS,39051,32.73578447,-89.53387153
Trustmark National Bank,Oxford,Full Service Brick and Mortar Office,714 Jackson Avenue,Oxford,MS,38655,34.36731971,-89.52229609
Trustmark National Bank,Park Avenue,Full Service Brick and Mortar Office,938 Hwy 82 West,Greenwood,MS,38930,33.52499147,-90.20485478
Trustmark National Bank,Pearl,Full Service Brick and Mortar Office,2425 Highway 80 East,Pearl,MS,39208,32.280327,-90.131562
Trustmark National Bank,Pearl,Full Service Brick and Mortar Office,2409 Highway 80 East,Pearl,MS,39208,32.28042227,-90.13271387
Trustmark National Bank,Pelahatchie,Full Service Brick and Mortar Office,102 Brooks Street,Pelahatchie,MS,39145,32.31328946,-89.79891614
Trustmark National Bank,Petal,Full Service Brick and Mortar Office,117 South Main Street,Petal,MS,39465,31.34545882,-89.26289718
Trustmark National Bank,Pinehaven,Full Service Brick and Mortar Office,1151 Pinehaven Blvd,Clinton,MS,39056,32.35104016,-90.32553481
Trustmark National Bank,Pinnacle,Full Service Brick and Mortar Office,190 E Capitol St Ste 150,Jackson,MS,39201,32.30011593,-90.18637573
Trustmark National Bank,Private Banking,Limited Service Facility Office,1701 Lakeland Drive,Jackson,MS,39216,32.33402298,-90.1436465
Trustmark National Bank,Rankin Main,Full Service Brick and Mortar Office,106 Government Street,Brandon,MS,39042,32.273478,-89.9877195
Trustmark National Bank,Richland,Full Service Brick and Mortar Office,1001 Highway 49 South,Pearl,MS,39208,32.220549,-90.156402
Trustmark National Bank,Ridgeland,Full Service Brick and Mortar Office,318 Highway 51 North,Ridgeland,MS,39157,32.41601678,-90.13754907
Trustmark National Bank,River Oaks,Full Service Brick and Mortar Office,3105 Lakeland Drive,Flowood,MS,39232,32.330844,-90.10773
Trustmark National Bank,Sawmill,Full Service Brick and Mortar Office,1005 Sawmill Road,Laurel,MS,39440,31.69365624,-89.13850833
Trustmark National Bank,South Gloster,Full Service Brick and Mortar Office,963 South Gloster Street,Tupelo,MS,38801,34.23644541,-88.71873132
Trustmark National Bank,South State Street,Full Service Brick and Mortar Office,504 South State Street,Jackson,MS,39201,32.294664,-90.1809225
Trustmark National Bank,Southaven,Full Service Brick and Mortar Office,2853 Goodman Road East,Southaven,MS,38671,34.96240223,-89.94006229
Trustmark National Bank,St. Catherine's,Limited Service Facility Office,200 Dominican Drive,Madison,MS,39110,32.45249124,-90.13564937
Trustmark National Bank,Starkville,Full Service Brick and Mortar Office,128 Hwy 12 West,Starkville,MS,39759,33.45415426,-88.8177104
Trustmark National Bank,Taylorsville,Full Service Brick and Mortar Office,404 Highway 28 East,Taylorsville,MS,39168,31.82975252,-89.42817978
Trustmark National Bank,Terry Road,Full Service Brick and Mortar Office,3311 Terry Road,Jackson,MS,39212,32.25483,-90.22419
Trustmark National Bank,The Day Center,Limited Service Loan Production Office,201 Country Place Parkway,Pearl,MS,39208,32.2713365,-90.08414417
Trustmark National Bank,The Orchard,Limited Service Facility Office,600 South Pear Orchard Road,Ridgeland,MS,39157,32.410674,-90.1215765
Trustmark National Bank,Trustmark National Bank,Full Service Brick and Mortar Office,248 East Capitol Street,Jackson,MS,39201,32.300235,-90.184374
Trustmark National Bank,Turtle Creek,Full Service Brick and Mortar Office,104 Mayfair Road,Hattiesburg,MS,39402,31.322007,-89.363916
Trustmark National Bank,Tylertown,Full Service Brick and Mortar Office,748 Beulah Avenue,Tylertown,MS,39667,31.1157787,-90.13900295
Trustmark National Bank,Tylertown Drive-In,Full Service Brick and Mortar Office,121 Beulah Avenue,Tylertown,MS,39667,31.11544718,-90.13446631
Trustmark National Bank,Unit #1 Mobile,Limited Service Mobile Office,248 East Capitol,Jackson,MS,39201,32.300235,-90.184374
Trustmark National Bank,Unit #11 Mobile,Limited Service Mobile Office,212 Howard Street,Greenwood,MS,38930,33.52010726,-90.18258935
Trustmark National Bank,Unit #12 Mobile,Limited Service Mobile Office,300 Pine Street West,Hattiesburg,MS,39401,31.32551882,-89.291923
Trustmark National Bank,Unit #13 Mobile,Limited Service Mobile Office,105 Caldwell Drive,Hazlehurst,MS,39083,31.86029422,-90.39616736
Trustmark National Bank,Unit #14 Mobile,Limited Service Mobile Office,2510 Highway 51 South,Hernando,MS,38632,34.8233937,-89.9940747
Trustmark National Bank,Unit #15 Mobile,Limited Service Mobile Office,2402 West Main,Tupelo,MS,38801,34.25582498,-88.74298341
Trustmark National Bank,Unit #16 Mobile,Limited Service Mobile Office,1301 Washington Street,Vicksburg,MS,39180,32.34987324,-90.88213667
Trustmark National Bank,University,Full Service Brick and Mortar Office,3112 Hardy Street,Hattiesburg,MS,39401,31.32472553,-89.33781832
Trustmark National Bank,Vicksburg Main,Full Service Brick and Mortar Office,1301 Washington Street,Vicksburg,MS,39180,32.34987324,-90.88213667
Trustmark National Bank,Wesley Meadows,Limited Service Facility Office,1325 Mcingvale Road,Hernando,MS,38632,34.84062236,-89.97227501
Trustmark National Bank,Wesson,Full Service Brick and Mortar Office,516 Spring Street,Wesson,MS,39191,31.70135888,-90.3977238
Trustmark National Bank,West,Full Service Brick and Mortar Office,612 Highway 11 South,Meridian,MS,39301,32.3479915,-88.73579238
Trustmark National Bank,West Laurel,Full Service Brick and Mortar Office,1500 West First Street,Laurel,MS,39440,31.68957268,-89.14552733
Trustmark National Bank,West Main,Full Service Brick and Mortar Office,2402 West Main Street,Tupelo,MS,38801,34.25582498,-88.74298341
Trustmark National Bank,Westland,Full Service Brick and Mortar Office,2516 Robinson Road,Jackson,MS,39209,32.30546323,-90.22799034
Trustmark National Bank,Y,Full Service Brick and Mortar Office,101 Main Street,Raleigh,MS,39153,32.03115338,-89.52356861
Regions Bank,Ackerman Industrial Remote Drive Thr,Limited Service Facility Office,8899 Highway 15,Ackerman,MS,39735,33.31521827,-89.17704222
Regions Bank,Ackerman Main,Full Service Brick and Mortar Office,29 E. Main Street,Ackerman,MS,39735,33.3104463,-89.17256534
Regions Bank,Airport Gulfport,Full Service Brick and Mortar Office,9420 Highway 49,Gulfport,MS,39503,30.424347,-89.091702
Regions Bank,Airways Southhaven,Full Service Brick and Mortar Office,7100 Airways Boulevard,Southaven,MS,38671,34.963677,-89.98987646
Regions Bank,Arbor,Full Service Brick and Mortar Office,4800 Hardy Street,Hattiesburg,MS,39402,31.322889,-89.3624535
Regions Bank,Ashland Center,Full Service Brick and Mortar Office,56 S. Main Street,Ashland,MS,38603,34.8328693,-89.1762963
Regions Bank,Barnes Crossing Mall,Full Service Brick and Mortar Office,3963 Mall Drive,Tupelo,MS,38801,34.30920703,-88.70397877
Regions Bank,Bassfield,Full Service Brick and Mortar Office,219 General Robert E. Blount Drive,Bassfield,MS,39421,31.49656379,-89.73895019
Regions Bank,Batesville Ms,Full Service Brick and Mortar Office,290 Hwy 6 West,Batesville,MS,38606,34.31144996,-89.94926628
Regions Bank,Bay St Louis,Full Service Brick and Mortar Office,1121 Highway 90,Bay Saint Louis,MS,39520,30.312396,-89.3614635
Regions Bank,Beechwood,Full Service Brick and Mortar Office,4140 Clay Street,Vicksburg,MS,39183,32.3438861,-90.83558928
Regions Bank,Bonita Lakes,Full Service Brick and Mortar Office,546 Bonita Lakes Drive,Meridian,MS,39301,32.36162951,-88.67335869
Regions Bank,Brookhaven,Full Service Brick and Mortar Office,714a Halbert Heights Road,Brookhaven,MS,39601,31.57568493,-90.45978578
Regions Bank,Bullfrog Corner,Full Service Brick and Mortar Office,1463 Goodman Road,Horn Lake,MS,38637,34.962057,-90.015804
Regions Bank,Byram S Siwell Rd,Full Service Brick and Mortar Office,7265 S. Siwell Road,Byram,MS,39272,32.19027781,-90.26821895
Regions Bank,Calhoun City Main,Full Service Brick and Mortar Office,211 N. Main Street,Calhoun City,MS,38916,33.74706446,-89.37188156
Regions Bank,Canton,Full Service Brick and Mortar Office,147 E. Peace Street,Canton,MS,39046,32.61263902,-90.0339335
Regions Bank,Cedar Lake,Full Service Brick and Mortar Office,905 Cedar Lake Road,Biloxi,MS,39532,30.44298477,-88.9339839
Regions Bank,Charleston Ms,Full Service Brick and Mortar Office,17 North Side Square,Charleston,MS,38921,42.14596968,-71.96238567
Regions Bank,Clarksdale Main,Full Service Brick and Mortar Office,211 E. Second Street,Clarksdale,MS,38614,34.20299114,-90.57337459
Regions Bank,Cleveland Ms Main,Full Service Brick and Mortar Office,129 South Sharp Avenue,Cleveland,MS,38732,33.7446436,-90.72159523
Regions Bank,Cleveland Shop City,Full Service Brick and Mortar Office,415 South Street,Cleveland,MS,38732,33.74251502,-90.71834433
Regions Bank,Clinton Ms,Full Service Brick and Mortar Office,609 Highway 80 East,Clinton,MS,39056,32.33341198,-90.31544294
Regions Bank,Clinton Plaza,Full Service Brick and Mortar Office,204 Clinton Blvd,Clinton,MS,39056,32.33481279,-90.31243201
Regions Bank,College Park Meridian,Full Service Brick and Mortar Office,834 Highway 19 North,Meridian,MS,39307,32.36526691,-88.73028462
Regions Bank,Collins,Full Service Brick and Mortar Office,503 Main Street,Collins,MS,39428,31.64360459,-89.55744416
Regions Bank,Columbia Ms,Full Service Brick and Mortar Office,1000 U.S. Highway 13 N.,Columbia,MS,39429,31.23120574,-89.82023265
Regions Bank,Columbus 710 Main St,Full Service Brick and Mortar Office,710 Main Street,Columbus,MS,39701,33.49545967,-88.42510761
Regions Bank,Corinth,Full Service Brick and Mortar Office,510 Taylor Street,Corinth,MS,38834,34.9349326,-88.51853001
Regions Bank,Cowan Road,Full Service Brick and Mortar Office,1015 Cowan Road,Gulfport,MS,39507,30.4001166,-89.026832
Regions Bank,Crossgates,Full Service Brick and Mortar Office,1595 W Government Street,Brandon,MS,39042,32.284332,-90.024687
Regions Bank,Crystal Springs Main,Full Service Brick and Mortar Office,326 E. Railroad Avenue,Crystal Springs,MS,39059,31.98753895,-90.35780187
Regions Bank,Dedeaux,Full Service Brick and Mortar Office,15380 Dedeaux Road,Gulfport,MS,39503,30.44951047,-89.098713
Regions Bank,Delaware,Full Service Brick and Mortar Office,1624 Delaware Avenue,Mccomb,MS,39648,31.24754748,-90.4737015
Regions Bank,Diberville,Full Service Brick and Mortar Office,10359 D'iberville Boulevard,Diberville,MS,39540,30.437064,-88.893783
Regions Bank,Dogwood Festival,Full Service Brick and Mortar Office,280 Dogwood Blvd.,Flowood,MS,39232,32.34059027,-90.05893588
Regions Bank,Duck Hill,Full Service Brick and Mortar Office,101 S. State Street,Duck Hill,MS,38925,33.63262341,-89.71061527
Regions Bank,East Columbus,Full Service Brick and Mortar Office,108 Alabama Street,Columbus,MS,39702,33.49672081,-88.38818283
Regions Bank,Edgewood Mccomb,Full Service Brick and Mortar Office,1324 Delaware Avenue,Mccomb,MS,39648,31.24757846,-90.46959236
Regions Bank,Eupora E Fox Ave Main,Full Service Brick and Mortar Office,619 W. Fox Avenue,Eupora,MS,39744,33.5421075,-89.26777766
Regions Bank,Eupora Southgate Remote Drive Thru B,Limited Service Facility Office,1195 Veterans Memorial Blvd,Eupora,MS,39744,33.53307623,-89.2638856
Regions Bank,Five Points Jackson,Full Service Brick and Mortar Office,359 W Woodrow Wilson Drive,Jackson,MS,39213,32.3266884,-90.19591966
Regions Bank,Fondren,Full Service Brick and Mortar Office,2727 N. State Street,Jackson,MS,39216,32.333373,-90.176904
Regions Bank,Goodman Rd,Full Service Brick and Mortar Office,969 Goodman Road E.,Southaven,MS,38671,34.96257813,-89.97260324
Regions Bank,Grants Ferry,Full Service Brick and Mortar Office,680 Grants Ferry Road,Flowood,MS,39232,32.35904167,-90.01326007
Regions Bank,Greenville Main St,Full Service Brick and Mortar Office,540 Main Street,Greenville,MS,38701,33.40945486,-91.06050619
Regions Bank,Greenville Sunny,Full Service Brick and Mortar Office,1531 Highway 1 S.,Greenville,MS,38701,33.37970359,-91.03932177
Regions Bank,Greenwood Front St Main,Full Service Brick and Mortar Office,211 Front Street,Greenwood,MS,38930,33.52194895,-90.18050007
Regions Bank,Greenwood Park Ave,Full Service Brick and Mortar Office,606 W. Park Avenue,Greenwood,MS,38930,33.52889001,-90.19896875
Regions Bank,Grenada Main,Full Service Brick and Mortar Office,2000 Gateway,Grenada,MS,38901,33.78271646,-89.82565242
Regions Bank,Grenada Plaza,Full Service Brick and Mortar Office,332 Sunset Drive,Grenada,MS,38901,33.76908345,-89.8073595
Regions Bank,Grenada Sunset,Full Service Brick and Mortar Office,1231 Sunset Drive,Grenada,MS,38901,33.77450247,-89.82290122
Regions Bank,Gulfport Ms,Full Service Brick and Mortar Office,2200 Fourteenth Street,Gulfport,MS,39501,30.36822255,-89.08910634
Regions Bank,Hattiesburg,Full Service Brick and Mortar Office,202 S. 40th Avenue,Hattiesburg,MS,39402,31.322907,-89.3473515
Regions Bank,Highland Colony,Full Service Brick and Mortar Office,109 Webster Circle,Madison,MS,39110,32.47180901,-90.14291173
Regions Bank,Houston Northgate,Full Service Brick and Mortar Office,905 N. Jackson Street,Houston,MS,38851,33.90995452,-89.00390643
Regions Bank,Hwy 45 North Columbus,Full Service Brick and Mortar Office,2114 Highway 45 North,Columbus,MS,39701,33.52385401,-88.43588984
Regions Bank,Hwy 51 Crystal Springs,Limited Service Facility Office,25073 Highway 51,Crystal Springs,MS,39059,31.99009191,-90.36564547
Regions Bank,Jackson Ms Main,Full Service Brick and Mortar Office,210 East Capitol Street,Jackson,MS,39201,32.300577,-90.1853235
Regions Bank,Jacksonian Express,Limited Service Facility Office,1459 Jacksonian Plaza,Jackson,MS,39211,32.362722,-90.147492
Regions Bank,Kosciusko Main,Full Service Brick and Mortar Office,620 Veterans Memorial Drive,Kosciusko,MS,39090,33.04691838,-89.57227892
Regions Bank,Lakeland Dr,Full Service Brick and Mortar Office,1675 Lakeland Drive,Jackson,MS,39216,32.333643,-90.1439775
Regions Bank,Laurel Main,Full Service Brick and Mortar Office,1415 W. Fifth Street,Laurel,MS,39440,31.69454834,-89.14428646
Regions Bank,Laurel Parkside Plaza,Full Service Brick and Mortar Office,1706 West 10th Street,Laurel,MS,39440,31.70047847,-89.14773978
Regions Bank,Leland,Full Service Brick and Mortar Office,104 N. Broad Street,Leland,MS,38756,33.40425287,-90.89866899
Regions Bank,Louisville Main,Full Service Brick and Mortar Office,16500 West Main Street,Louisville,MS,39339,33.12424443,-89.0705024
Regions Bank,Louisville Northgate,Limited Service Facility Office,3054 N. Church Avenue,Louisville,MS,39339,33.14903002,-89.08349024
Regions Bank,Madison 1050 Hwy 51,Full Service Brick and Mortar Office,1050 Highway 51,Madison,MS,39110,32.462784,-90.1101375
Regions Bank,Magnolia Mall,Full Service Brick and Mortar Office,265 Devereaux Drive,Natchez,MS,39120,31.55926685,-91.36863509
Regions Bank,Main Street Hattiesburg,Full Service Brick and Mortar Office,501 North Main Street,Hattiesburg,MS,39401,31.32661909,-89.289761
Regions Bank,Mccomb Main St,Full Service Brick and Mortar Office,211 Main Street,Mccomb,MS,39648,31.24371387,-90.45270523
Regions Bank,Meadowbrook 4229 N State St,Full Service Brick and Mortar Office,4229 North State Street,Jackson,MS,39206,32.34983739,-90.17537018
Regions Bank,Meridian Ms Main,Full Service Brick and Mortar Office,406 22nd Avenue,Meridian,MS,39301,32.3637764,-88.69969488
Regions Bank,Metro Center,Full Service Brick and Mortar Office,3755 Metro Drive,Jackson,MS,39209,32.30233805,-90.25208686
Regions Bank,Monticello Ms,Full Service Brick and Mortar Office,240 E. Broad Street,Monticello,MS,39654,31.55375052,-90.1070535
Regions Bank,Mt Olive,Full Service Brick and Mortar Office,515 Main Street,Mount Olive,MS,39119,31.76093818,-89.65485126
Regions Bank,Natchez Main,Full Service Brick and Mortar Office,413 S. Canal Street,Natchez,MS,39120,31.55845755,-91.40817837
Regions Bank,Natchez Medical Ctr 55 Sergeant Pren,Full Service Brick and Mortar Office,"55 Sergeant Prentiss Drive, Suite 1",Natchez,MS,39120,31.52834253,-91.3893249
Regions Bank,New Albany Center,Full Service Brick and Mortar Office,112 E. Bankhead Street,New Albany,MS,38652,34.49315467,-89.00726839
Regions Bank,Newton Main,Full Service Brick and Mortar Office,100 N. Main Street,Newton,MS,39345,32.3217483,-89.16294607
Regions Bank,North Hills Meridian,Full Service Brick and Mortar Office,2409 North Hills Street,Meridian,MS,39305,32.40934954,-88.70128128
Regions Bank,North State,Full Service Brick and Mortar Office,947 N. State Street,Jackson,MS,39202,32.31146796,-90.17807751
Regions Bank,Northeast Jackson,Full Service Brick and Mortar Office,1455 Jacksonian Plaza,Jackson,MS,39211,32.36303358,-90.14809285
Regions Bank,Northpark Mall,Full Service Brick and Mortar Office,1240 East County Line Road,Ridgeland,MS,39157,32.399973,-90.1301805
Regions Bank,Northside Dr,Limited Service Facility Office,3195 West Northside Drive,Jackson,MS,39213,32.35597247,-90.229689
Regions Bank,Northside Plaza Newton,Limited Service Facility Office,113 Northside Plaza,Newton,MS,39345,32.33308413,-89.1527256
Regions Bank,Northtown Jackson,Full Service Brick and Mortar Office,6220 Old Canton Road,Jackson,MS,39211,32.386455,-90.11538
Regions Bank,Ocean Springs,Full Service Brick and Mortar Office,811 Bienville Boulevard (Highway 90),Ocean Springs,MS,39564,30.416346,-88.8290235
Regions Bank,Olive,Full Service Brick and Mortar Office,8975 E. Goodman Road,Olive Branch,MS,38654,34.96191685,-89.83088483
Regions Bank,Oxford Eastgate Center,Full Service Brick and Mortar Office,1960 E. University Avenue,Oxford,MS,38655,34.36220975,-89.50772605
Regions Bank,Oxford Main Courthouse Sqr,Full Service Brick and Mortar Office,158 Court House Square,Oxford,MS,38655,34.36603369,-89.5191047
Regions Bank,Oxford Westside Center,Full Service Brick and Mortar Office,1800 Jackson Avenue W.,Oxford,MS,38655,34.36531406,-89.55352034
Regions Bank,Parkway,Full Service Brick and Mortar Office,1050 Parkway Boulevard,Flowood,MS,39232,32.33715634,-90.09115037
Regions Bank,Pascagoula,Full Service Brick and Mortar Office,1400 Jackson Avenue,Pascagoula,MS,39567,30.36537689,-88.55114611
Regions Bank,Pearl,Full Service Brick and Mortar Office,3006 Highway 80 East,Pearl,MS,39208,32.282919,-90.1210545
Regions Bank,Petal S Main St,Full Service Brick and Mortar Office,120 S. Main Street,Petal,MS,39465,31.34524911,-89.26294987
Regions Bank,Philadelphia,Full Service Brick and Mortar Office,534 Main Street,Philadelphia,MS,39350,32.77104855,-89.10752378
Regions Bank,Picayune,Full Service Brick and Mortar Office,407 Highway 11 S.,Picayune,MS,39466,30.52246496,-89.68068146
Regions Bank,Pike Mart,Limited Service Facility Office,1200 Lasalle Street,Mccomb,MS,39648,31.2315295,-90.45301112
Regions Bank,Prentiss,Full Service Brick and Mortar Office,2102 Columbia Avenue,Prentiss,MS,39474,31.5985267,-89.86713992
Regions Bank,Renaissance,Full Service Brick and Mortar Office,1020 Highland Colony Pkwy,Ridgeland,MS,39157,32.438682,-90.1460295
Regions Bank,Richland,Full Service Brick and Mortar Office,1185 Highway 49 South,Richland,MS,39218,32.215095,-90.1536705
Regions Bank,Ridgeland Hwy 51,Full Service Brick and Mortar Office,317 Highway 51 South,Ridgeland,MS,39157,32.41672428,-90.13716799
Regions Bank,Ripley Center,Full Service Brick and Mortar Office,305 East Pine Street,Ripley,MS,38663,34.73325589,-88.94734341
Regions Bank,Senatobia,Full Service Brick and Mortar Office,5641 Highway 51 North,Senatobia,MS,38668,34.6347293,-89.96870294
Regions Bank,Shiloh Rd,Full Service Brick and Mortar Office,2600 Kendrick Rd,Corinth,MS,38834,34.9451931,-88.49555554
Regions Bank,South West St,Limited Service Facility Office,700 S. West Street,Jackson,MS,39201,32.292207,-90.185994
Regions Bank,Southaven Northwest Dr,Full Service Brick and Mortar Office,8819 Northwest Drive,Southaven,MS,38671,34.989246,-90.006309
Regions Bank,Southwest Jackson,Full Service Brick and Mortar Office,5400 Highway 18 W.,Jackson,MS,39209,32.287212,-90.2720115
Regions Bank,Spillway Rd,Full Service Brick and Mortar Office,101 Spann Drive,Brandon,MS,39047,32.38183444,-90.04039624
Regions Bank,Starkville Main,Full Service Brick and Mortar Office,300 University Drive,Starkville,MS,39759,33.46381198,-88.81385766
Regions Bank,Steed Rd,Full Service Brick and Mortar Office,1031 Highland Colony Pkwy,Ridgeland,MS,39157,32.44034441,-90.14793982
Regions Bank,Sumner,Full Service Brick and Mortar Office,109 East Court Street,Sumner,MS,38957,33.97044093,-90.3693588
Regions Bank,Terry Rd,Full Service Brick and Mortar Office,2939 Terry Road,Jackson,MS,39212,32.26434864,-90.21958646
Regions Bank,Tupelo Center Main,Full Service Brick and Mortar Office,331 W. Main Street,Tupelo,MS,38804,34.25739156,-88.70671911
Regions Bank,Tupelo Medical Center,Full Service Brick and Mortar Office,934 South Gloster Street,Tupelo,MS,38801,34.23929198,-88.71818783
Regions Bank,Turtle Creek Mall,Full Service Brick and Mortar Office,1000 Turtle Creek Drive,Hattiesburg,MS,39402,31.32254412,-89.37679459
Regions Bank,Union,Full Service Brick and Mortar Office,405 Bank Street,Union,MS,39365,32.56897757,-89.12014726
Regions Bank,Water Valley,Full Service Brick and Mortar Office,1200 Central Street,Water Valley,MS,38965,34.16071497,-89.62863933
Regions Bank,West Broadway,Full Service Brick and Mortar Office,1491 Broadway Drive,Hattiesburg,MS,39402,31.304691,-89.320662
Regions Bank,West Point Main,Full Service Brick and Mortar Office,26661 E. Main Street,West Point,MS,39773,33.6071667,-88.64547914
Regions Bank,Westside Clarksdale,Full Service Brick and Mortar Office,109 Anderson Boulevard Extended,Clarksdale,MS,38614,34.18558034,-90.58907898
Regions Bank,Westside Tupelo,Full Service Brick and Mortar Office,111 South Thomas Street,Tupelo,MS,38801,34.25376583,-88.74632475
Regions Bank,Winona,Full Service Brick and Mortar Office,335 Summit Street,Winona,MS,38967,33.48243783,-89.73189894
Regions Bank,Yazoo City,Full Service Brick and Mortar Office,105 North Main Street,Yazoo City,MS,39194,32.84789879,-90.41331682
BancorpSouth Bank,Aberdeen,Full Service Brick and Mortar Office,U.S. Highway 45 North,Aberdeen,MS,39730,33.91581214,-88.59623012
BancorpSouth Bank,Bancorpsouth Bank,Full Service Brick and Mortar Office,201 South Spring Street,Tupelo,MS,38804,34.25625042,-88.70438527
BancorpSouth Bank,Batesville,Full Service Brick and Mortar Office,178 Commerce Street,Batesville,MS,38606,34.31033622,-89.94256611
BancorpSouth Bank,Bay Springs,Full Service Brick and Mortar Office,2796 Highway 15,Bay Springs,MS,39422,31.97476344,-89.28828898
BancorpSouth Bank,Biloxi Cedar Lake,Full Service Brick and Mortar Office,1778 Popps Ferry Rd,Biloxi,MS,39532,30.44268005,-88.94055746
BancorpSouth Bank,Biloxi Pass Road,Full Service Brick and Mortar Office,2364 Pass Road,Biloxi,MS,39531,30.40214272,-88.97382941
BancorpSouth Bank,Biloxi Vieux Marche,Full Service Brick and Mortar Office,760 Howard Avenue,Biloxi,MS,39530,30.396951,-88.887717
BancorpSouth Bank,Booneville Crossridge,Full Service Brick and Mortar Office,1107 N 2nd St,Booneville,MS,38829,34.67700882,-88.5606119
BancorpSouth Bank,Booneville Downtown,Full Service Brick and Mortar Office,207 S First Street,Booneville,MS,38829,34.6549318,-88.5646239
BancorpSouth Bank,Brandon Crossgates,Full Service Brick and Mortar Office,120 Service Drive,Brandon,MS,39042,32.283036,-90.0254385
BancorpSouth Bank,Bruce,Full Service Brick and Mortar Office,115 Town Square,Bruce,MS,38915,34.26827892,-89.58794961
BancorpSouth Bank,Byram,Full Service Brick and Mortar Office,5767 Terry Road,Byram,MS,39272,32.187489,-90.25927395
BancorpSouth Bank,Clinton,Full Service Brick and Mortar Office,407 Hwy 80 East,Clinton,MS,39056,32.334408,-90.3207735
BancorpSouth Bank,Columbus Hwy 45,Full Service Brick and Mortar Office,2220 Hwy 45 North,Columbus,MS,39701,33.52788275,-88.43661873
BancorpSouth Bank,Columbus Lehmberg,Full Service Brick and Mortar Office,120 N Lehmberg Rd,Columbus,MS,39702,33.49503059,-88.36309853
BancorpSouth Bank,Corinth Downtown,Full Service Brick and Mortar Office,601 N Fillmore Street,Corinth,MS,38834,34.9358247,-88.52016523
BancorpSouth Bank,Corinth Highway 72,Full Service Brick and Mortar Office,1906 S Harper Rd,Corinth,MS,38834,34.91468496,-88.50085204
BancorpSouth Bank,D'iberville,Full Service Brick and Mortar Office,10149 Central Ave,Diberville,MS,39540,30.43212605,-88.8911494
BancorpSouth Bank,Ellisville,Full Service Brick and Mortar Office,301 Hill Street,Ellisville,MS,39437,31.60601126,-89.19735884
BancorpSouth Bank,First Continental Leasing,Limited Service Loan Production Office,302 2nd Avenue,Hattiesburg,MS,39401,31.32406896,-89.29673635
BancorpSouth Bank,Florence-Branch,Full Service Brick and Mortar Office,111 East Main Street,Florence,MS,39073,32.15338698,-90.13061559
BancorpSouth Bank,Flowood Castlewoods,Full Service Brick and Mortar Office,100 Primos Rad,Flowood,MS,39232,32.35409751,-90.02117463
BancorpSouth Bank,Flowood Dogwood Festival,Full Service Brick and Mortar Office,150 E Metro Pkwy,Flowood,MS,39232,32.33682459,-90.06395447
BancorpSouth Bank,Forest,Full Service Brick and Mortar Office,326 West 3rd Street,Forest,MS,39074,32.36440205,-89.47718526
BancorpSouth Bank,Fulton,Full Service Brick and Mortar Office,301 W Wiygul St,Fulton,MS,38843,34.27284619,-88.40921706
BancorpSouth Bank,Grenada,Full Service Brick and Mortar Office,750 Sunset Dr,Grenada,MS,38901,33.76907653,-89.81163828
BancorpSouth Bank,Gulfport Courthouse Road,Full Service Brick and Mortar Office,524 Courthouse Road,Gulfport,MS,39501,30.388662,-89.04375
BancorpSouth Bank,Gulfport Cowan Road,Full Service Brick and Mortar Office,905 Cowanroad,Gulfport,MS,39507,30.399048,-89.027532
BancorpSouth Bank,Gulfport Downtown,Full Service Brick and Mortar Office,2909 13th Street,Gulfport,MS,39501,30.36709547,-89.0969265
BancorpSouth Bank,Gulfport Gateway,Full Service Brick and Mortar Office,15410 5th Street,Gulfport,MS,39503,30.453165,-89.09946
BancorpSouth Bank,Hattiesburg 98 Place,Full Service Brick and Mortar Office,6471 Us Highway 98,Hattiesburg,MS,39402,31.31763707,-89.41240125
BancorpSouth Bank,Hattiesburg Broadway,Full Service Brick and Mortar Office,713 Broadway Drive,Hattiesburg,MS,39401,31.312107,-89.311644
BancorpSouth Bank,Hattiesburg Downtown,Full Service Brick and Mortar Office,100 Hardy Street,Hattiesburg,MS,39401,31.3247203,-89.2937449
BancorpSouth Bank,Hattiesburg Loan Production Office,Limited Service Loan Production Office,12 Thompson Park,Hattiesburg,MS,39401,31.32470316,-89.30255674
BancorpSouth Bank,Hattiesburg Medical Center,Full Service Brick and Mortar Office,200 South 28 Avenue,Hattiesburg,MS,39401,31.322619,-89.330931
BancorpSouth Bank,Hattiesburg University,Full Service Brick and Mortar Office,3101 Hardy Street,Hattiesburg,MS,39401,31.32488208,-89.33642036
BancorpSouth Bank,Hattiesburg Westwood,Full Service Brick and Mortar Office,4650 Hardy Street,Hattiesburg,MS,39402,31.323276,-89.3601225
BancorpSouth Bank,Hernando Commerce,Full Service Brick and Mortar Office,60 East Commerce Street,Hernando,MS,38632,34.8236505,-89.988246
BancorpSouth Bank,Hernando Mcingvale,Full Service Brick and Mortar Office,1035 Mcingvale Rd,Hernando,MS,38632,34.84499336,-89.9722515
BancorpSouth Bank,Horn Lake,Full Service Brick and Mortar Office,1562 Goodman Rd W,Horn Lake,MS,38637,34.963146,-90.018495
BancorpSouth Bank,Houston Ms Downtown,Full Service Brick and Mortar Office,115 East Washington Street,Houston,MS,38851,33.89775343,-88.9999741
BancorpSouth Bank,Houston Ms North Jackson St,Full Service Brick and Mortar Office,821 N Jackson St,Houston,MS,38851,33.90830452,-89.00336703
BancorpSouth Bank,Iuka,Full Service Brick and Mortar Office,127 E Front St,Iuka,MS,38852,34.81131657,-88.19034511
BancorpSouth Bank,Jackson Ms Canton Mart Road,Full Service Brick and Mortar Office,1451 Canton Mart Road,Jackson,MS,39211,32.36664354,-90.148014
BancorpSouth Bank,Jackson Ms Capitol Street,Full Service Brick and Mortar Office,525 East Capitol Street,Jackson,MS,39201,32.2992786,-90.18084053
BancorpSouth Bank,Jackson Ms Lakeland,Full Service Brick and Mortar Office,1501 Lakeland Drive,Jackson,MS,39216,32.333625,-90.147753
BancorpSouth Bank,Jackson Ms Mcdowell Road,Full Service Brick and Mortar Office,2866 Mcdowell Rd Ext,Jackson,MS,39204,32.26909988,-90.26018849
BancorpSouth Bank,Jackson Ms Medical Center,Full Service Brick and Mortar Office,2600 North State Street,Jackson,MS,39216,32.332581,-90.1753155
BancorpSouth Bank,Laurel,Full Service Brick and Mortar Office,317 North 5th Avenue,Laurel,MS,39440,31.6930227,-89.13104824
BancorpSouth Bank,Laurel West,Full Service Brick and Mortar Office,110 South 16th Avenue,Laurel,MS,39440,31.6889907,-89.1466938
BancorpSouth Bank,Louisville,Full Service Brick and Mortar Office,2009 S Church Ave,Louisville,MS,39339,33.10573926,-89.05717099
BancorpSouth Bank,Louisville Downtown,Full Service Brick and Mortar Office,16550 West Main Street,Louisville,MS,39339,33.12424443,-89.0705024
BancorpSouth Bank,Lumberton,Full Service Brick and Mortar Office,201 W Main Ave,Lumberton,MS,39455,31.00097777,-89.45121104
BancorpSouth Bank,Madison Colony Crossing,Full Service Brick and Mortar Office,120 Colony Crossing,Madison,MS,39110,32.4736227,-90.14144035
BancorpSouth Bank,Madison Main Street,Full Service Brick and Mortar Office,2174 Main Street,Madison,MS,39110,32.46036287,-90.10878425
BancorpSouth Bank,Magee,Full Service Brick and Mortar Office,1671 Simpson Highway 49,Magee,MS,39111,31.86994055,-89.74748188
BancorpSouth Bank,Mantachie,Full Service Brick and Mortar Office,3230 Highway 371 N,Mantachie,MS,38855,34.31739876,-88.49264427
BancorpSouth Bank,Nettleton,Full Service Brick and Mortar Office,219 Main Street,Nettleton,MS,38858,34.08895182,-88.6238145
BancorpSouth Bank,New Albany,Full Service Brick and Mortar Office,416 Ms-15 S,New Albany,MS,38652,34.47092878,-89.00561253
BancorpSouth Bank,Oakland Ms,Full Service Brick and Mortar Office,305 Oak St,Oakland,MS,38948,34.05472248,-89.91590166
BancorpSouth Bank,Ocean-Springs,Full Service Brick and Mortar Office,1003 Washington Avenue,Ocean Springs,MS,39564,30.415779,-88.828236
BancorpSouth Bank,Olive,Full Service Brick and Mortar Office,8966 Goodman Avenue,Olive Branch,MS,38654,34.96206211,-89.83114968
BancorpSouth Bank,Olive Craft Road Main,Full Service Brick and Mortar Office,6955 Goodman Rd,Olive Branch,MS,38654,34.96214009,-89.86641577
BancorpSouth Bank,Olive Hacks Cross,Full Service Brick and Mortar Office,7100 Hacks Cross Rd,Olive Branch,MS,38654,34.96420816,-89.79533151
BancorpSouth Bank,Oxford Downtown,Full Service Brick and Mortar Office,517 South Lamar Boulevard,Oxford,MS,38655,34.36390703,-89.51922362
BancorpSouth Bank,Oxford Jackson Avenue,Limited Service Facility Office,1929 Jackson Avenue West,Oxford,MS,38655,34.36393047,-89.55695162
BancorpSouth Bank,Pearl,Full Service Brick and Mortar Office,2301 Highway 80 East,Pearl,MS,39208,32.279823,-90.133506
BancorpSouth Bank,Petal Central Avenue,Full Service Brick and Mortar Office,143 W Central Ave,Petal,MS,39465,31.346307,-89.266905
BancorpSouth Bank,Petal Eastbrook,Full Service Brick and Mortar Office,27 Byrd Pkwy,Petal,MS,39465,31.35154743,-89.23355731
BancorpSouth Bank,Pontotoc,Full Service Brick and Mortar Office,103 Mccord Rd,Pontotoc,MS,38863,34.28523854,-89.02470173
BancorpSouth Bank,Richland,Full Service Brick and Mortar Office,1020 Highway 49 South,Richland,MS,39218,32.220252,-90.154494
BancorpSouth Bank,Ridgeland Colony Park,Full Service Brick and Mortar Office,1049 Highland Colony Pkwy,Ridgeland,MS,39157,32.4419655,-90.14865464
BancorpSouth Bank,Ridgeland Pear Orchard,Full Service Brick and Mortar Office,758 S Pear Orchard Rd,Ridgeland,MS,39157,32.40355845,-90.12347043
BancorpSouth Bank,Saltillo,Full Service Brick and Mortar Office,2541 Highway 145,Saltillo,MS,38866,34.36697015,-88.70205144
BancorpSouth Bank,Senatobia,Full Service Brick and Mortar Office,5100 Highway 51 North,Senatobia,MS,38668,34.627464,-89.96854607
BancorpSouth Bank,Sherman,Full Service Brick and Mortar Office,66 E Main Street,Sherman,MS,38869,34.35899345,-88.84012071
BancorpSouth Bank,Southaven Airways,Full Service Brick and Mortar Office,7125 Airways Blvd,Southaven,MS,38671,34.96441254,-89.9899683
BancorpSouth Bank,Southaven Church Road,Full Service Brick and Mortar Office,1046 Church Rd W,Southaven,MS,38671,34.93360148,-90.0083385
BancorpSouth Bank,Southaven Northwest Drive,Full Service Brick and Mortar Office,8848 Northwest Drive,Southaven,MS,38671,34.989741,-90.00479303
BancorpSouth Bank,Southaven Snowden Grove,Full Service Brick and Mortar Office,5980 Getwell Rd,Southaven,MS,38672,34.94745,-89.93671497
BancorpSouth Bank,Starkville Midtown,Full Service Brick and Mortar Office,400 University Drive,Starkville,MS,39759,33.46380332,-88.81013132
BancorpSouth Bank,Starkville-Crossing,Full Service Brick and Mortar Office,802 Highway 12 West,Starkville,MS,39759,33.44927186,-88.83852698
BancorpSouth Bank,Tishomingo,Full Service Brick and Mortar Office,1284 Main Street,Tishomingo,MS,38873,34.63629654,-88.2320232
BancorpSouth Bank,Tupelo Barnes Crossing,Full Service Brick and Mortar Office,4359 Mall Drive,Tupelo,MS,38804,34.31368798,-88.70282468
BancorpSouth Bank,Tupelo Coley Road,Full Service Brick and Mortar Office,456 S Coley Rd,Tupelo,MS,38801,34.25062486,-88.77267779
BancorpSouth Bank,Tupelo Gloster Creek,Full Service Brick and Mortar Office,430 South Gloster Street,Tupelo,MS,38801,34.25178099,-88.71616149
BancorpSouth Bank,Tupelo Industrial,Full Service Brick and Mortar Office,1215 South Gloster Street,Tupelo,MS,38801,34.23016846,-88.71970333
BancorpSouth Bank,Tupelo Lakeshire,Full Service Brick and Mortar Office,1851 North Gloster Street,Tupelo,MS,38804,34.28595494,-88.71485251
BancorpSouth Bank,Tupelo Mortgage Operations,Limited Service Loan Production Office,"2778 W Jackson St., Bldg C, 2nd Floor",Tupelo,MS,38801,34.26488885,-88.76401427
BancorpSouth Bank,Tupelo Presley Heights,Full Service Brick and Mortar Office,100 N Veterans Blvd,Tupelo,MS,38801,34.25797909,-88.68309881
BancorpSouth Bank,Vardaman,Full Service Brick and Mortar Office,205 W Sweet Potato Street,Vardaman,MS,38878,33.87523448,-89.18026064
BancorpSouth Bank,Vicksburg 61 North,Full Service Brick and Mortar Office,1240 Highway 61 North,Vicksburg,MS,39183,32.36219216,-90.82814601
BancorpSouth Bank,Vicksburg Downtown,Full Service Brick and Mortar Office,820 South Street,Vicksburg,MS,39180,32.34789567,-90.88057258
BancorpSouth Bank,Vicksburg Indiana Avenue,Full Service Brick and Mortar Office,3134 Indiana Ave,Vicksburg,MS,39180,32.32972165,-90.85943295
BancorpSouth Bank,Vicksburg Pemberton,Full Service Brick and Mortar Office,3312 Pemberton Square Boulevard,Vicksburg,MS,39180,32.31523305,-90.87877207
BancorpSouth Bank,Waynesboro,Full Service Brick and Mortar Office,600 Azalea Drive,Waynesboro,MS,39367,31.67348954,-88.64825258
BancorpSouth Bank,West Point Downtown,Full Service Brick and Mortar Office,662 E Broad St,West Point,MS,39773,33.60472761,-88.64789988
Renasant Bank,Aberdeen,Full Service Brick and Mortar Office,103 East Washington Street,Aberdeen,MS,39730,33.82411071,-88.54379792
Renasant Bank,Ackerman,Full Service Brick and Mortar Office,9027 Ms Highway 15,Ackerman,MS,39735,33.31721749,-89.17719124
Renasant Bank,Amory Main,Full Service Brick and Mortar Office,201 North Main Street,Amory,MS,38821,33.98640228,-88.4901248
Renasant Bank,Batesville,Full Service Brick and Mortar Office,100 Bates Street,Batesville,MS,38606,34.31050195,-89.94669873
Renasant Bank,Booneville Main,Full Service Brick and Mortar Office,213 West Market Street,Booneville,MS,38829,34.65533993,-88.56400417
Renasant Bank,Booneville Northgate,Full Service Brick and Mortar Office,1114 North 2nd Street,Booneville,MS,38829,34.67701818,-88.56054858
Renasant Bank,Brandon,Full Service Brick and Mortar Office,1285 West Government Street,Brandon,MS,39042,32.28280747,-90.00876322
Renasant Bank,Bruce,Full Service Brick and Mortar Office,105 Town Square,Bruce,MS,38915,34.26829914,-89.58802387
Renasant Bank,Calhoun City,Full Service Brick and Mortar Office,544 Veterans Boulevard,Calhoun City,MS,38916,33.85622232,-89.27180347
Renasant Bank,"Canton, Ms",Full Service Brick and Mortar Office,3330 S Liberty St,Canton,MS,39046,32.612409,-90.0346455
Renasant Bank,Church Road,Full Service Brick and Mortar Office,510 Church Road West,Southaven,MS,38671,34.93364189,-89.99905189
Renasant Bank,Cleveland,Full Service Brick and Mortar Office,308 East Sunflower Road,Cleveland,MS,38732,33.74747648,-90.71856059
Renasant Bank,Cleveland Drive Thru,Limited Service Facility Office,306 East Sunflower Road,Cleveland,MS,38732,33.74748351,-90.71909881
Renasant Bank,Clinton,Full Service Brick and Mortar Office,411 Highway 80 E,Clinton,MS,39056,32.334453,-90.3200985
Renasant Bank,Clinton,Limited Service Loan Production Office,"322 Highway 80, Suite D",Clinton,MS,39056,32.33357248,-90.32326513
Renasant Bank,Coffeeville,Full Service Brick and Mortar Office,14625 Depot Street,Coffeeville,MS,38922,33.97478201,-89.67258904
Renasant Bank,Columbus Ms,Full Service Brick and Mortar Office,905 Main Street,Columbus,MS,39701,33.49593333,-88.42298184
Renasant Bank,"Columbus, Ms 18th Avenue",Full Service Brick and Mortar Office,595 18th Avenue North,Columbus,MS,39701,33.51433528,-88.42731042
Renasant Bank,Corinth Harper Road,Full Service Brick and Mortar Office,1505 South Harper Road,Corinth,MS,38834,34.91785989,-88.49814411
Renasant Bank,Corinth Main,Full Service Brick and Mortar Office,304 South Cass Street,Corinth,MS,38834,34.93002741,-88.51863187
Renasant Bank,Coulter,Full Service Brick and Mortar Office,701 Coulter Drive,New Albany,MS,38652,34.49798508,-89.02978529
Renasant Bank,Durant,Full Service Brick and Mortar Office,381 Nw Depot St,Durant,MS,39063,33.07520795,-89.85285499
Renasant Bank,East Main,Limited Service Facility Office,164 Veterans Boulevard,Tupelo,MS,38804,34.25880184,-88.68292879
Renasant Bank,Flowood,Full Service Brick and Mortar Office,4247 Lakeland Dr,Flowood,MS,39232,32.338503,-90.090234
Renasant Bank,Grenada,Full Service Brick and Mortar Office,1537 South Commerce Street,Grenada,MS,38901,33.76664044,-89.80897158
Renasant Bank,Grenada Sunset Drive,Full Service Brick and Mortar Office,1314 Sunset Drive,Grenada,MS,38901,33.77680742,-89.82470475
Renasant Bank,Guntown,Limited Service Facility Office,1427 Highway 145,Guntown,MS,38849,34.44743061,-88.66615101
Renasant Bank,"Hazlehurst, Ms",Full Service Brick and Mortar Office,649 North Caldwell Drive,Hazlehurst,MS,39083,31.87307544,-90.39814013
Renasant Bank,Hernando,Full Service Brick and Mortar Office,180 East Commerce,Hernando,MS,38632,34.82367162,-89.98642305
Renasant Bank,Hi-Way 15 North,Full Service Brick and Mortar Office,309 Highway 15 North,Pontotoc,MS,38863,34.26524517,-89.01949858
Renasant Bank,Highland Colony,Full Service Brick and Mortar Office,1600 Highland Colony Parkway,Madison,MS,39110,32.46864728,-90.14212075
Renasant Bank,Horn Lake,Full Service Brick and Mortar Office,3082 West Goodman Road,Horn Lake,MS,38637,34.96272091,-90.04601041
Renasant Bank,Iuka,Full Service Brick and Mortar Office,508 Constitution Drive,Iuka,MS,38852,34.81603468,-88.19748919
Renasant Bank,Lake Harbour,Full Service Brick and Mortar Office,732 Lake Harbour,Ridgeland,MS,39157,32.41408987,-90.11289637
Renasant Bank,Louisville,Full Service Brick and Mortar Office,301 North Church Street,Louisville,MS,39339,33.12573576,-89.05545833
Renasant Bank,Madison Admin,Full Service Retail Office,966 Hwy 51 S,Madison,MS,39110,32.45739176,-90.11339252
Renasant Bank,Madison,Full Service Brick and Mortar Office,100 Old Canton Road And Highway 51 South,Madison,MS,39110,32.579109,-90.0496485
Renasant Bank,Mccullough Boulevard,Limited Service Facility Office,3002 Mccullough Boulevard,Belden,MS,38826,34.29896361,-88.77358001
Renasant Bank,Medical Center,Limited Service Facility Office,951 South Gloster Street,Tupelo,MS,38801,34.23878839,-88.71835309
Renasant Bank,Merchants And Farmers Bank,Full Service Brick and Mortar Office,221 East Washington Street,Kosciusko,MS,39090,33.05855381,-89.58849523
Renasant Bank,Metropolitan Bank,Full Service Brick and Mortar Office,201 S. Jackson Street,Crystal Springs,MS,39059,31.98573619,-90.35748167
Renasant Bank,Metropolitan Bank,Full Service Brick and Mortar Office,1069 Highland Colony Parkway,Ridgeland,MS,39157,32.44419473,-90.15093123
Renasant Bank,New Albany,Full Service Brick and Mortar Office,300 East Bankhead Street,New Albany,MS,38652,34.49159135,-89.00547354
Renasant Bank,North Side Drive-In,Full Service Brick and Mortar Office,220 Highway 12 E,Kosciusko,MS,39090,33.06595939,-89.588428
Renasant Bank,Okolona,Full Service Brick and Mortar Office,511 South Church Street,Okolona,MS,38860,33.99239714,-88.7552526
Renasant Bank,Olive,Full Service Brick and Mortar Office,6890 Cockrum Road,Olive Branch,MS,38654,34.96049236,-89.83032872
Renasant Bank,Olive Office,Full Service Brick and Mortar Office,6543 Goodman Road,Olive Branch,MS,38654,34.96214009,-89.87416968
Renasant Bank,Oxford Main,Full Service Brick and Mortar Office,2527 Jackson Avenue West,Oxford,MS,38655,34.36211001,-89.56566553
Renasant Bank,Oxford Main,Full Service Brick and Mortar Office,1111 East Jackson Avenue,Oxford,MS,38655,34.36693404,-89.51939276
Renasant Bank,Pearl,Full Service Brick and Mortar Office,3101 Highway 80 East,Pearl,MS,39208,32.28277936,-90.11721314
Renasant Bank,Philadelphia Westside,Full Service Brick and Mortar Office,1012 W Beacon St,Philadelphia,MS,39350,32.76935237,-89.12998677
Renasant Bank,Pontotoc Main,Full Service Brick and Mortar Office,37 Main Street,Pontotoc,MS,38863,34.35899883,-88.84175219
Renasant Bank,Renasant Bank,Full Service Brick and Mortar Office,209 Troy Street,Tupelo,MS,38801,34.25660254,-88.70504914
Renasant Bank,Ridgeland Ms Township,Full Service Brick and Mortar Office,1069 Highland Colony Parkway,Ridgeland,MS,39157,32.44419473,-90.15093123
Renasant Bank,Saltillo,Full Service Brick and Mortar Office,367 Mobile Street,Saltillo,MS,38866,34.37659888,-88.68292734
Renasant Bank,Sardis,Full Service Brick and Mortar Office,120 South Main Street,Sardis,MS,38666,34.43670354,-89.91615477
Renasant Bank,Shannon,Full Service Brick and Mortar Office,232 Broad Street,Shannon,MS,38868,34.11740752,-88.70481975
Renasant Bank,South Broadway,Limited Service Facility Office,216 South Broadway Street,Tupelo,MS,38804,34.25607005,-88.70536326
Renasant Bank,Southaven,Full Service Brick and Mortar Office,7500 Airways Boulevard,Southaven,MS,38671,34.96924547,-89.9898447
Renasant Bank,Spillway Road,Full Service Brick and Mortar Office,1934 Spillway Road,Brandon,MS,39047,32.379831,-90.036594
Renasant Bank,Starkville,Full Service Brick and Mortar Office,500 East Lampkin Street,Starkville,MS,39759,33.4627357,-88.80878233
Renasant Bank,Starkville Crossing,Full Service Brick and Mortar Office,806 Highway 12 W,Starkville,MS,39759,33.44893254,-88.83902375
Renasant Bank,Third Street Drive-In,Limited Service Facility Office,913 U.S. Highway 278 East,Amory,MS,38821,33.98028801,-88.47608914
Renasant Bank,Tradewind,Limited Service Facility Office,1901 University Avenue,Oxford,MS,38655,34.36260421,-89.50914399
Renasant Bank,Tupelo Barnes Crossing,Full Service Brick and Mortar Office,3680 North Gloster Street,Tupelo,MS,38801,34.30577808,-88.7072448
Renasant Bank,Tupelo Fairpark,Full Service Brick and Mortar Office,82 A&B Clark Boulevard,Tupelo,MS,38804,34.25450919,-88.70080675
Renasant Bank,Tupelo Traceway,Full Service Brick and Mortar Office,2751 West Main Street,Tupelo,MS,38801,34.25392321,-88.75165351
Renasant Bank,Verona,Full Service Brick and Mortar Office,5033 Raymond Street,Verona,MS,38879,34.19340364,-88.7199517
Renasant Bank,Water Valley,Full Service Brick and Mortar Office,1100 Central Street,Water Valley,MS,38965,34.15992192,-89.62906193
Renasant Bank,West Point Main,Full Service Brick and Mortar Office,26164 West Main Street,West Point,MS,39773,33.60706521,-88.65400578
Renasant Bank,Westgate,Limited Service Facility Office,210 Industrial Road South,Tupelo,MS,38801,34.253361,-88.72002227
Renasant Bank,Winona,Full Service Brick and Mortar Office,400 Summit Street,Winona,MS,38967,33.48265119,-89.73369957
BankPlus,2303 8th Street,Full Service Brick and Mortar Office,215 22nd Street,Meridian,MS,39301,32.38081615,-88.67704535
BankPlus,Adkins Boulevard,Full Service Brick and Mortar Office,730 Adkins Boulevard,Jackson,MS,39211,32.38538412,-90.14416606
BankPlus,Bankplus,Full Service Brick and Mortar Office,202 Jackson Street,Belzoni,MS,39038,33.17771253,-90.48710816
BankPlus,Bentonia,Full Service Brick and Mortar Office,220 East Side Railroad Street,Bentonia,MS,39040,32.6551635,-90.3731355
BankPlus,Byram,Full Service Brick and Mortar Office,7340 S Siwell Rd,Byram,MS,39272,32.189715,-90.2655765
BankPlus,Canton,Full Service Brick and Mortar Office,3366 North Liberty Street,Canton,MS,39046,32.614137,-90.03485255
BankPlus,Castlewoods,Full Service Brick and Mortar Office,509 Lakeland Place,Flowood,MS,39232,32.3556102,-90.01628289
BankPlus,Civic Center,Full Service Brick and Mortar Office,4950 Venture Drive,Southaven,MS,38671,34.9325991,-89.99732443
BankPlus,Clinton Boulevard,Full Service Brick and Mortar Office,217 Clinton Boulevard,Clinton,MS,39056,32.33486928,-90.3125073
BankPlus,Clinton Parkway,Full Service Brick and Mortar Office,108 West Cynthia Street,Clinton,MS,39056,32.348907,-90.3262455
BankPlus,Clinton Springridge,Full Service Brick and Mortar Office,102 Johnston Place,Clinton,MS,39056,32.32407005,-90.32425399
BankPlus,Coley Road Office,Full Service Brick and Mortar Office,4001 West Main Street,Tupelo,MS,38804,34.24972153,-88.77334279
BankPlus,Dogwood Banking Office,Full Service Brick and Mortar Office,193 Promenade Boulevard,Flowood,MS,39232,32.34298861,-90.05882857
BankPlus,Downtown Brandon,Full Service Brick and Mortar Office,241 West Government Street,Brandon,MS,39042,32.272659,-89.9888085
BankPlus,Durant,Full Service Brick and Mortar Office,15351 North Jackson Street,Durant,MS,39063,33.07649454,-89.85368245
BankPlus,Echelon,Full Service Brick and Mortar Office,6410 Watkins Dr,Jackson,MS,39213,32.391693,-90.19247201
BankPlus,Fairpark,Full Service Brick and Mortar Office,205 East Troy Street,Tupelo,MS,38804,34.25656669,-88.70453207
BankPlus,Fifteenth Street,Full Service Brick and Mortar Office,712 East Fifteenth Street,Yazoo City,MS,39194,32.86411406,-90.39497224
BankPlus,Flora,Full Service Brick and Mortar Office,4837 Main Street,Flora,MS,39071,32.54294471,-90.31003552
BankPlus,Fondren,Full Service Brick and Mortar Office,"3100 North State Street, Suite 100",Jackson,MS,39216,32.335912,-90.17644311
BankPlus,Frontage Road,Full Service Brick and Mortar Office,129 S. Frontage Road,Newton,MS,39345,32.33155151,-89.15334356
BankPlus,Gluckstadt,Full Service Brick and Mortar Office,1243 Gluckstadt Road,Madison,MS,39110,32.51701052,-90.09590078
BankPlus,Goodman Road,Full Service Brick and Mortar Office,2304 Goodman Road,Horn Lake,MS,38637,34.96269048,-90.030762
BankPlus,Goodman Road,Full Service Brick and Mortar Office,3045 Goodman Road,Southaven,MS,38672,34.96243352,-89.93595953
BankPlus,Greenfield Road,Full Service Brick and Mortar Office,100 Orleans Way,Brandon,MS,39042,32.27343047,-90.036444
BankPlus,Hernando,Full Service Brick and Mortar Office,885 East Commerce Street,Hernando,MS,38632,34.82383356,-89.97415081
BankPlus,Highland Colony,<br/>,1068 Highland Colony Parkway,Ridgeland,MS,39157,32.44434878,-90.15069452
BankPlus,Highway 43 South,Full Service Brick and Mortar Office,951 Highway 43 South,Picayune,MS,39466,30.51781104,-89.6698291
BankPlus,Holly Bluff,Full Service Brick and Mortar Office,888 Highway 16 West,Holly Bluff,MS,39088,32.82153818,-90.70894282
BankPlus,Hwy 463,Full Service Brick and Mortar Office,105 Webster Circle,Madison,MS,39110,32.47182761,-90.14300681
BankPlus,Hwy. 19 N,Full Service Brick and Mortar Office,1930 Hwy. 19 N,Meridian,MS,39307,32.37721427,-88.74496359
BankPlus,Isola,Full Service Brick and Mortar Office,100 Julia Street,Isola,MS,38754,33.26206152,-90.59079702
BankPlus,Jackson Street,Full Service Brick and Mortar Office,510 Highway 51,Ridgeland,MS,39157,32.429007,-90.1278765
BankPlus,Jackson-Terry Road,Full Service Brick and Mortar Office,2925 Terry Road,Jackson,MS,39215,32.26463057,-90.21951719
BankPlus,Jerry Clower Boulevard,Full Service Brick and Mortar Office,200 Jerry Clower Boulevard,Yazoo City,MS,39194,32.84200526,-90.387603
BankPlus,Jsu,Full Service Brick and Mortar Office,912 Dalton Street,Jackson,MS,39203,32.29945941,-90.20558901
BankPlus,Lexington,Full Service Brick and Mortar Office,100 Court Square,Lexington,MS,39095,33.1132017,-90.0534453
BankPlus,Nissan,Full Service Brick and Mortar Office,300 Nissan Drive,Canton,MS,39046,32.57090759,-90.07390035
BankPlus,North Hills Street,Full Service Brick and Mortar Office,1911 North Hills Street,Meridian,MS,39305,32.40941715,-88.69803237
BankPlus,Olive Main,Full Service Brick and Mortar Office,8990 Pigeon Roost Road,Olive Branch,MS,38654,34.96478299,-89.83155808
BankPlus,Pear Orchard,Full Service Brick and Mortar Office,420 Northpark Drive,Ridgeland,MS,39157,32.40403,-90.12287551
BankPlus,Pearl,Full Service Brick and Mortar Office,406 Riverwind Drive,Pearl,MS,39208,32.26750961,-90.13645782
BankPlus,Picayune,Full Service Brick and Mortar Office,115 Williams Street,Picayune,MS,39466,30.5272251,-89.68149774
BankPlus,Pickens,Full Service Brick and Mortar Office,North 1st And Lexington Streets,Pickens,MS,39146,32.88564,-89.9722215
BankPlus,Poplarville,Full Service Brick and Mortar Office,105 S Main Street,Poplarville,MS,39470,30.84403359,-89.53551352
BankPlus,Renaissance At Colony Park,Full Service Brick and Mortar Office,1010 Highland Colony Parkway,Ridgeland,MS,39157,32.43576905,-90.14967662
BankPlus,Shubuta,Full Service Brick and Mortar Office,High Street,Shubuta,MS,39360,31.8607147,-88.69980777
BankPlus,South Archusa Avenue,Full Service Brick and Mortar Office,301 S Archusa Ave,Quitman,MS,39355,32.0364327,-88.7279952
BankPlus,South Gloster Street,Full Service Brick and Mortar Office,371 South Gloster Street,Tupelo,MS,38801,34.25296516,-88.71607467
BankPlus,Southaven Airways,Full Service Brick and Mortar Office,6644 Airways Boulevard,Southaven,MS,38671,34.95734918,-89.9898537
BankPlus,Spillway Road,Full Service Brick and Mortar Office,1845 Spillway Road,Brandon,MS,39047,32.38331141,-90.04251105
BankPlus,Strawberry Hill Drive,Full Service Brick and Mortar Office,2020 Strawberry Hill Drive,Madison,MS,39110,32.46230789,-90.10910888
BankPlus,Tchula,Full Service Brick and Mortar Office,206 Main Street,Tchula,MS,39169,33.17712835,-90.21071577
BankPlus,The District,Full Service Brick and Mortar Office,1200 Eastover Drive,Jackson,MS,39211,32.34322084,-90.1572819
BankPlus,Treetops,Full Service Brick and Mortar Office,2351 Lakeland Drive,Flowood,MS,39232,32.328684,-90.120663
BankPlus,Tupelo,Full Service Brick and Mortar Office,3993 North Gloster Street,Tupelo,MS,38804,34.31399424,-88.70683719
BankPlus,Waynesboro,Full Service Brick and Mortar Office,913 Mississippi Drive,Waynesboro,MS,39367,31.67994338,-88.64513292
BankPlus,West,Full Service Brick and Mortar Office,State Highway 513,Stonewall,MS,39363,32.1325427,-88.78121908
BankPlus,Yazoo City,Full Service Brick and Mortar Office,210 East Broadway,Yazoo City,MS,39194,32.84667961,-90.412479
Community Bank of Mississippi,Calhoun,Full Service Brick and Mortar Office,5159 Highway 84 West,Laurel,MS,39440,31.69560141,-89.20068675
Community Bank of Mississippi,Canton Road,Full Service Brick and Mortar Office,6158 Old Canton Road,Jackson,MS,39211,32.38587,-90.115749
Community Bank of Mississippi,Community Bank,Full Service Brick and Mortar Office,300 Jessamine Street,Ellisville,MS,39437,31.60246567,-89.19455224
Community Bank of Mississippi,Community Bank Coast,Full Service Brick and Mortar Office,677 Dr. Martin Luther King Jr. Boulevard,Biloxi,MS,39530,30.396717,-88.8849495
Community Bank of Mississippi,Community Bank Meridian Main Office,Full Service Brick and Mortar Office,302 22nd Avenue,Meridian,MS,39301,32.3595812,-88.69624607
Community Bank of Mississippi,Community Bank Of Mississippi,Limited Service Loan Production Office,119 Colony Crossing,Madison,MS,39110,32.47375415,-90.1414692
Community Bank of Mississippi,Community Bank Of Mississippi,Full Service Brick and Mortar Office,323 East Third Street,Forest,MS,39074,32.36375327,-89.47192459
Community Bank of Mississippi,"Community Bank, Dogwood",Full Service Brick and Mortar Office,140 East Metro,Flowood,MS,39232,32.337945,-90.0647145
Community Bank of Mississippi,"Community Bank, National Association",Full Service Brick and Mortar Office,5110 Main Street,Lucedale,MS,39452,30.92487546,-88.59067713
Community Bank of Mississippi,"Community Bank,north Mississippi",Full Service Brick and Mortar Office,900 North Main Street,Amory,MS,38821,33.9938729,-88.49123493
Community Bank of Mississippi,Crossgates,Full Service Brick and Mortar Office,1255 West Government Street,Brandon,MS,39042,32.280039,-90.0055125
Community Bank of Mississippi,D'iberville,Full Service Brick and Mortar Office,3537 Sangani Blvd,Diberville,MS,39540,30.45842969,-88.89291247
Community Bank of Mississippi,Drive-In,Limited Service Facility Office,804 Main Street,Ellisville,MS,39437,31.60745188,-89.20340426
Community Bank of Mississippi,East,Limited Service Facility Office,902 Highway 278 East,Amory,MS,38821,33.98016086,-88.47613401
Community Bank of Mississippi,Flowood Loan Production Office,Limited Service Loan Production Office,110a Belle Meade Pointe,Flowood,MS,39232,32.3443027,-90.05535561
Community Bank of Mississippi,Gulfport,Full Service Brick and Mortar Office,2015 East Pass Road,Gulfport,MS,39506,30.40074,-89.0116965
Community Bank of Mississippi,Hardy Street,Full Service Brick and Mortar Office,5010 Hardy Street,Hattiesburg,MS,39402,31.322007,-89.3689065
Community Bank of Mississippi,Hernando,Full Service Brick and Mortar Office,475 East Commerce Street,Hernando,MS,38632,34.82387055,-89.9813678
Community Bank of Mississippi,"Highway 49, Hattiesburg",Full Service Brick and Mortar Office,6095 Highway 49 South,Hattiesburg,MS,39401,31.321485,-89.329437
Community Bank of Mississippi,Indianola,Full Service Brick and Mortar Office,147 Highway 82,Indianola,MS,38751,33.45810747,-90.64924795
Community Bank of Mississippi,Laurel,Full Service Brick and Mortar Office,909 North 16th Aveue,Laurel,MS,39440,31.7000359,-89.14683881
Community Bank of Mississippi,Leakesville,Full Service Brick and Mortar Office,431 St. Frances Street,Leakesville,MS,39451,31.15335135,-88.5534208
Community Bank of Mississippi,Lefleur,Full Service Brick and Mortar Office,1665 Lakeland Drive,Jackson,MS,39216,32.3340477,-90.14500425
Community Bank of Mississippi,Madison,Full Service Brick and Mortar Office,998 Highway 51,Madison,MS,39110,32.45982232,-90.1121519
Community Bank of Mississippi,North Meridian,Full Service Brick and Mortar Office,5012 Highway 39 North,Meridian,MS,39301,32.41132984,-88.67887901
Community Bank of Mississippi,Ocean Springs,Full Service Brick and Mortar Office,2314 Bienville Blvd,Ocean Springs,MS,39564,30.41585322,-88.80272665
Community Bank of Mississippi,Ocean Springs Loan Production Office,Limited Service Loan Production Office,611 Jackson Avenue,Ocean Springs,MS,39564,30.412125,-88.830018
Community Bank of Mississippi,Olive,Full Service Brick and Mortar Office,6305 Highway 405,Olive Branch,MS,38654,34.38762345,-89.51531414
Community Bank of Mississippi,Orange Grove,Full Service Brick and Mortar Office,12036 Highway 49,Gulfport,MS,39503,30.45947575,-89.10078
Community Bank of Mississippi,Pascagoula,Full Service Brick and Mortar Office,3419 Market Street,Pascagoula,MS,39567,30.368691,-88.549452
Community Bank of Mississippi,Pearl,Full Service Brick and Mortar Office,2441 Old Brandon Road,Pearl,MS,39208,32.27502337,-90.13032137
Community Bank of Mississippi,Pine Tree,Full Service Brick and Mortar Office,2157 Highway 15 North,Laurel,MS,39440,31.71671987,-89.14907201
Community Bank of Mississippi,Raleigh,Full Service Brick and Mortar Office,210 Mimosa Drive,Raleigh,MS,39153,32.04088606,-89.52284759
Community Bank of Mississippi,Ridgeland,Full Service Brick and Mortar Office,751 Lake Harbour Drive,Ridgeland,MS,39157,32.41395413,-90.11173013
Community Bank of Mississippi,Sandersville,Full Service Brick and Mortar Office,U.S. Highway 11,Sandersville,MS,39477,31.78211838,-89.039183
Community Bank of Mississippi,Southaven,Full Service Brick and Mortar Office,6910 Airways Blvd,Southaven,MS,38671,34.96146144,-89.98985808
Community Bank of Mississippi,Spillway Road Brandon,Full Service Brick and Mortar Office,1871 Spillway Road,Brandon,MS,39047,32.38286374,-90.04038958
Community Bank of Mississippi,Tupelo,Full Service Brick and Mortar Office,1317 North Gloster,Tupelo,MS,38804,34.28189134,-88.71560323
Community Bank of Mississippi,Tupelo - 307 West Main Street,Full Service Brick and Mortar Office,307 West Main Street,Tupelo,MS,38804,34.25742353,-88.70575964
Hancock Whitney Bank,Bay 90,Full Service Brick and Mortar Office,601 Highway 90,Bay Saint Louis,MS,39520,30.317787,-89.345295
Hancock Whitney Bank,Bay St Louis Main,Limited Service Facility Office,100 South Beach Boulevard,Bay Saint Louis,MS,39520,30.310425,-89.326071
Hancock Whitney Bank,Biloxi Main,Full Service Brick and Mortar Office,888 Howard Avenue,Biloxi,MS,39530,30.3970677,-88.891866
Hancock Whitney Bank,Cedar Lake,Full Service Brick and Mortar Office,926 Cedar Lake Road,Biloxi,MS,39532,30.44427404,-88.93397667
Hancock Whitney Bank,Courthouse Road,Full Service Brick and Mortar Office,533 Courthouse Road,Gulfport,MS,39507,30.390021,-89.0447535
Hancock Whitney Bank,Crossroads,Full Service Brick and Mortar Office,10496 Hwy 49,Gulfport,MS,39503,30.44005766,-89.09762666
Hancock Whitney Bank,Dedeaux Road,Full Service Brick and Mortar Office,14165 Dedeaux Road,Gulfport,MS,39507,30.44944352,-89.07452894
Hancock Whitney Bank,Diamondhead,Full Service Brick and Mortar Office,4401 Kalani Drive,Diamondhead,MS,39525,30.37576651,-89.37557957
Hancock Whitney Bank,Diberville,Full Service Brick and Mortar Office,10335 Diberville Boulevard,Biloxi,MS,39532,30.436308,-88.893216
Hancock Whitney Bank,Downtown Drive-In,Limited Service Facility Office,1430 25th Avenue,Gulfport,MS,39501,30.36853567,-89.09279802
Hancock Whitney Bank,East Ocean Springs,Full Service Brick and Mortar Office,2699 Bienville Boulevard,Ocean Springs,MS,39564,30.41491931,-88.79549403
Hancock Whitney Bank,Escatawpa,Full Service Brick and Mortar Office,7716 Highway 613,Escatawpa,MS,39552,30.4537173,-88.5409527
Hancock Whitney Bank,Gautier,Full Service Brick and Mortar Office,2020 Highway 90,Gautier,MS,39553,30.391065,-88.6435065
Hancock Whitney Bank,Hancock Whitney Bank,Full Service Brick and Mortar Office,2510 14th Street,Gulfport,MS,39501,30.368385,-89.093592
Hancock Whitney Bank,Handsboro,Full Service Brick and Mortar Office,1014 Cowan Road,Gulfport,MS,39507,30.40011839,-89.02671742
Hancock Whitney Bank,Hwy 98,Full Service Brick and Mortar Office,6052 Highway 98 West,Hattiesburg,MS,39401,31.321233,-89.377686
Hancock Whitney Bank,Kiln,Full Service Brick and Mortar Office,"16230 Hancock Plaza, Ste A",Bay Saint Louis,MS,39520,30.29668514,-89.43251186
Hancock Whitney Bank,Lincoln Road,Full Service Brick and Mortar Office,2007 Lincoln Road,Hattiesburg,MS,39402,31.304763,-89.321823
Hancock Whitney Bank,Long Beach,Full Service Brick and Mortar Office,101 Jeff Davis Avenue,Long Beach,MS,39560,30.350268,-89.1508545
Hancock Whitney Bank,Lyman,Full Service Brick and Mortar Office,16100 South Swan Road,Gulfport,MS,39503,30.49321861,-89.10687416
Hancock Whitney Bank,Moss Point Main,Full Service Brick and Mortar Office,5025 Main Street,Moss Point,MS,39563,30.41394198,-88.53889956
Hancock Whitney Bank,Norwood Village,Full Service Brick and Mortar Office,12100 Highway 49 North,Gulfport,MS,39503,30.45979453,-89.10082836
Hancock Whitney Bank,Oak Grove,Full Service Brick and Mortar Office,12 Newtowne Loop,Hattiesburg,MS,39402,34.61235551,-89.91501447
Hancock Whitney Bank,Ocean Springs Main,Full Service Brick and Mortar Office,901 Washington Avenue,Ocean Springs,MS,39564,30.414285,-88.8285555
Hancock Whitney Bank,Pascagoula East,Full Service Brick and Mortar Office,3939 Denny Avenue,Pascagoula,MS,39567,30.38167369,-88.52178255
Hancock Whitney Bank,Pascagoula Main,Full Service Brick and Mortar Office,1010 Denny Avenue,Pascagoula,MS,39568,30.37023,-88.5531465
Hancock Whitney Bank,Pass Christian,Full Service Brick and Mortar Office,265 East Scenic Boulevard,Pass Christian,MS,39571,30.316248,-89.2421145
Hancock Whitney Bank,Petal,Full Service Brick and Mortar Office,535 Highway 42,Petal,MS,39465,31.34676454,-89.25251729
Hancock Whitney Bank,Picayune Northside,Full Service Brick and Mortar Office,2400 Highway 11 North,Picayune,MS,39466,30.54675266,-89.66887275
Hancock Whitney Bank,Picayune Southside,Full Service Brick and Mortar Office,229 Highway 43 South,Picayune,MS,39466,30.51673821,-89.67937686
Hancock Whitney Bank,Pineville Road,Full Service Brick and Mortar Office,5101 Beatline Road,Long Beach,MS,39560,30.36119204,-89.18707768
Hancock Whitney Bank,Poplarville,Full Service Brick and Mortar Office,602 South Main Street,Poplarville,MS,39470,30.84092721,-89.53473036
Hancock Whitney Bank,Popps Ferry,Full Service Brick and Mortar Office,2369 Pass Road,Biloxi,MS,39531,30.40201416,-88.97431596
Hancock Whitney Bank,Prentiss,Full Service Brick and Mortar Office,965 South Columbia Avenue,Prentiss,MS,39474,31.58971726,-89.87495848
Hancock Whitney Bank,Purvis,Full Service Brick and Mortar Office,4 Highway 589,Purvis,MS,39475,31.1463741,-89.40203385
Hancock Whitney Bank,Stennis Satellite,Full Service Brick and Mortar Office,1100 Stennis Space Center,Stennis Space Center,MS,39529,30.38032,-89.62417
Hancock Whitney Bank,Sumrall,Full Service Brick and Mortar Office,201 Highway 42 East,Sumrall,MS,39482,31.42564853,-89.62071299
Hancock Whitney Bank,Vancleave,Full Service Brick and Mortar Office,10909 Highway 57,Vancleave,MS,39565,30.501594,-88.7040045
Hancock Whitney Bank,Waveland,Full Service Brick and Mortar Office,529 Highway 90,Waveland,MS,39576,30.30216365,-89.3893717
The Citizens National Bank of Meridian,Bon. Lakes Mall Comm. Dep.,Limited Service Retail Office,1510a Bonita Lakes Circle,Meridian,MS,39301,32.36013254,-88.66893521
The Citizens National Bank of Meridian,Bonita Lakes Mall,Full Service Brick and Mortar Office,1199 Bonita Lakes Circle,Meridian,MS,39301,32.36055144,-88.67030403
The Citizens National Bank of Meridian,Broadmoor Express Bank,Limited Service Facility Office,4900 Poplar Spring Drive,Meridian,MS,39305,32.40941757,-88.69951584
The Citizens National Bank of Meridian,Carthage,Full Service Brick and Mortar Office,305 South Van Buren Street,Carthage,MS,39051,32.73424659,-89.53309224
The Citizens National Bank of Meridian,Castlewoods Banking Centre,Full Service Brick and Mortar Office,102 Plaza Drive,Brandon,MS,39047,32.35524116,-90.01826979
The Citizens National Bank of Meridian,College Park Express Bank,Limited Service Facility Office,Highway 19 North,Meridian,MS,39301,32.419629,-88.78046175
The Citizens National Bank of Meridian,Columbus,Full Service Brick and Mortar Office,2412 Highway 45 North,Columbus,MS,39701,33.53551971,-88.43797676
The Citizens National Bank of Meridian,East Columbus Banking Centre,Full Service Brick and Mortar Office,115 Lehmberg Road,Columbus,MS,39702,33.49444212,-88.36358299
The Citizens National Bank of Meridian,Hattiesburg,Full Service Brick and Mortar Office,4599 Hardy Street,Hattiesburg,MS,39402,31.324806,-89.359218
The Citizens National Bank of Meridian,Kosciusko,Full Service Brick and Mortar Office,101 East Jefferson Street,Kosciusko,MS,39090,33.05764042,-89.58980397
The Citizens National Bank of Meridian,Kosciusko Hwy 12,Full Service Brick and Mortar Office,120 Highway 12 East,Kosciusko,MS,39090,33.06591465,-89.59006976
The Citizens National Bank of Meridian,Laurel,Full Service Brick and Mortar Office,1127 Highway 15 North,Laurel,MS,39440,31.70327276,-89.14770869
The Citizens National Bank of Meridian,Macon,Full Service Brick and Mortar Office,313 South Jefferson Street,Macon,MS,39341,33.11018119,-88.56042072
The Citizens National Bank of Meridian,Madison Banking Centre,Full Service Brick and Mortar Office,114 Grandview Boulevard,Madison,MS,39110,32.468053,-90.13176468
The Citizens National Bank of Meridian,Medical Center Express Bank,Limited Service Facility Office,1015 23rd Avenue,Meridian,MS,39301,32.36748244,-88.70147299
The Citizens National Bank of Meridian,North Meridian Banking Centre,Full Service Brick and Mortar Office,136 North Hills Street,Meridian,MS,39305,32.41371852,-88.67690919
The Citizens National Bank of Meridian,Olive,Full Service Brick and Mortar Office,"7203 Goodman Road, 2nd Floor Suite D",Olive Branch,MS,38654,34.96214909,-89.86204773
The Citizens National Bank of Meridian,Pear Orchard Banking Centre,Full Service Brick and Mortar Office,744 Pear Orchard Road,Ridgeland,MS,39157,32.40390296,-90.12347195
The Citizens National Bank of Meridian,Philadelphia,Full Service Brick and Mortar Office,538 Main Street,Philadelphia,MS,39350,32.771054,-89.10662763
The Citizens National Bank of Meridian,Philadelphia Hwy 15,Full Service Brick and Mortar Office,1110 Central Drive,Philadelphia,MS,39350,32.76021398,-89.14746929
The Citizens National Bank of Meridian,Quitman,Full Service Brick and Mortar Office,200 South Archusa Avenue,Quitman,MS,39355,32.0383888,-88.72809093
The Citizens National Bank of Meridian,South Hattiesburg Banking Centre Bra,Full Service Brick and Mortar Office,5917 U.S. Highway 49,Hattiesburg,MS,39402,31.31094879,-89.32073794
The Citizens National Bank of Meridian,Southaven Banking Centre,Full Service Brick and Mortar Office,6296 Airways Boulevard,Southaven,MS,38671,34.95403862,-89.9898537
The Citizens National Bank of Meridian,The Citizens National Bank Of Meridi,Full Service Brick and Mortar Office,512 22nd Avenue,Meridian,MS,39301,32.36420722,-88.70006618
The Citizens National Bank of Meridian,Waynesboro,Full Service Brick and Mortar Office,810 Mississippi Drive,Waynesboro,MS,39367,31.67852083,-88.64368087
The Citizens National Bank of Meridian,West Hattiesburg Banking Center,Limited Service Loan Production Office,5248 Old Highway 11,Hattiesburg,MS,39402,31.310703,-89.4101175
The Citizens National Bank of Meridian,West Hattiesburg Banking Center,Full Service Brick and Mortar Office,6258 Us Highway 98,Hattiesburg,MS,39402,31.31929098,-89.39550564
The Citizens National Bank of Meridian,West Meridian Banking Centre,Full Service Brick and Mortar Office,2100 Highway 19 North,Meridian,MS,39301,32.3782373,-88.74569623
Woodforest National Bank,8078 Corinth Mississippi Walmart Bra,Full Service Retail Office,2301 Harper Road,Corinth,MS,38834,34.91117628,-88.50333711
Woodforest National Bank,8101 Tupelo Mississippi Walmart Bran,Full Service Retail Office,3929 North Gloster Street,Tupelo,MS,38804,34.30900099,-88.70712266
Woodforest National Bank,8102 Pascagoula Mississippi,Full Service Retail Office,4253 Denny Avenue,Pascagoula,MS,39581,30.386772,-88.518906
Woodforest National Bank,8103 Clinton Mississippi,Full Service Retail Office,950 Hwy 80 East,Clinton,MS,39056,32.32848255,-90.3042693
Woodforest National Bank,8130 Oxford Mississippi Walmart Bran,Full Service Retail Office,2530 West Jackson Avenue,Oxford,MS,38655,34.36200335,-89.56530813
Woodforest National Bank,8131 Vicksburg Mississippi Walmart B,Full Service Retail Office,2150 Iowa Blvd.,Vicksburg,MS,39180,32.3066369,-90.891918
Woodforest National Bank,8132 Mccomb,Full Service Retail Office,1608 Smithdale Road,Mccomb,MS,39648,31.26056897,-90.47195901
Woodforest National Bank,8134 Greenville,Full Service Retail Office,1831 S Dr Martin L King,Greenville,MS,38701,33.36942354,-91.04016275
Woodforest National Bank,8135 Gulfport Mississippi Walmart Br,Full Service Retail Office,9350-A Highway 49,Gulfport,MS,39503,30.423492,-89.0887815
Woodforest National Bank,8136 Waveland Mississippi Walmart Br,Full Service Retail Office,460 Highway 90,Waveland,MS,39576,30.30422787,-89.38416398
Woodforest National Bank,8137 Amory,Full Service Retail Office,1515 Us Highway 278 East,Amory,MS,38821,33.96831403,-88.45991123
Woodforest National Bank,8138 Senatobia Mississippi Walmart B,Full Service Retail Office,5219 Highway 51 North,Senatobia,MS,38668,34.629246,-89.96860237
Woodforest National Bank,8139 Grenada,Full Service Retail Office,1655 Sunset Drive,Grenada,MS,38901,33.78455181,-89.83450933
Woodforest National Bank,8140 Meridian Mississippi Walmart Br,Full Service Retail Office,2400 Highway 19 N,Meridian,MS,39307,32.38424573,-88.75087512
Woodforest National Bank,8142 Booneville Mississippi Walmart,Full Service Retail Office,300 Walmart Circle,Booneville,MS,38829,34.6766071,-88.56183409
Woodforest National Bank,8144 Indianola Mississippi Walmart B,Full Service Retail Office,633 Highway 82 West,Indianola,MS,38751,33.45747819,-90.66338373
Woodforest National Bank,8147 Hazlehurst Mississippi Walmart,Full Service Retail Office,527 Lake St,Hazlehurst,MS,39083,31.87238999,-90.40623006
Woodforest National Bank,8190 Brookhaven Mississippi Walmart,Full Service Retail Office,960 Brookway Blvd,Brookhaven,MS,39601,31.57902651,-90.46839868
Woodforest National Bank,8191 Diberville Mississippi Walmart,Full Service Retail Office,3615 Sangani Blvd,Diberville,MS,39540,30.45654,-88.8952815
Woodforest National Bank,8203 Ocean Springs Mississippi Walma,Full Service Retail Office,3911 Bienville Blvd,Ocean Springs,MS,39564,30.412332,-88.7602905
Woodforest National Bank,8252 Biloxi Mississippi,Full Service Retail Office,2681 Ct Switzer Sr Drive,Biloxi,MS,39531,30.393018,-88.995726
Woodforest National Bank,Columbus Ms,Full Service Retail Office,1913 Highway 45 North,Columbus,MS,39701,33.51973614,-88.43521122
Woodforest National Bank,Ms Clarksdale,Full Service Retail Office,1000 S State Street,Clarksdale,MS,38614,34.18294507,-90.59248264
Woodforest National Bank,Ms Pontotoc,Full Service Retail Office,100 Mccord Road,Pontotoc,MS,38863,34.28508869,-89.02465381
Woodforest National Bank,Ms Westpoint,Full Service Retail Office,5509 Highway 45 Alt S,West Point,MS,39773,33.58608474,-88.65910868
Woodforest National Bank,Starkville,Full Service Retail Office,1010 Highway 12 West,Starkville,MS,39759,33.44303505,-88.84988167
"The Citizens Bank of Philadelphia, Mississippi",Biloxi Cedar Lake,Full Service Brick and Mortar Office,1830 Popps Ferry Road,Biloxi,MS,39532,30.44263726,-88.94481763
"The Citizens Bank of Philadelphia, Mississippi",Biloxi Lemoyne Boulevard,Full Service Brick and Mortar Office,15309 Lemoyne Boulevard Branch,Biloxi,MS,39532,30.442662,-88.866072
"The Citizens Bank of Philadelphia, Mississippi",Carthage,Full Service Brick and Mortar Office,301 West Main Street,Carthage,MS,39051,32.73669074,-89.53573225
"The Citizens Bank of Philadelphia, Mississippi",Citizens Bank And Trust Company Bran,Full Service Brick and Mortar Office,100 East Main Street,Louisville,MS,39339,33.12344219,-89.05313099
"The Citizens Bank of Philadelphia, Mississippi",Collinsville,Full Service Brick and Mortar Office,9065 Collinsville Road,Collinsville,MS,39325,32.49573098,-88.84703944
"The Citizens Bank of Philadelphia, Mississippi",De Kalb,Full Service Brick and Mortar Office,Bell Street And Main Avenue,De Kalb,MS,39328,32.766858,-88.650999
"The Citizens Bank of Philadelphia, Mississippi",Decatur,Full Service Brick and Mortar Office,15220 Highway 15 South,Decatur,MS,39327,32.43629538,-89.10727122
"The Citizens Bank of Philadelphia, Mississippi",Drive-In Teller's Window,Full Service Brick and Mortar Office,803 South Church Avenue,Louisville,MS,39339,33.11347515,-89.05511608
"The Citizens Bank of Philadelphia, Mississippi",East Side,Full Service Brick and Mortar Office,Highways 16 East And 486,Philadelphia,MS,39350,32.76414298,-89.14073034
"The Citizens Bank of Philadelphia, Mississippi",Flowood,Full Service Brick and Mortar Office,"5419 Highway 25, Suite Q",Flowood,MS,39232,32.35091523,-90.0323346
"The Citizens Bank of Philadelphia, Mississippi",Forest,Full Service Brick and Mortar Office,247 Woodland Drive North,Forest,MS,39074,32.36671247,-89.47964173
"The Citizens Bank of Philadelphia, Mississippi",Hattiesburg,Full Service Brick and Mortar Office,6222 Highway 98 West,Hattiesburg,MS,39402,31.319037,-89.3929905
"The Citizens Bank of Philadelphia, Mississippi",Kosciusko,Full Service Brick and Mortar Office,775 North Jackson Street,Kosciusko,MS,39090,33.06680709,-89.59060356
"The Citizens Bank of Philadelphia, Mississippi",Meridian,Full Service Brick and Mortar Office,"2209 Hwy 45 North, Suite E",Meridian,MS,39301,32.37994914,-88.67967852
"The Citizens Bank of Philadelphia, Mississippi",Meridian Broadmoor,Full Service Brick and Mortar Office,5015 Highway 493,Meridian,MS,39305,32.41196136,-88.69997337
"The Citizens Bank of Philadelphia, Mississippi",North Side,Full Service Brick and Mortar Office,Highways 15 And 19 North,Philadelphia,MS,39350,32.84555849,-89.09907602
"The Citizens Bank of Philadelphia, Mississippi",Noxapater,Full Service Brick and Mortar Office,45 Main Street,Noxapater,MS,39346,32.99262442,-89.07132671
"The Citizens Bank of Philadelphia, Mississippi",Scooba,Full Service Brick and Mortar Office,1048 Johnson Street,Scooba,MS,39358,32.827896,-88.47937324
"The Citizens Bank of Philadelphia, Mississippi",Sebastopol,Full Service Brick and Mortar Office,24 Pine Street,Sebastopol,MS,39359,32.56819433,-89.34100238
"The Citizens Bank of Philadelphia, Mississippi",Starkville,Full Service Brick and Mortar Office,201 Highway 12 West,Starkville,MS,39759,33.4539439,-88.81856056
"The Citizens Bank of Philadelphia, Mississippi","The Citizens Bank Of Philadelphia, Mississippi",Full Service Brick and Mortar Office,521 Main Street,Philadelphia,MS,39350,32.77090286,-89.10918964
"The Citizens Bank of Philadelphia, Mississippi",Union,Full Service Brick and Mortar Office,Bank And Horne Streets,Union,MS,39365,32.570442,-89.121051
"The Citizens Bank of Philadelphia, Mississippi",West Side Drive-In,Full Service Brick and Mortar Office,912 West Beacon Street,Philadelphia,MS,39350,32.77115866,-89.12638497
Planters Bank & Trust Company,Batesville,Full Service Brick and Mortar Office,1130 Highway 6 East,Batesville,MS,38606,34.30981163,-89.90911567
Planters Bank & Trust Company,Clarksdale,Full Service Brick and Mortar Office,206 Sharkey Avenue,Clarksdale,MS,38614,34.20308834,-90.57119725
Planters Bank & Trust Company,Cleveland,Full Service Brick and Mortar Office,130 North Street,Cleveland,MS,38732,33.7450649,-90.72224458
Planters Bank & Trust Company,Cleveland,Full Service Brick and Mortar Office,428 North Davis Avenue,Cleveland,MS,38732,33.7502577,-90.7156812
Planters Bank & Trust Company,Covenant Bank 61,Full Service Brick and Mortar Office,622 South State Street,Clarksdale,MS,38614,34.18966339,-90.57784335
Planters Bank & Trust Company,Eagle Crest Shopping Center Lpo,Limited Service Loan Production Office,456 East Highway 6,Batesville,MS,38606,34.31050929,-89.93894081
Planters Bank & Trust Company,Greenville,Full Service Brick and Mortar Office,Hinds Street And Washington Avenue,Greenville,MS,38701,33.410979,-91.060038
Planters Bank & Trust Company,Greenwood,Full Service Brick and Mortar Office,915 Medallion Drive,Greenwood,MS,38930,33.52904306,-90.19961215
Planters Bank & Trust Company,Greenwood Market Street,Full Service Brick and Mortar Office,116 West Market Street,Greenwood,MS,38930,33.52060113,-90.18216665
Planters Bank & Trust Company,Highway 82 Express,Full Service Brick and Mortar Office,521 East Early Street,Indianola,MS,38751,31.97935212,-88.72735693
Planters Bank & Trust Company,Inverness,Full Service Brick and Mortar Office,800 East Grand Avenue,Inverness,MS,38753,33.35371709,-90.59269354
Planters Bank & Trust Company,Leland,Full Service Brick and Mortar Office,1002 Highway 82 East,Leland,MS,38756,33.40164831,-90.88305407
Planters Bank & Trust Company,Louise,Full Service Brick and Mortar Office,Highway 49 And West Silver Creek Road,Louise,MS,39097,33.204447,-90.520182
Planters Bank & Trust Company,Planters Bank & Trust Company,Full Service Brick and Mortar Office,212 Catchings Street,Indianola,MS,38751,33.45341469,-90.65053335
Planters Bank & Trust Company,Ruleville,Full Service Brick and Mortar Office,118 North Ruby Avenue,Ruleville,MS,38771,33.72627734,-90.55161826
Planters Bank & Trust Company,South Greenville,Full Service Brick and Mortar Office,1645 Highway One South,Greenville,MS,38701,33.37718465,-91.03952377
Planters Bank & Trust Company,South Main Street,Full Service Brick and Mortar Office,1417 South Main Street,Greenville,MS,38701,33.38451404,-91.05355218
Planters Bank & Trust Company,Southaven,Full Service Brick and Mortar Office,232 Goodman Road,Southaven,MS,38671,34.96281349,-89.985642
Planters Bank & Trust Company,Sunflower,Full Service Brick and Mortar Office,100 Quiver Street,Sunflower,MS,38778,33.54239153,-90.53613
Planters Bank & Trust Company,Tunica Office,Full Service Brick and Mortar Office,1020 South Court Street,Tunica,MS,38676,34.6883206,-90.38064092
State Bank & Trust Company,Brookhaven,Full Service Brick and Mortar Office,600 Brookway Boulevard,Brookhaven,MS,39601,31.58035626,-90.45256926
State Bank & Trust Company,Cleveland,Full Service Brick and Mortar Office,100 Sunflower Road,Cleveland,MS,38732,33.74775568,-90.75511963
State Bank & Trust Company,Cleveland,Full Service Brick and Mortar Office,620 North Davis,Cleveland,MS,38732,33.75241041,-90.715686
State Bank & Trust Company,Columbia,Full Service Brick and Mortar Office,428 Sumrall Road,Columbia,MS,39429,31.2494234,-89.81248806
State Bank & Trust Company,Consumer National Bank,Full Service Brick and Mortar Office,140 West Pearl Street,Jackson,MS,39202,32.299668,-90.1892025
State Bank & Trust Company,Crossgates,Full Service Brick and Mortar Office,332 Crossgates Boulevard,Brandon,MS,39042,32.284584,-90.03593049
State Bank & Trust Company,Drive-In Teller Window,Limited Service Facility Office,846 East Monticello Street,Brookhaven,MS,39601,31.57556668,-90.42852051
State Bank & Trust Company,Flowood,Full Service Brick and Mortar Office,2845 Lakeland Drive,Flowood,MS,39232,32.3308772,-90.10940655
State Bank & Trust Company,Grenada,Full Service Brick and Mortar Office,1754 South Commerce Street,Grenada,MS,38901,33.76495981,-89.8088907
State Bank & Trust Company,Grenada,Full Service Brick and Mortar Office,1663 Sunset Drive,Grenada,MS,38901,33.78471861,-89.83473468
State Bank & Trust Company,Maywood,Full Service Brick and Mortar Office,4678 I-55 North,Jackson,MS,39211,32.35806,-90.15066
State Bank & Trust Company,Mississippi Southern Bank,Full Service Brick and Mortar Office,609 Farmer Street,Port Gibson,MS,39150,31.96120301,-90.98285005
State Bank & Trust Company,Monticello,Full Service Brick and Mortar Office,332 Broad Street,Monticello,MS,39654,31.5537085,-90.10634348
State Bank & Trust Company,Ridgeland,Full Service Brick and Mortar Office,414 Highway 51 North,Ridgeland,MS,39157,32.42250491,-90.13265817
State Bank & Trust Company,Ridgeland,Full Service Brick and Mortar Office,"618 Crescent Boulevard, Suite 100",Ridgeland,MS,39157,32.4514931,-90.1538591
State Bank & Trust Company,State Bank & Trust Company,Full Service Brick and Mortar Office,916 Highway 82 Bypass,Greenwood,MS,38935,33.52268644,-90.2034796
State Bank & Trust Company,State Bank & Trust Company,Full Service Brick and Mortar Office,120 West Presley Blvd,Mccomb,MS,39648,31.22953931,-90.45404422
State Bank & Trust Company,State Bank & Trust Company,Full Service Brick and Mortar Office,147 South Railroad Avenue,Brookhaven,MS,39601,31.57891914,-90.44239437
State Bank & Trust Company,Mccomb Bank,Full Service Brick and Mortar Office,1028 Highway 51,Mccomb,MS,39648,31.2315555,-90.45136911
State Bank & Trust Company,West Park Avenue - Greenwood,Full Service Brick and Mortar Office,500 West Park Avenue,Greenwood,MS,38935,33.53010302,-90.19597861
"The Peoples Bank, Biloxi, Mississippi",Armed Forces Retirement Home (Afrh),Full Service Brick and Mortar Office,1800 Beach Boulevard,Gulfport,MS,39501,30.36900247,-89.08306567
"The Peoples Bank, Biloxi, Mississippi",Bay St. Louis,Full Service Brick and Mortar Office,408 U.S. Highway 90,Bay Saint Louis,MS,39520,30.31822663,-89.34249198
"The Peoples Bank, Biloxi, Mississippi",Cedar Lake,Full Service Brick and Mortar Office,1740 Popps Ferry Road,Biloxi,MS,39532,30.44275937,-88.93679961
"The Peoples Bank, Biloxi, Mississippi",D'ibervlle-St. Martin,Full Service Brick and Mortar Office,Lemoyne Boulevard,Biloxi,MS,39532,30.44307168,-88.86217646
"The Peoples Bank, Biloxi, Mississippi",Diamonhead,Full Service Brick and Mortar Office,4408 West Aloha Drive,Bay Saint Louis,MS,39520,30.37571454,-89.37568737
"The Peoples Bank, Biloxi, Mississippi",Downtown Gulfport,Full Service Brick and Mortar Office,1105 30th Avenue,Gulfport,MS,39501,30.36535602,-89.09765186
"The Peoples Bank, Biloxi, Mississippi",Downtown Gulfport,Full Service Brick and Mortar Office,12020 Highway 49,Gulfport,MS,39503,30.457404,-89.0999505
"The Peoples Bank, Biloxi, Mississippi",Gautier,Full Service Brick and Mortar Office,2609 Highway 90,Gautier,MS,39553,30.391299,-88.653411
"The Peoples Bank, Biloxi, Mississippi",Handsboro,Full Service Brick and Mortar Office,412 East Pass Road,Gulfport,MS,39507,30.39433501,-89.04353014
"The Peoples Bank, Biloxi, Mississippi",Keesler,Full Service Brick and Mortar Office,Third Street,Biloxi,MS,39530,30.41406008,-88.91335243
"The Peoples Bank, Biloxi, Mississippi",Long Beach - Jeff Davis Avenue Branc,Full Service Brick and Mortar Office,298 Jeff Davis Avenue,Long Beach,MS,39560,30.348603,-89.150778
"The Peoples Bank, Biloxi, Mississippi",Money Center,Limited Service Facility Office,727 Howard Ave,Biloxi,MS,39530,30.39619166,-88.88642892
"The Peoples Bank, Biloxi, Mississippi",Ocean Springs,Full Service Brick and Mortar Office,U.S. Highway 90,Ocean Springs,MS,39564,30.41603797,-88.81174181
"The Peoples Bank, Biloxi, Mississippi",Pass Christian,Full Service Brick and Mortar Office,301 East Second Street,Pass Christian,MS,39571,30.318066,-89.242371
"The Peoples Bank, Biloxi, Mississippi",Saucier,Full Service Brick and Mortar Office,17689 Second Street,Saucier,MS,39574,30.63539681,-89.131934
"The Peoples Bank, Biloxi, Mississippi","The Peoples Bank, Biloxi, Mississippi",Full Service Brick and Mortar Office,Lameuse And Howard Avenues,Biloxi,MS,39533,30.396357,-88.887141
"The Peoples Bank, Biloxi, Mississippi",Waveland,Full Service Brick and Mortar Office,470 Highway 90,Waveland,MS,39576,30.304071,-89.3857365
"The Peoples Bank, Biloxi, Mississippi",West Biloxi,Full Service Brick and Mortar Office,2560 Pass Road,Biloxi,MS,39531,30.401361,-88.98651
"The Peoples Bank, Biloxi, Mississippi",Wiggins,Full Service Brick and Mortar Office,1312 South Magnolia Drive,Wiggins,MS,39577,30.83985437,-89.13772082
"The First, A National Banking Association",40th Avenue,Full Service Brick and Mortar Office,110 South 40th Avenue,Hattiesburg,MS,39402,31.323879,-89.347266
"The First, A National Banking Association",Bay 90,Full Service Brick and Mortar Office,800 Highway 90,Bay Saint Louis,MS,39521,30.31591333,-89.34909799
"The First, A National Banking Association",Biloxi,Full Service Brick and Mortar Office,2605 Pass Road,Biloxi,MS,39531,30.400317,-88.989021
"The First, A National Banking Association",Diamondhead,Full Service Brick and Mortar Office,4402 Kalani Drive,Diamondhead,MS,39525,30.37621669,-89.37537689
"The First, A National Banking Association",Gulfport,Full Service Brick and Mortar Office,1300 25th Avenue,Gulfport,MS,39501,30.36744,-89.0924445
"The First, A National Banking Association",Gulfport,Full Service Brick and Mortar Office,15513 O'neal Rd,Gulfport,MS,39503,30.469941,-89.1031275
"The First, A National Banking Association",Gulfport Drive-In Facility,Limited Service Facility Office,1822 25th Avenue,Gulfport,MS,39501,30.373155,-89.0925165
"The First, A National Banking Association",Hardy Court,Full Service Brick and Mortar Office,573 Courthouse Road,Gulfport,MS,39507,30.39200063,-89.04434385
"The First, A National Banking Association",Laurel,Full Service Brick and Mortar Office,1945 Highway 15 North,Laurel,MS,39441,31.71222029,-89.14906562
"The First, A National Banking Association",Lincoln Road,Full Service Brick and Mortar Office,2702 Lincoln Road,Hattiesburg,MS,39401,31.30405588,-89.33065868
"The First, A National Banking Association",Long Beach,Full Service Brick and Mortar Office,198 Klondyke Rd,Long Beach,MS,39560,30.35269602,-89.1531822
"The First, A National Banking Association",Madison County,Full Service Brick and Mortar Office,"953 Hwy 51, Suite D",Madison,MS,39110,32.45634212,-90.11406039
"The First, A National Banking Association",Pascagoula,Full Service Brick and Mortar Office,"1126 Jackson Ave, Suite 101",Pascagoula,MS,39567,30.36548189,-88.55217116
"The First, A National Banking Association",Petal,Full Service Brick and Mortar Office,"100 Eastbrook Drive, Suite 190",Petal,MS,39465,31.35154121,-89.23342253
"The First, A National Banking Association",Picayune,Full Service Brick and Mortar Office,1506-B Highway 43 South,Picayune,MS,39466,30.51744692,-89.65913114
"The First, A National Banking Association",Purvis,Full Service Brick and Mortar Office,631 Highway 589,Purvis,MS,39475,31.15427527,-89.41457071
"The First, A National Banking Association","The First, A National Banking Association",Full Service Brick and Mortar Office,6480 Us-98 West,Hattiesburg,MS,39402,31.31725093,-89.4144015
"The First, A National Banking Association","The First, A National Banking Association",Full Service Brick and Mortar Office,"1517 Bienville Boulevard, Space A-11",Ocean Springs,MS,39564,30.41630352,-88.81830588
"The First, A National Banking Association",Wiggins,Full Service Brick and Mortar Office,124 Border Street,Wiggins,MS,39577,30.85537152,-89.1390005
Guaranty Bank and Trust Company,Batesville,Full Service Brick and Mortar Office,470 Highway 6 East,Batesville,MS,38606,34.31063968,-89.93961489
Guaranty Bank and Trust Company,Batesville Highway 6 E,Full Service Brick and Mortar Office,1200 Hwy 6 E,Batesville,MS,38606,34.3097146,-89.90600251
Guaranty Bank and Trust Company,Cleveland,Full Service Brick and Mortar Office,307 North Davis Avenue,Cleveland,MS,38732,33.7478889,-90.7158084
Guaranty Bank and Trust Company,Greenville South Shop. Ctr.,Full Service Brick and Mortar Office,Highway 1 South,Greenville,MS,38701,33.35536261,-91.04127336
Guaranty Bank and Trust Company,Guaranty Bank And Trust Company,Full Service Brick and Mortar Office,"1324 Sunset Drive, Suite C",Grenada,MS,38901,33.77722686,-89.82509568
Guaranty Bank and Trust Company,Guaranty Bank And Trust Company,Full Service Brick and Mortar Office,210 N. Hayden St,Belzoni,MS,39038,33.17787929,-90.4889402
Guaranty Bank and Trust Company,Guaranty Bank And Trust Company,Full Service Brick and Mortar Office,122 Howard Street,Greenwood,MS,38930,33.52093281,-90.18284961
Guaranty Bank and Trust Company,Hernando Loan Production Office,Limited Service Loan Production Office,2600 Panola Street,Hernando,MS,38632,34.822089,-89.99470397
Guaranty Bank and Trust Company,Highway 82 East,Full Service Brick and Mortar Office,2249 Hwy 82 West,Greenville,MS,38701,33.36739958,-91.07855498
Guaranty Bank and Trust Company,Hollandale,Full Service Brick and Mortar Office,201 East Avenue South,Hollandale,MS,38748,33.16767013,-90.85371617
Guaranty Bank and Trust Company,Indianola,Full Service Brick and Mortar Office,215 Highway 82 West,Indianola,MS,38751,33.45808347,-90.65298078
Guaranty Bank and Trust Company,Mcingvale Road,Full Service Brick and Mortar Office,2440 Mcingvale Road,Hernando,MS,38632,34.82474356,-89.97209661
Guaranty Bank and Trust Company,Panola Street,Full Service Brick and Mortar Office,2600 Panola Street,Hernando,MS,38632,34.822089,-89.99470397
Guaranty Bank and Trust Company,Senatobia,Full Service Brick and Mortar Office,5040 Hwy 51 N,Senatobia,MS,38668,34.62627358,-89.96851411
Guaranty Bank and Trust Company,Southaven,Full Service Brick and Mortar Office,"5960 Getwell Road, Suite 112",Southaven,MS,38672,34.947198,-89.93671747
Guaranty Bank and Trust Company,Vicksburg,Full Service Brick and Mortar Office,1900 Cherry Street,Vicksburg,MS,39180,32.34277552,-90.87928285
Guaranty Bank and Trust Company,Vicksburg,Full Service Brick and Mortar Office,3430 Halls Ferry Road,Vicksburg,MS,39180,32.31194969,-90.87685032
Guaranty Bank and Trust Company,Washington County,Full Service Brick and Mortar Office,536 Washington Avenue,Greenville,MS,38701,33.41044206,-91.05901854
First Security Bank,Barton,Full Service Brick and Mortar Office,3299 Hwy 309 N,Byhalia,MS,38611,34.96756107,-89.68901706
First Security Bank,Como,Full Service Brick and Mortar Office,227 Main Street,Como,MS,38619,34.51336173,-89.94151246
First Security Bank,Crenshaw,Full Service Brick and Mortar Office,729 Broad Street,Crenshaw,MS,38621,34.50666686,-90.19520048
First Security Bank,Express,Limited Service Facility Office,130 Highway 51 North,Batesville,MS,38606,34.31336003,-89.94389415
First Security Bank,First Security Bank,Full Service Brick and Mortar Office,295 Highway 6 West,Batesville,MS,38606,34.31152075,-89.94945646
First Security Bank,First Security Bank - Goodman Road B,Full Service Brick and Mortar Office,5028 Goodman Road,Olive Branch,MS,38654,34.96260649,-89.9005815
First Security Bank,First Security Bank - Southaven Bran,Full Service Brick and Mortar Office,3035 Church Road East,Southaven,MS,38672,34.93324349,-89.9361315
First Security Bank,Hernando,Full Service Brick and Mortar Office,985 E. Commerce Street,Hernando,MS,38632,34.82380455,-89.97257097
First Security Bank,Marks,Full Service Brick and Mortar Office,1651 Charley Pride Hwy S,Marks,MS,38646,34.23804989,-90.27896207
First Security Bank,Olive,Full Service Brick and Mortar Office,6659 Highway 305,Olive Branch,MS,38654,34.957341,-89.83043505
First Security Bank,Pope,Full Service Brick and Mortar Office,7024 Highway 51 N,Pope,MS,38658,34.2211347,-89.93923977
First Security Bank,Power Drive,Full Service Brick and Mortar Office,230 Power Drive,Batesville,MS,38606,34.3094791,-89.92637089
First Security Bank,Robinsonville,Full Service Brick and Mortar Office,11490 Old Highway 61 North,Robinsonville,MS,38664,34.82019437,-90.31414113
First Security Bank,Sardis,Full Service Brick and Mortar Office,201 South Main Street,Sardis,MS,38666,34.43563402,-89.91627561
First Security Bank,Sardis Express,Full Service Brick and Mortar Office,610 East Lee Street,Sardis,MS,38666,34.43730564,-89.89501206
First Security Bank,Senatobia,Full Service Brick and Mortar Office,250 Norfleet Drive,Senatobia,MS,38668,34.62190606,-89.9539524
First Security Bank,Trust Office,Limited Service Trust Office,275 Highway 6 West,Batesville,MS,38606,34.31161084,-89.94891454
First Security Bank,Tunica,Full Service Brick and Mortar Office,1262 East Edwards,Tunica,MS,38676,34.70396459,-90.37880619
First State Bank,Clara,Limited Service Facility Office,35 Buckatunna Chicora Clara Road,Waynesboro,MS,39367,31.57791477,-88.69578795
First State Bank,Craft Street,Full Service Brick and Mortar Office,615 Highway 7 South,Holly Springs,MS,38635,34.75218779,-89.45285307
First State Bank,Drive-In,Limited Service Facility Office,2364 Buckatunna Chicora Clara Road,Buckatunna,MS,39322,31.54076599,-88.52819614
First State Bank,First State Bank,Full Service Brick and Mortar Office,146 W College Avenue,Holly Springs,MS,38635,34.76856375,-89.45036793
First State Bank,First State Bank,Full Service Brick and Mortar Office,708 Azalea Drive,Waynesboro,MS,39367,31.67583241,-88.64496433
First State Bank,Gateway,Full Service Brick and Mortar Office,12139 Highway 63 South,Lucedale,MS,39452,30.95360803,-88.6248431
First State Bank,Laurel,Full Service Brick and Mortar Office,1808 Highway 84 West,Laurel,MS,39440,31.69435545,-89.14891215
First State Bank,Leakesville,Full Service Brick and Mortar Office,313 Lafayette Street,Leakesville,MS,39451,31.1538038,-88.55065476
First State Bank,Meridian Clock Tower,Full Service Brick and Mortar Office,801 22nd Avenue,Meridian,MS,39301,32.36514571,-88.70043987
First State Bank,Mortgage Loan Center,Full Service Brick and Mortar Office,717 Wayne Street,Waynesboro,MS,39367,31.6749527,-88.64345688
First State Bank,Mount Pleasant,Full Service Brick and Mortar Office,53 Taska Road,Mount Pleasant,MS,38649,34.95841916,-89.52923465
First State Bank,Northeast Motor Bank,Full Service Brick and Mortar Office,1401 Azalea Drive,Waynesboro,MS,39367,31.68978612,-88.63135483
First State Bank,Northside Mini-Bank,Limited Service Facility Office,902 Robinson Street,Waynesboro,MS,39367,31.68005109,-88.64502896
First State Bank,Quitman,Full Service Brick and Mortar Office,310 South Archusa Avenue,Quitman,MS,39355,32.03626363,-88.7281098
First State Bank,South Court Street,Full Service Brick and Mortar Office,301 South Court Street,Ellisville,MS,39437,31.60238441,-89.19724219
First State Bank,State Line,Full Service Brick and Mortar Office,261 Saint Peter Street,State Line,MS,39362,31.43464113,-88.47382548
First State Bank,Walmart,Full Service Retail Office,1350 Azalea Drive,Waynesboro,MS,39367,31.68807997,-88.63214712
Southern Bancorp Bank,Clarksdale,Full Service Brick and Mortar Office,875 South State Street,Clarksdale,MS,38614,34.18555121,-90.58824378
Southern Bancorp Bank,Drew,Full Service Brick and Mortar Office,108 North Main Street,Drew,MS,38737,33.81015279,-90.52827083
Southern Bancorp Bank,Friars Point,Full Service Brick and Mortar Office,574 Second Street,Friars Point,MS,38631,34.3715036,-90.63890172
Southern Bancorp Bank,Greenville,Full Service Brick and Mortar Office,215 South Broadway,Greenville,MS,38701,33.40847807,-91.06020528
Southern Bancorp Bank,Hernando,Full Service Brick and Mortar Office,970 Byhalia Road,Hernando,MS,38632,34.84574634,-89.9726815
Southern Bancorp Bank,Indianola,Full Service Brick and Mortar Office,507 Highway 82 East,Indianola,MS,38751,33.4580685,-90.64300106
Southern Bancorp Bank,Lambert,Full Service Brick and Mortar Office,815 Darby Avenue,Lambert,MS,38643,34.20159253,-90.28399281
Southern Bancorp Bank,Leland,Full Service Brick and Mortar Office,323 Hwy 82 East,Leland,MS,38756,33.39839515,-90.89469458
Southern Bancorp Bank,Lula,Full Service Brick and Mortar Office,Front Street,Lula,MS,38644,34.45172127,-90.47999586
Southern Bancorp Bank,Madison,Full Service Brick and Mortar Office,"1888 Main Street Crossing, Suite D",Madison,MS,39110,32.469138,-90.129816
Southern Bancorp Bank,Martin Luther King,Full Service Brick and Mortar Office,"1868 Martin Luther King Jr., Boulevard South",Greenville,MS,38701,33.36926441,-91.04010727
Southern Bancorp Bank,Mound Bayou,Limited Service Facility Office,U. S. Highway 61,Mound Bayou,MS,38762,33.86562793,-90.7266982
Southern Bancorp Bank,Picayune,Full Service Brick and Mortar Office,9 Lakeshore Drive,Carriere,MS,39426,30.56193966,-89.66381097
Southern Bancorp Bank,Ruleville,Full Service Brick and Mortar Office,117 West Floyce Street,Ruleville,MS,38771,33.72612646,-90.55203965
Southern Bancorp Bank,Second Ave.,Full Service Brick and Mortar Office,2nd And Forest Street,Shelby,MS,38774,33.951024,-90.766872
Southern Bancorp Bank,Sledge,Full Service Brick and Mortar Office,104 Main Street,Sledge,MS,38670,34.43800633,-90.21750184
Southern Bancorp Bank,Webb,Full Service Brick and Mortar Office,11288 Highway 49 East,Webb,MS,38966,32.977025,-90.31651092
BankFirst Financial Services,Bankfirst Financial Services,Full Service Brick and Mortar Office,900 Main Street,Columbus,MS,39703,33.49578972,-88.42261716
BankFirst Financial Services,Crossgates,Full Service Brick and Mortar Office,1000 Highway 12 West,Starkville,MS,39759,33.44373494,-88.84859478
BankFirst Financial Services,Flowood,Full Service Brick and Mortar Office,201 Bank First Drive,Flowood,MS,39232,32.35101122,-90.02882023
BankFirst Financial Services,Hickory,Full Service Brick and Mortar Office,13 West Washington Street,Hickory,MS,39332,32.31488109,-89.02681853
BankFirst Financial Services,Highway 15,Full Service Brick and Mortar Office,292 Eastside Drive,Newton,MS,39345,32.33338795,-89.14151097
BankFirst Financial Services,Lake,Full Service Brick and Mortar Office,Front Street,Lake,MS,39092,32.34332769,-89.32678099
BankFirst Financial Services,Lehmberg,Full Service Brick and Mortar Office,110 Lehmberg Road,Columbus,MS,39702,33.493788,-88.36308707
BankFirst Financial Services,Louin,Full Service Brick and Mortar Office,Highway 15 South (East Side),Louin,MS,39338,32.19186359,-89.16832629
BankFirst Financial Services,Madison,Full Service Brick and Mortar Office,1597 Highland Colony Parkway,Madison,MS,39110,32.46870047,-90.14249856
BankFirst Financial Services,Main Street,Full Service Brick and Mortar Office,110 South Jefferson Street,Macon,MS,39341,33.10244217,-88.56152468
BankFirst Financial Services,Newton,Full Service Brick and Mortar Office,114 East Church Street,Newton,MS,39345,32.32163278,-89.16233153
BankFirst Financial Services,Northeast Jackson,Full Service Brick and Mortar Office,"4400 Old Canton Road, Suite 140",Jackson,MS,39211,32.35208325,-90.15150447
BankFirst Financial Services,Russell Street,Full Service Brick and Mortar Office,101 Russell Street,Starkville,MS,39759,33.46231475,-88.8085584
BankFirst Financial Services,Scanlan Street Drive-In,Limited Service Facility Office,Scanlan And Richardson Streets,Newton,MS,39345,32.325075,-89.163054
BankFirst Financial Services,University Mall,Full Service Brick and Mortar Office,2027 Highway 45 North,Columbus,MS,39701,33.523712,-88.4359227
BankFirst Financial Services,West Point,Full Service Brick and Mortar Office,7342 Highway 45 Alt North,West Point,MS,39773,33.61282103,-88.6589247
PriorityOne Bank,Collins,Full Service Brick and Mortar Office,200 Civic Boulevard,Collins,MS,39428,31.6801757,-88.63937997
PriorityOne Bank,Collins Main,Full Service Brick and Mortar Office,215 Main Street,Collins,MS,39428,31.64523818,-89.55585045
PriorityOne Bank,Crossgates,Full Service Brick and Mortar Office,1400 West Government Street,Brandon,MS,39042,32.2838715,-90.0186525
PriorityOne Bank,Flowood,Full Service Brick and Mortar Office,"3500 Lakeland Drive, Suite 501",Flowood,MS,39232,32.332455,-90.101988
PriorityOne Bank,Hattiesburg,Full Service Brick and Mortar Office,6276 Highway 98 West,Hattiesburg,MS,39402,31.318335,-89.3981925
PriorityOne Bank,Hattiesburg,Full Service Brick and Mortar Office,7144 Highway 98 West,Hattiesburg,MS,39402,31.31276447,-89.47078016
PriorityOne Bank,Magee Shopping Center,Full Service Brick and Mortar Office,1596 Simpson Highway 49,Magee,MS,39111,31.86850977,-89.74190487
PriorityOne Bank,Mendenhall,Full Service Brick and Mortar Office,3066 Simpson Highway 13,Mendenhall,MS,39114,31.96266486,-89.88751198
PriorityOne Bank,Morton,Full Service Brick and Mortar Office,164 Hwy 481 South,Morton,MS,39117,32.35145131,-89.67109189
PriorityOne Bank,Pearl,Full Service Brick and Mortar Office,3480 Highway 80 East,Pearl,MS,39208,32.284071,-90.102294
PriorityOne Bank,Pelahatchie,Full Service Brick and Mortar Office,528 Second Street,Pelahatchie,MS,39145,32.31278553,-89.80104575
PriorityOne Bank,Petal Lpo,Limited Service Loan Production Office,"1140 Evelyn Gandy Parkway, Suite 20",Petal,MS,39465,31.35004113,-89.23088545
PriorityOne Bank,Priorityone Bank,Full Service Brick and Mortar Office,220 North Main Avenue,Magee,MS,39111,31.87457216,-89.73243349
PriorityOne Bank,Richland,Full Service Brick and Mortar Office,"1021 Hwy, 49 South",Richland,MS,39218,32.219442,-90.155619
PriorityOne Bank,Ridgeland,Full Service Brick and Mortar Office,"201 Northlake Avenue, Suite 105",Ridgeland,MS,39157,32.4460861,-90.1519502
PriorityOne Bank,Seminary,Full Service Brick and Mortar Office,217 W Main Street,Seminary,MS,39479,31.5618446,-89.49892446
First Bank,Brookhaven,Full Service Brick and Mortar Office,200 South Whitworth Avenue,Brookhaven,MS,39601,31.57842676,-90.44343239
First Bank,Brookway Boulevard,Full Service Brick and Mortar Office,750 Brookway Boulevard,Brookhaven,MS,39601,31.57968495,-90.45873575
First Bank,First Bank,Full Service Brick and Mortar Office,105 South Broadway Street,Mccomb,MS,39648,31.2434829,-90.4534788
First Bank,First Bank - Edgewood Drive,Full Service Brick and Mortar Office,103 Edgewood Drive,Mccomb,MS,39648,31.2612805,-90.47602834
First Bank,Hattiesburg Lpo,Limited Service Loan Production Office,"6555 Hwy 98 West, Suite 5b",Hattiesburg,MS,39402,31.31748819,-89.42116544
First Bank,Hattiesburg-Midtown,Full Service Brick and Mortar Office,3301 Hardy Street,Hattiesburg,MS,39402,31.325283,-89.33877
First Bank,Highway 84,Full Service Brick and Mortar Office,410 East Broad Street,Monticello,MS,39654,31.55368652,-90.10574039
First Bank,Liberty,Full Service Brick and Mortar Office,832 East Main Street,Liberty,MS,39645,31.15955387,-90.80022344
First Bank,madison,Full Service Brick and Mortar Office,1903 Main St,Madison,MS,39110,32.46764647,-90.1281695
First Bank,Magnolia,Full Service Brick and Mortar Office,284 East Bay Street,Magnolia,MS,39652,31.14359276,-90.45914053
First Bank,Osyka,Full Service Brick and Mortar Office,Liberty And Railroad Avenues,Osyka,MS,39657,31.00554,-90.468792
First Bank,Southwest Mall,Full Service Brick and Mortar Office,Delaware Avenue And Price Street,Mccomb,MS,39648,31.24755,-90.469809
First Bank,Summit,Full Service Brick and Mortar Office,Robb Street,Summit,MS,39666,31.28360893,-90.46496306
First Bank,Third Street,Full Service Brick and Mortar Office,315 Third Street,Mccomb,MS,39648,31.24170035,-90.45480755
First Bank,West Hattiesburg,Full Service Brick and Mortar Office,"7 Woodstone Plaza, Suite 7",Hattiesburg,MS,39402,31.31586525,-89.41873449
"CB&S Bank, Inc.",12-25 Industrial,Full Service Brick and Mortar Office,Highways 12 And 25,Starkville,MS,39759,33.41864948,-88.89474663
"CB&S Bank, Inc.",Clarksdale Main,Full Service Brick and Mortar Office,301 John Lee Hooker Lane,Clarksdale,MS,38614,34.19405668,-90.606457
"CB&S Bank, Inc.",Corinth,Full Service Brick and Mortar Office,110 Alcorn Drive,Corinth,MS,38834,34.93188,-88.55860449
"CB&S Bank, Inc.",Eupora,Full Service Brick and Mortar Office,102 West Fox Avenue,Eupora,MS,39744,33.54219153,-89.27658384
"CB&S Bank, Inc.",Gloster,Full Service Brick and Mortar Office,901 S. Gloster Street,Tupelo,MS,38801,34.24097724,-88.71797367
"CB&S Bank, Inc.",Greenville,Full Service Brick and Mortar Office,1701 Highway 1 South,Greenville,MS,38701,33.37435032,-91.03978216
"CB&S Bank, Inc.",Greenville Main,Full Service Brick and Mortar Office,342 Washington Avenue,Greenville,MS,38701,33.41188392,-91.06159467
"CB&S Bank, Inc.",Greenwood,Full Service Brick and Mortar Office,400 Fulton Street,Greenwood,MS,38930,33.51807468,-90.18317044
"CB&S Bank, Inc.",Greenwood Main,Full Service Brick and Mortar Office,820 West Park Avenue,Greenwood,MS,38930,33.52712916,-90.20331925
"CB&S Bank, Inc.",Ripley,Full Service Brick and Mortar Office,14331 Highway 15 North,Ripley,MS,38663,34.76092417,-88.93857499
"CB&S Bank, Inc.",South Harper Road,Full Service Brick and Mortar Office,200 South Harper Road,Corinth,MS,38834,34.92889492,-88.49536063
"CB&S Bank, Inc.",Sturgis,Full Service Brick and Mortar Office,3869 Highway 12 West,Sturgis,MS,39769,33.35321453,-89.03389335
"CB&S Bank, Inc.",Tupelo West Main,Full Service Brick and Mortar Office,3425 West Main Street,Tupelo,MS,38801,34.25056345,-88.7621403
"CB&S Bank, Inc.",Walnut,Full Service Brick and Mortar Office,28171 Highway 15,Walnut,MS,38683,34.94501937,-88.90234103
Wells Fargo Bank,Biloxi Main,Full Service Brick and Mortar Office,854 Howard Avenue,Biloxi,MS,39530,30.397077,-88.8907815
Wells Fargo Bank,Courthouse Road,Full Service Brick and Mortar Office,375 Courthouse Road,Gulfport,MS,39507,30.385413,-89.0446365
Wells Fargo Bank,Edgewater,Full Service Brick and Mortar Office,2675 Pass Road,Biloxi,MS,39531,30.4000168,-88.99409036
Wells Fargo Bank,Hardy Street,Full Service Brick and Mortar Office,3707 Hardy Street,Hattiesburg,MS,39402,31.325319,-89.345241
Wells Fargo Bank,Lakeland,Full Service Brick and Mortar Office,2299 Lakeland Drive,Flowood,MS,39232,32.329836,-90.125667
Wells Fargo Bank,Ocean Springs,Full Service Brick and Mortar Office,1701 Bienville Boulevard,Ocean Springs,MS,39564,30.41640136,-88.81319262
Wells Fargo Bank,One Jackson Place,Full Service Brick and Mortar Office,188 East Capital Street,Jackson,MS,39201,32.300892,-90.186228
Wells Fargo Bank,Pascagoula,Full Service Brick and Mortar Office,1114 Jackson Avenue,Pascagoula,MS,39567,30.3655404,-88.55273911
Wells Fargo Bank,Ridgeland,Full Service Brick and Mortar Office,109 West Jackson Street,Ridgeland,MS,39157,32.42861351,-90.1300635
Wells Fargo Bank,Ridgewood,Full Service Brick and Mortar Office,6114 Ridgewood Road,Jackson,MS,39211,32.39565011,-90.14105815
Wells Fargo Bank,Southaven,Full Service Brick and Mortar Office,485 Goodman Road E,Southaven,MS,38671,34.96268781,-89.98096117
Wells Fargo Bank,Turtle Creek,Full Service Brick and Mortar Office,6093 Us Highway 98,Hattiesburg,MS,39402,31.32183748,-89.38082935
Great Southern Bank,Bank Of Decatur,Full Service Brick and Mortar Office,15122 Highway 15 South,Decatur,MS,39327,32.43601028,-89.10735318
Great Southern Bank,Bonita Lakes,Full Service Brick and Mortar Office,1245 Bonita Lakes Circle,Meridian,MS,39301,32.36044647,-88.67440111
Great Southern Bank,College Park,Full Service Brick and Mortar Office,Highway 11 South And Highway 19,Meridian,MS,39301,32.348502,-88.7355675
Great Southern Bank,Enterprise,Full Service Brick and Mortar Office,Highway 11 And State Street,Enterprise,MS,39330,32.26233616,-88.76936476
Great Southern Bank,Great Southern Bank,Full Service Brick and Mortar Office,218 22nd Avenue South,Meridian,MS,39301,32.3598971,-88.69648444
Great Southern Bank,Hattiesburg Main,Full Service Brick and Mortar Office,1300 Hardy Street,Hattiesburg,MS,39401,31.324446,-89.309646
Great Southern Bank,Medical Center,Full Service Brick and Mortar Office,2201 13th St,Meridian,MS,39301,32.36986351,-88.70071853
Great Southern Bank,Meridian North-Branch,Full Service Brick and Mortar Office,2441 North Hills Street,Meridian,MS,39305,32.40929166,-88.70409716
Great Southern Bank,Northside,Full Service Brick and Mortar Office,North Main Street At Glendale Road,Hattiesburg,MS,39401,31.33217979,-89.29664021
Great Southern Bank,Quitman,Full Service Brick and Mortar Office,105 S Archusa Avenue,Quitman,MS,39355,32.038974,-88.72803759
Great Southern Bank,Waynesboro,Full Service Brick and Mortar Office,1010 Azalea Drive,Waynesboro,MS,39367,31.67995845,-88.63909137
Great Southern Bank,West,Full Service Brick and Mortar Office,6232 Us Highway 98,Hattiesburg,MS,39402,31.31970406,-89.39279969
Citizens Bank,Barton,Full Service Brick and Mortar Office,3441 Highway 309 North,Byhalia,MS,38611,34.97262528,-89.68899318
Citizens Bank,Bellevue,Full Service Brick and Mortar Office,7119 U. S. Highway 98,Hattiesburg,MS,39402,31.31359041,-89.46585066
Citizens Bank,Citizens Bank,Full Service Brick and Mortar Office,814 Main Street,Columbia,MS,39429,31.25337303,-89.83525788
Citizens Bank,Citizens Bank,Full Service Brick and Mortar Office,8077 State Highway 178,Byhalia,MS,38611,34.87175111,-89.68414556
Citizens Bank,Citizens Bank-Laurel,Full Service Brick and Mortar Office,1511 West 4th Street,Laurel,MS,39440,31.69332582,-89.14562993
Citizens Bank,Magnolia,Full Service Brick and Mortar Office,105 North Clark Avenue,Magnolia,MS,39652,31.14460345,-90.46154312
Citizens Bank,Park Avenue,Full Service Brick and Mortar Office,625 Highway 98 By Pass,Columbia,MS,39429,31.23724774,-89.82332366
Citizens Bank,Seminary,Full Service Brick and Mortar Office,102 East Main Street,Seminary,MS,39479,31.56187817,-89.49544713
Citizens Bank,Sumrall,Full Service Brick and Mortar Office,1036 Highway 42,Sumrall,MS,39482,31.41337333,-89.55541369
Citizens Bank,Tylertown,Full Service Brick and Mortar Office,907 Beulah Avenue,Tylertown,MS,39667,31.11598191,-90.14309846
Citizens Bank,Victoria,Full Service Brick and Mortar Office,Highway 78,Victoria,MS,38679,34.83187135,-89.58471812
"Cadence Bank, N.A.",Aberdeen,Full Service Brick and Mortar Office,East Commerce Street,Aberdeen,MS,39730,33.8234757,-88.53625436
"Cadence Bank, N.A.",Amory,Full Service Brick and Mortar Office,110-114 North Third Street,Amory,MS,38821,33.98611186,-88.48818227
"Cadence Bank, N.A.",Bluecutt,Full Service Brick and Mortar Office,3601 Bluecutt Road,Columbus,MS,39701,33.53820857,-88.43755066
"Cadence Bank, N.A.",Columbus,Full Service Brick and Mortar Office,803 Main Street,Columbus,MS,39701,33.4958173,-88.42385476
"Cadence Bank, N.A.",Highway 45,Limited Service Facility Office,U.S. Highway 45 South And West Broad Street,West Point,MS,39773,33.605622,-88.6590315
"Cadence Bank, N.A.",Highway 45 North,Limited Service Facility Office,302 Sthy 45,Aberdeen,MS,39730,33.83255612,-88.56407513
"Cadence Bank, N.A.",Philadelphia Main,Full Service Brick and Mortar Office,535 East Main Street,Philadelphia,MS,39350,32.77091228,-89.10752295
"Cadence Bank, N.A.",Starkville Crossing,Full Service Brick and Mortar Office,818 Highway 12 West,Starkville,MS,39759,33.44801748,-88.84070691
"Cadence Bank, N.A.",Starkville Main,Full Service Brick and Mortar Office,301 University Drive,Starkville,MS,39759,33.46394934,-88.81385698
"Cadence Bank, N.A.",University,Limited Service Facility Office,606 Highway 12 East,Starkville,MS,39759,33.45443262,-88.80680512
"Cadence Bank, N.A.",West Point Main,Full Service Brick and Mortar Office,657 Commerce Street,West Point,MS,39773,33.60631566,-88.64846684
Pike National Bank,Brookhaven,Full Service Brick and Mortar Office,702 Highway 51 North,Brookhaven,MS,39601,31.59372938,-90.4547223
Pike National Bank,Pikco Brookhaven,Limited Service Consumer Credit Office,203 Highway 51 North,Brookhaven,MS,39601,31.58363612,-90.45684352
Pike National Bank,Pikco Finance Philadelphia,Limited Service Consumer Credit Office,"1120 East Main Street, Suite 15",Philadelphia,MS,39350,32.77082214,-89.09060112
Pike National Bank,Pikco Mccomb,Limited Service Consumer Credit Office,352 Rawls Drive,Mccomb,MS,39648,31.25192649,-90.4710347
Pike National Bank,Pikco Meridian,Limited Service Consumer Credit Office,802 23rd Avenue,Meridian,MS,39301,32.36543913,-88.70142656
Pike National Bank,Pikco Petal,Limited Service Consumer Credit Office,501 New Richton Road,Petal,MS,39465,31.34676109,-89.25435491
Pike National Bank,Pike National Bank,Full Service Brick and Mortar Office,350 Rawls Drive,Mccomb,MS,39648,31.25250828,-90.47105783
Pike National Bank,South Broadway,Limited Service Facility Office,628 South Broadway,Mccomb,MS,39648,31.23601969,-90.45165916
Pike National Bank,Veterans Boulevard,Limited Service Facility Office,1808 Pikes Point Circle,Mccomb,MS,39648,31.25999905,-90.47780921
Pike National Bank,Walthall County Division,Full Service Brick and Mortar Office,1207 Beulah Avenue,Tylertown,MS,39667,31.11597392,-90.14619869
Merchants & Marine Bank,Escatawpa,Full Service Brick and Mortar Office,7616 Highway 613,Moss Point,MS,39563,30.45232513,-88.54115047
Merchants & Marine Bank,Gautier,Full Service Brick and Mortar Office,1200 Highway 90,Gautier,MS,39553,30.3877205,-88.62858893
Merchants & Marine Bank,Hurley,Full Service Brick and Mortar Office,21536 Highway 613,Moss Point,MS,39563,30.656502,-88.49142
Merchants & Marine Bank,Lucedale,Full Service Brick and Mortar Office,11283 Old 63 South,Lucedale,MS,39452,30.92615384,-88.5555663
Merchants & Marine Bank,Market Street,Full Service Brick and Mortar Office,1807 Market St,Pascagoula,MS,39567,30.35392797,-88.54852889
Merchants & Marine Bank,Merchants & Marine Bank,Full Service Brick and Mortar Office,3118 Pascagoula Street,Pascagoula,MS,39567,30.365289,-88.5554595
Merchants & Marine Bank,Moss Point - Main Street,Full Service Brick and Mortar Office,4619 Main Street (Highway 613),Moss Point,MS,39563,30.40846694,-88.53906251
Merchants & Marine Bank,Ocean Springs,Full Service Brick and Mortar Office,2008 Bienville Blvd,Ocean Springs,MS,39564,30.41619765,-88.80902801
Merchants & Marine Bank,Saint Martin,Full Service Brick and Mortar Office,6416 North Washington Avenue,Ocean Springs,MS,39564,30.435264,-88.8295005
Merchants & Marine Bank,Wade,Full Service Brick and Mortar Office,Highway 63,Pascagoula,MS,39567,30.44385613,-88.52946167
Farmers and Merchants Bank,Booneville,Full Service Brick and Mortar Office,1000 East Church Street,Booneville,MS,38829,34.65452645,-88.55098128
Farmers and Merchants Bank,Booneville North,Full Service Brick and Mortar Office,1111 North Second Street,Booneville,MS,38829,34.67570213,-88.56088397
Farmers and Merchants Bank,Corinth,Full Service Brick and Mortar Office,515 Filmore Street,Corinth,MS,38834,34.93554393,-88.52024972
Farmers and Merchants Bank,Farmers And Merchants Bank,Full Service Brick and Mortar Office,111 West Clayton Street,Baldwyn,MS,38824,34.5100005,-88.63344713
Farmers and Merchants Bank,Fmb Mortgage Center,Limited Service Loan Production Office,102 East Main Street,Baldwyn,MS,38824,34.50910486,-88.63307287
Farmers and Merchants Bank,Harper Road,Full Service Brick and Mortar Office,2222 Harper Road,Corinth,MS,38834,34.91153376,-88.50316616
Farmers and Merchants Bank,Mantachie,Full Service Brick and Mortar Office,5600 Highway 363,Mantachie,MS,38855,34.32287545,-88.4898095
Farmers and Merchants Bank,Marietta,Full Service Brick and Mortar Office,421 Highway 371,Marietta,MS,38856,34.50209245,-88.46875786
Farmers and Merchants Bank,Mooreville,Full Service Brick and Mortar Office,779 Highway 371,Mooreville,MS,38857,34.26742894,-88.57561223
Farmers and Merchants Bank,Tupelo West,Full Service Brick and Mortar Office,1803 West Main Street,Tupelo,MS,38801,34.25612448,-88.73470011
Copiah Bank,Byram,Full Service Brick and Mortar Office,5754 Terry Road,Byram,MS,39272,32.187735,-90.258309
Copiah Bank,Caldwell,Full Service Brick and Mortar Office,680 Caldwell Drive,Hazlehurst,MS,39083,31.8730385,-90.39801525
Copiah Bank,Clinton Office,Full Service Brick and Mortar Office,767 Clinton Parkway,Clinton,MS,39056,32.34883179,-90.32563184
Copiah Bank,Copiah Bank,Full Service Brick and Mortar Office,101 Caldwell Drive,Hazlehurst,MS,39083,31.86061231,-90.39619076
Copiah Bank,Crystal Springs,Full Service Brick and Mortar Office,201 East Railroad Avenue,Crystal Springs,MS,39059,31.98532451,-90.3591323
Copiah Bank,Florence,Full Service Brick and Mortar Office,150 Earl Clark Drive,Florence,MS,39073,32.15196,-90.131058
Copiah Bank,Flowood,Full Service Brick and Mortar Office,437 Katherine Drive,Flowood,MS,39232,32.33098461,-90.09314615
Copiah Bank,Richland Office,Full Service Brick and Mortar Office,145 West Harper Street,Richland,MS,39218,32.22109254,-90.1577115
Copiah Bank,Wesson,Full Service Brick and Mortar Office,Highway 51 And Church Street,Wesson,MS,39191,31.700916,-90.3982905
First American National Bank,Amory Lpo,Limited Service Administrative Office,105 S. Main Street,Amory,MS,38821,33.98522021,-88.48901863
First American National Bank,Belmont Main,Full Service Brick and Mortar Office,362 Second Street,Belmont,MS,38827,34.50838161,-88.20796184
First American National Bank,Booneville,Full Service Brick and Mortar Office,1102 N Second Street,Booneville,MS,38829,34.6742114,-88.56127925
First American National Bank,Burnsville,Full Service Brick and Mortar Office,1 Fulton Street,Burnsville,MS,38833,34.83585723,-88.31681555
First American National Bank,First American National Bank,Full Service Brick and Mortar Office,1251 First American Drive,Iuka,MS,38852,34.80360048,-88.20580084
First American National Bank,Fulton Office,Full Service Brick and Mortar Office,401 Interchange Drive,Fulton,MS,38843,34.23977927,-88.40042282
First American National Bank,Saltillo,Full Service Brick and Mortar Office,173 Mobile Street,Saltillo,MS,38866,34.37919807,-88.69476242
First American National Bank,Tishomingo,Full Service Brick and Mortar Office,Highway 25 And North Street,Tishomingo,MS,38873,34.637841,-88.2320805
First American National Bank,Tupelo,Full Service Brick and Mortar Office,4289 North Gloster Street,Tupelo,MS,38804,34.31852189,-88.70657228
United Mississippi Bank,Bude,Full Service Brick and Mortar Office,2292 Highway 184 E,Bude,MS,39630,31.46071133,-90.86050481
United Mississippi Bank,Centreville,Full Service Brick and Mortar Office,494 Highway 24,Centreville,MS,39631,31.07980124,-91.06087732
United Mississippi Bank,Fayette,Full Service Brick and Mortar Office,1440 Main Street,Fayette,MS,39069,31.71082979,-91.06162172
United Mississippi Bank,Gloster,Full Service Brick and Mortar Office,647 Highway 33,Gloster,MS,39638,31.19769055,-91.01320535
United Mississippi Bank,Morgantown,Full Service Brick and Mortar Office,1 Morgantown Road,Natchez,MS,39120,31.56387101,-91.35402835
United Mississippi Bank,Operations Natchez,Full Service Brick and Mortar Office,75 Melrose-Montebello Parkway,Natchez,MS,39120,31.537449,-91.38404879
United Mississippi Bank,Southern Motor Bank,Full Service Brick and Mortar Office,20 Seargent S Prentiss Drive,Natchez,MS,39120,31.52363397,-91.39034649
United Mississippi Bank,United Mississippi Bank,Full Service Brick and Mortar Office,75 Melrose-Montebello Parkway,Natchez,MS,39120,31.537449,-91.38404879
United Mississippi Bank,Woodville Downtown Office,Full Service Brick and Mortar Office,142 Royal Oak Street,Woodville,MS,39669,31.10368951,-91.29952566
FSNB,Byram,Full Service Retail Office,131 Handley Blvd.,Byram,MS,39272,32.18732375,-90.26510592
FSNB,Feather Lane,Full Service Retail Office,244 Feather Lane,Canton,MS,39046,32.5962409,-90.0701532
FSNB,Flowood,Full Service Retail Office,5341 Hwy 5,Flowood,MS,39232,34.68662014,-89.17194482
FSNB,Greenway Drive,Full Service Retail Office,2711 Greenway Dr,Jackson,MS,39204,32.287806,-90.2695185
FSNB,Madison,Full Service Retail Office,127 Grand View Blvd,Madison,MS,39110,32.46673863,-90.13206217
FSNB,Old Canton Road,Full Service Brick and Mortar Office,5006 Old Canton Road,Jackson,MS,39211,32.366988,-90.145773
FSNB,Olive,Full Service Retail Office,7950 Craft Goodman Frontage Rd,Olive Branch,MS,38654,34.96385279,-89.84880998
FSNB,Pearl,Full Service Retail Office,5520 Hwy 80 E,Pearl,MS,39208,32.286681,-90.046179
FSNB,Southaven,Full Service Retail Office,6811 Southcrest Pkwy,Southaven,MS,38671,34.959717,-89.99453651
Magnolia State Bank,Central Avenue,Full Service Brick and Mortar Office,500 Central Avenue,Laurel,MS,39440,31.69263056,-89.1313773
Magnolia State Bank,Downtown Motor,Limited Service Facility Office,28 Hwy 528,Bay Springs,MS,39422,31.97708554,-89.28304581
Magnolia State Bank,Hattiesburg,Full Service Brick and Mortar Office,6179 Highway 98,Hattiesburg,MS,39402,31.32092128,-89.38712414
Magnolia State Bank,Heidelberg,Full Service Brick and Mortar Office,407 Main Street,Heidelberg,MS,39439,31.88614108,-88.97993389
Magnolia State Bank,Laurel,Full Service Brick and Mortar Office,3220 Highway 15 North,Laurel,MS,39440,31.73042017,-89.14700874
Magnolia State Bank,Magnolia State Bank,Full Service Brick and Mortar Office,28 Highway 528,Bay Springs,MS,39422,31.97708554,-89.28304581
Magnolia State Bank,Petal,Full Service Brick and Mortar Office,1130 Evelyn Gandy Parkway,Petal,MS,39465,31.350591,-89.240247
Magnolia State Bank,Taylorsville,Full Service Brick and Mortar Office,748 Highway 28 East,Taylorsville,MS,39168,31.82821588,-89.41737165
Bank of Commerce,Bank Of Commerce,Full Service Brick and Mortar Office,310 Howard Street,Greenwood,MS,38930,33.51910062,-90.18226006
Bank of Commerce,Bank Of Commerce Starkville,Full Service Brick and Mortar Office,315 University Avenue,Starkville,MS,39759,33.46394068,-88.81195884
Bank of Commerce,Carrollton,Full Service Brick and Mortar Office,107 Lexington Street,Carrollton,MS,38917,33.49909287,-89.92555846
Bank of Commerce,Columbus,Full Service Brick and Mortar Office,427 Main Street,Columbus,MS,39701,33.49512926,-88.42834626
Bank of Commerce,North Carrollton,Full Service Brick and Mortar Office,106 E Main St,North Carrollton,MS,38947,33.51855618,-89.91735959
Bank of Commerce,Oxford,Full Service Brick and Mortar Office,1610 West Jackson Avenue,Oxford,MS,38655,34.36577805,-89.55243737
Bank of Commerce,Park Avenue,Full Service Brick and Mortar Office,815 West Park Avenue,Greenwood,MS,38930,33.52775929,-90.20150527
Bank of Commerce,Tallahatchie County Bank,Full Service Brick and Mortar Office,10 South Square Street,Charleston,MS,38921,32.79385389,-79.93286361
First Federal Savings and Loan Association,2601 Hwy 90,Full Service Brick and Mortar Office,1414 Highway 90,Gautier,MS,39553,30.389067,-88.632621
First Federal Savings and Loan Association,3905 Beinville Boulevard,Full Service Brick and Mortar Office,3905 Beinville Boulevard,Ocean Springs,MS,39564,30.40935159,-88.76148171
First Federal Savings and Loan Association,4201 Bellview,Full Service Brick and Mortar Office,4201 Bellview,Moss Point,MS,39563,30.41208987,-88.54098373
First Federal Savings and Loan Association,First Federal Savings And Loan Assoc,Full Service Brick and Mortar Office,111 West Commerce Street,Aberdeen,MS,39730,33.82527254,-88.54400273
First Federal Savings and Loan Association,First Federal Savings And Loan Assoc,Full Service Brick and Mortar Office,903 Jackson Ave,Pascagoula,MS,39567,30.36584106,-88.55486512
First Federal Savings and Loan Association,Hurley,Full Service Brick and Mortar Office,Hway 613,Hurley,MS,39555,30.59801877,-88.48623132
First Federal Savings and Loan Association,Vancleave,Full Service Brick and Mortar Office,10900 Highway 57,Vancleave,MS,39565,30.50101339,-88.70350116
BNA Bank,Barnes Crossing,Full Service Brick and Mortar Office,2919 Tom Watson Drive,Saltillo,MS,38866,34.31317051,-88.69832668
BNA Bank,Bna Bank,Full Service Brick and Mortar Office,205 Bankhead Street,New Albany,MS,38652,34.49267142,-89.00654361
BNA Bank,East,Full Service Brick and Mortar Office,132 Ushwy 15,New Albany,MS,38652,31.688298,-89.14671431
BNA Bank,Mccullough,Full Service Brick and Mortar Office,3041 Mccullough Boulevard,Belden,MS,38826,34.2996412,-88.77442832
BNA Bank,Myrtle,Full Service Brick and Mortar Office,1181 Springdale Ave.,Myrtle,MS,38650,34.55855211,-89.11918562
BNA Bank,West,Full Service Brick and Mortar Office,103 Highway 30 West,New Albany,MS,38652,34.49985011,-89.02520211
Peoples Bank,Collins,Full Service Brick and Mortar Office,710 Main Street,Collins,MS,39428,31.6416853,-89.55909511
Peoples Bank,Magee,Full Service Brick and Mortar Office,611 Fifth Avenue,Magee,MS,39111,31.86874904,-89.72631313
Peoples Bank,Peoples Bank,Full Service Brick and Mortar Office,160 E. Maud Avenue,Mendenhall,MS,39114,31.96141123,-89.86831459
Peoples Bank,Peoples Bank Richland Loan Productio,Limited Service Loan Production Office,"368 Scarbrough Street, Suite A1",Richland,MS,39218,32.21391696,-90.16142216
Peoples Bank,Richland,Full Service Brick and Mortar Office,129 Center Street,Richland,MS,39218,32.22019907,-90.15673461
Peoples Bank,West Jackson Avenue,Full Service Brick and Mortar Office,165 West Jackson Avenue,Mendenhall,MS,39114,31.96082098,-89.87126149
Sycamore Bank,Coldwater,Full Service Brick and Mortar Office,409 Central,Coldwater,MS,38618,34.68783327,-89.97703751
Sycamore Bank,Hernando,Full Service Brick and Mortar Office,1025 East Commerce Street,Hernando,MS,38632,34.8237795,-89.97145891
Sycamore Bank,Independence,Full Service Brick and Mortar Office,Highway 305,Independence,MS,38638,34.70481382,-89.81128328
Sycamore Bank,Oxford Loan Production Office,Limited Service Loan Production Office,"426 South Lamar Boulevard, Suite #21",Oxford,MS,38655,34.36445019,-89.51921654
Sycamore Bank,Southaven,Full Service Brick and Mortar Office,6830 Getwell Road,Southaven,MS,38672,34.960032,-89.93670695
Sycamore Bank,Sycamore Bank,Full Service Brick and Mortar Office,301 East Main Street,Senatobia,MS,38668,34.61954347,-89.95917053
Mechanics Bank,Drive-In Facility,Limited Service Facility Office,321 Duncan Street,Water Valley,MS,38965,34.15261264,-89.6319229
Mechanics Bank,Eastgate,Full Service Brick and Mortar Office,1936 University Avenue,Oxford,MS,38655,34.36230011,-89.50830322
Mechanics Bank,Mechanics Bank,Full Service Brick and Mortar Office,319 North Main Street,Water Valley,MS,38965,34.15234083,-89.6313122
Mechanics Bank,South Main Street,Full Service Brick and Mortar Office,321 South Main Street,Water Valley,MS,38965,34.14554071,-89.63475079
Mechanics Bank,University Avenue,Full Service Brick and Mortar Office,1508 University Avenue,Oxford,MS,38655,34.36340491,-89.51513719
Mechanics Bank,West Jackson,Full Service Brick and Mortar Office,2601 Jackson Avenue West,Oxford,MS,38655,34.3618444,-89.56833031
First Southern Bank,First Southern Bank,Full Service Brick and Mortar Office,1075 Highway 98,Columbia,MS,39429,31.24307714,-89.80905556
First Southern Bank,Oak Grove,Full Service Brick and Mortar Office,5248 Old Highway 11,Hattiesburg,MS,39402,31.310703,-89.4101175
First Southern Bank,Petal,Full Service Brick and Mortar Office,1048 Highway 42,Petal,MS,39465,31.349826,-89.2139625
First Southern Bank,Picayune,Full Service Brick and Mortar Office,1321 Highway43 North,Picayune,MS,39466,30.54321305,-89.6560115
First Southern Bank,Richton,Full Service Brick and Mortar Office,502 North Front Street,Richton,MS,39476,31.3530312,-88.93559055
First Southern Bank,Second Street,Full Service Brick and Mortar Office,340 Second Street,Columbia,MS,39429,31.25179398,-89.83352925
Origin Bank,County Line Banking Center,Full Service Brick and Mortar Office,"1059 East County Line Road, Suite C",Jackson,MS,39211,32.39937591,-90.13737807
Origin Bank,Flowood Banking Center,Full Service Brick and Mortar Office,203 Promenade Boulevard,Flowood,MS,39232,32.34340187,-90.05785422
Origin Bank,Highland Colony Financial Center,Full Service Brick and Mortar Office,1063 Highland Colony Parkway,Ridgeland,MS,39157,32.44298321,-90.14971849
Origin Bank,Jackson Banking Center,Full Service Brick and Mortar Office,120 City Center Drive,Jackson,MS,39211,32.28332137,-90.10585845
Origin Bank,Madison Banking Center,Full Service Brick and Mortar Office,1910 Main Street,Madison,MS,39110,32.46790391,-90.12798965
Origin Bank,Oxford Banking Center,Full Service Brick and Mortar Office,1312 University Avenue,Oxford,MS,38655,34.36381573,-89.51775373
The Peoples Bank,Blue Mountain,Limited Service Facility Office,122 North Guyton Boulevard,Blue Mountain,MS,38610,34.6746585,-89.02425967
The Peoples Bank,East Motor,Limited Service Facility Office,405 East Walnut Street,Ripley,MS,38663,34.72972872,-88.94606177
The Peoples Bank,Mcgill North,Limited Service Facility Office,1414 Highway 15 North,Ripley,MS,38663,34.74717579,-88.94587015
The Peoples Bank,Ripley,Limited Service Facility Office,907 City Avenue South,Ripley,MS,38663,34.72031669,-88.9532244
The Peoples Bank,The Peoples Bank,Full Service Brick and Mortar Office,305 East Jefferson,Ripley,MS,38663,34.73039152,-88.94653183
The Peoples Bank,Walnut,Full Service Brick and Mortar Office,Highway 15 North,Walnut,MS,38683,34.95750216,-88.90316278
First National Bank of Picayune,First National Bank Of Picayune,Full Service Brick and Mortar Office,121 East Canal Street,Picayune,MS,39466,30.52581932,-89.67960772
First National Bank of Picayune,North,Full Service Brick and Mortar Office,721 Cooper Road,Picayune,MS,39466,30.5435811,-89.652609
First National Bank of Picayune,Picayune-South,Full Service Brick and Mortar Office,801 Memorial Blvd,Picayune,MS,39466,30.51743367,-89.67253192
First National Bank of Picayune,Poplarville,Full Service Brick and Mortar Office,1720 South Main Street,Poplarville,MS,39470,30.82106161,-89.51940107
First National Bank of Picayune,West Canal Street,Full Service Brick and Mortar Office,208 West Canal Street,Picayune,MS,39466,30.52655869,-89.68256153
First National Bank of Picayune,Wiggins,Full Service Brick and Mortar Office,1025 Hall Street,Wiggins,MS,39577,30.8488965,-89.1422859
First National Bank of Clarksdale,Bank Of Oxford- Jackson Avenue Branc,Full Service Brick and Mortar Office,2531 Jackson Avenue,Oxford,MS,38655,34.36210307,-89.56574448
First National Bank of Clarksdale,First National Bank Of Clarksdale,Full Service Brick and Mortar Office,402 East Second Street,Clarksdale,MS,38614,34.20354091,-90.57040383
First National Bank of Clarksdale,Nortside,Full Service Brick and Mortar Office,112 East Lee Drive,Clarksdale,MS,38614,34.21755566,-90.57298896
First National Bank of Clarksdale,University Avenue,Full Service Brick and Mortar Office,3043 University Avenue,Oxford,MS,38655,34.36257113,-89.50915048
First National Bank of Clarksdale,Westgate,Full Service Brick and Mortar Office,1009 Lee Drive,Clarksdale,MS,38614,34.19723983,-90.6063963
The Commercial Bank,Collinsville,Full Service Brick and Mortar Office,Highway 19 North,Collinsville,MS,39325,32.56873847,-88.92916343
The Commercial Bank,Medical Center,Full Service Brick and Mortar Office,1101 22nd Avenue,Meridian,MS,39301,32.368086,-88.70041354
The Commercial Bank,Meridian,Full Service Brick and Mortar Office,7591 Highway 39,Meridian,MS,39305,32.44191572,-88.67167305
The Commercial Bank,Philadelphia,Full Service Brick and Mortar Office,206 South Lewis Avenue,Philadelphia,MS,39350,32.76965687,-89.12447641
The Commercial Bank,The Commercial Bank,Full Service Brick and Mortar Office,175 Hopper Avenue,De Kalb,MS,39328,32.76666354,-88.65202102
Merchants & Farmers Bank,Ashland,Full Service Brick and Mortar Office,15980 Boundary Drive,Ashland,MS,38603,34.82929891,-89.18912221
Merchants & Farmers Bank,Byhalia,Full Service Brick and Mortar Office,523 Highway 309 South,Byhalia,MS,38611,34.85773497,-89.6884122
Merchants & Farmers Bank,Hickory Flat,Full Service Brick and Mortar Office,6370 Highway 178,Hickory Flat,MS,38633,34.61778471,-89.1899987
Merchants & Farmers Bank,Merchants & Farmers Bank,Full Service Brick and Mortar Office,650 Highway 7 South,Holly Springs,MS,38635,34.75214028,-89.45298028
Merchants & Farmers Bank,Merchants And Farmers Bank Loan Prod,Limited Service Loan Production Office,501 Heritage Drive,Oxford,MS,38655,34.36621617,-89.56000649
Bank of Yazoo City,Bank Of Yazoo City,Full Service Brick and Mortar Office,686 Highway 49,Flora,MS,39071,32.52707096,-90.31009612
Bank of Yazoo City,Bank Of Yazoo City,Full Service Brick and Mortar Office,104 North Main Street,Yazoo City,MS,39194,32.84743324,-90.4135242
Bank of Yazoo City,Flowood,Full Service Brick and Mortar Office,1717 Old Fannin Road,Flowood,MS,39232,32.34312,-90.06408
Bank of Yazoo City,Highway 49,Limited Service Facility Office,1405 Jerry Clower,Yazoo City,MS,39194,32.862646,-90.3931825
Bank of Yazoo City,"Pearl, Mississippi",Full Service Brick and Mortar Office,5650 Highway 80 East,Pearl,MS,39208,32.284287,-90.0440235
First Tennessee Bank,Hernando Financial Center,Full Service Brick and Mortar Office,500 East Commerce Street,Hernando,MS,38632,34.82403854,-89.98046001
First Tennessee Bank,Olive,Full Service Brick and Mortar Office,7430 Goodman Rd,Olive Branch,MS,38654,34.962714,-89.857422
First Tennessee Bank,Senatobia Main,Full Service Brick and Mortar Office,207 East Main Street,Senatobia,MS,38668,34.61918279,-89.96175399
First Tennessee Bank,Snowden Grove Financial,Full Service Brick and Mortar Office,3212 Goodman Road,Southaven,MS,38672,34.96245846,-89.933841
First Tennessee Bank,Southaven/Goodman Road,Full Service Brick and Mortar Office,615 Goodman Road East,Southaven,MS,38671,34.96267288,-89.97970743
The Bank of Holly Springs,Abbeville,Full Service Brick and Mortar Office,2 Business 7 North,Abbeville,MS,38601,34.5034043,-89.50290565
The Bank of Holly Springs,Potts Camp,Full Service Brick and Mortar Office,6640 Church Street,Potts Camp,MS,38659,34.65209908,-89.30958595
The Bank of Holly Springs,Slayden,Full Service Brick and Mortar Office,102 North Slayden Road,Lamar,MS,38642,34.94975102,-89.44116426
The Bank of Holly Springs,South,Full Service Brick and Mortar Office,970 Highway 7 South,Holly Springs,MS,38635,34.74523456,-89.45584041
The Bank of Holly Springs,The Bank Of Holly Springs,Full Service Brick and Mortar Office,114 S Memphis St,Holly Springs,MS,38635,34.7682063,-89.44865994
Merchants and Planters Bank,Bolton,Full Service Brick and Mortar Office,217 Madison Street,Bolton,MS,39041,32.35059272,-90.45726454
Merchants and Planters Bank,Clinton,Full Service Brick and Mortar Office,133 Highway 80 East,Clinton,MS,39056,32.334345,-90.322407
Merchants and Planters Bank,Main Office Drive Thru,Limited Service Facility Office,106 W Main St,Raymond,MS,39154,32.259465,-90.4233105
Merchants and Planters Bank,Merchants And Planters Bank,Full Service Brick and Mortar Office,308 Raymond Square,Raymond,MS,39154,32.259915,-90.4231215
Merchants and Planters Bank,Merchants And Planters Bank Loan Pro,Limited Service Loan Production Office,"1775 Lelia Drive, Suite B",Jackson,MS,39216,32.33298847,-90.142254
Bank of Franklin,Bank Of Franklin,Full Service Brick and Mortar Office,9 Main Street,Meadville,MS,39653,31.47261666,-90.88925983
Bank of Franklin,Brookhaven,Full Service Brick and Mortar Office,721 Brookway Boulevard,Brookhaven,MS,39601,31.57960862,-90.45825781
Bank of Franklin,Bude,Full Service Brick and Mortar Office,120 Main Street,Bude,MS,39630,31.45648358,-90.84309723
Bank of Franklin,Mccomb,Full Service Brick and Mortar Office,511 Apache Drive,Mccomb,MS,39648,31.2573615,-90.47983064
Bank of Franklin,Walnut Street Drive-Up,Limited Service Facility Office,210 Walnut Street,Meadville,MS,39653,31.47340238,-90.8936337
Bank of Anguilla,Bank Of Anguilla,Full Service Brick and Mortar Office,130 Holland Street,Anguilla,MS,38721,32.974365,-90.82942729
Bank of Anguilla,Cary,Full Service Brick and Mortar Office,113 Dogwood,Cary,MS,39054,32.8085167,-90.92437589
Bank of Anguilla,Drive-In Teller's Window,Limited Service Facility Office,Delta And Walnut Streets,Rolling Fork,MS,39159,32.908356,-90.877149
Bank of Anguilla,Mayersville,Full Service Brick and Mortar Office,128 Mayfield,Mayersville,MS,39113,32.90245477,-91.05178646
Bank of Anguilla,Rolling Fork,Full Service Brick and Mortar Office,21 Delta Street,Rolling Fork,MS,39159,32.90849041,-90.87718277
The Cleveland State Bank,Grenada,Full Service Brick and Mortar Office,229 Sunset Drive,Grenada,MS,38901,33.76904952,-89.8056585
The Cleveland State Bank,Merigold,Limited Service Facility Office,201 S. Dr. Martin Luther King Street,Merigold,MS,38759,33.83617327,-90.72482817
The Cleveland State Bank,North Sharpe Avenue,Limited Service Facility Office,128 North Sharpe Avenue,Cleveland,MS,38732,33.74583217,-90.72140721
The Cleveland State Bank,The Cleveland State Bank,Full Service Brick and Mortar Office,110 Commerce Avenue,Cleveland,MS,38732,33.74598453,-90.72007662
The Cleveland State Bank,West Side,Limited Service Facility Office,1418 College Street,Cleveland,MS,38732,33.73978323,-90.74419914
Oxford University Bank,Bank Of Pontotoc,Full Service Brick and Mortar Office,1882 Highway 15,Pontotoc,MS,38863,34.27549175,-89.02434957
Oxford University Bank,"Bank Of Pontotoc, Lpo, A Subsidiary Of Oxford University Bank",Limited Service Loan Production Office,25 South Liberty Street,Pontotoc,MS,38863,34.24827783,-88.99816892
Oxford University Bank,Oxford University Bank,Full Service Brick and Mortar Office,1500 University Avenue,Oxford,MS,38655,34.36353268,-89.51574442
Oxford University Bank,Oxford University Bank,Limited Service Loan Production Office,602 S. 16th Street,Oxford,MS,38655,34.36282921,-89.514363
Oxford University Bank,West Jackson Avenue,Full Service Brick and Mortar Office,2301 West Jackson Avenue,Oxford,MS,38655,34.36238732,-89.56287209
Home Bank,Britton & Koontz Br,Full Service Brick and Mortar Office,500 Main Street,Natchez,MS,39120,31.5594919,-91.40240909
Home Bank,Fatherland,Full Service Brick and Mortar Office,Highway 61 South,Natchez,MS,39120,31.33212624,-91.36059673
Home Bank,St. Catherine,Full Service Brick and Mortar Office,Highway 61 North,Natchez,MS,39120,31.6073856,-91.2668047
Home Bank,Vicksburg,Full Service Brick and Mortar Office,2150 South Frontage Road,Vicksburg,MS,39180,32.32368506,-90.8657245
FNB Oxford Bank,Fnb Oxford Bank,Full Service Brick and Mortar Office,101 Courthouse Square,Oxford,MS,38655,34.36680603,-89.51853747
FNB Oxford Bank,Fnb Tupelo A Of Fnb Oxford Ba,Full Service Brick and Mortar Office,165 S. Commerce Street,Tupelo,MS,38804,34.25694976,-88.70217894
FNB Oxford Bank,Medical Center,Full Service Brick and Mortar Office,2149 South Lamar Boulevard,Oxford,MS,38655,34.35187472,-89.52081228
FNB Oxford Bank,University,Full Service Brick and Mortar Office,1113 Jackson Avenue West,Oxford,MS,38655,34.36928828,-89.54474607
Charter Bank,Charter Bank,Full Service Brick and Mortar Office,"1721 Medical Park Drive, Suite 103",Biloxi,MS,39532,30.44648273,-88.93580587
Charter Bank,Ocean Springs,Full Service Brick and Mortar Office,2702 Bienville Boulevard,Ocean Springs,MS,39564,30.413862,-88.7950575
Charter Bank,Orange Grove/Gulfport,Full Service Brick and Mortar Office,12008 Highway 49,Gulfport,MS,39503,30.45703312,-89.10012417
Charter Bank,Pascagoula,Full Service Brick and Mortar Office,1519 Jackson Ave,Pascagoula,MS,39567,30.36521422,-88.54921626
FIRST COMMERCIAL BANK,Desot County Bank,Full Service Brick and Mortar Office,6040 Highway 51 North,Horn Lake,MS,38637,34.94909768,-90.0164426
FIRST COMMERCIAL BANK,First Commercial Bank,Full Service Brick and Mortar Office,1300 Meadowbrook Road,Jackson,MS,39211,32.34861,-90.1524735
FIRST COMMERCIAL BANK,Highland Colony Parkway,Full Service Brick and Mortar Office,1076 Highland Colony Parkway,Ridgeland,MS,39157,32.44469537,-90.15095738
FIRST COMMERCIAL BANK,Southaven,Full Service Brick and Mortar Office,5740 Getwell Road,Southaven,MS,38672,34.943967,-89.93672744
Bank of Kilmichael,Bank Of Kilmichael,Full Service Brick and Mortar Office,120 North Depot Avenue,Kilmichael,MS,39747,33.44071985,-89.56962551
Bank of Kilmichael,Eupora,Full Service Brick and Mortar Office,1079 Veterans Memorial Boulevard,Eupora,MS,39744,33.53150618,-89.26293549
Bank of Kilmichael,Mathiston,Full Service Brick and Mortar Office,24944 Hwy 15,Mathiston,MS,39752,33.539328,-89.12415753
Bank of Kilmichael,Winona,Full Service Brick and Mortar Office,509 North Applegate,Winona,MS,38967,33.48971612,-89.73607471
Concordia Bank & Trust Company,Downtown Natchez,Full Service Brick and Mortar Office,300 Main Street,Natchez,MS,39120,31.56079337,-91.40425754
Concordia Bank & Trust Company,North Natchez,Full Service Brick and Mortar Office,516 Hwy 61 North,Natchez,MS,39120,31.5641092,-91.35026416
Concordia Bank & Trust Company,South Natchez,Full Service Brick and Mortar Office,45 Sargeant Road,Natchez,MS,39120,31.52527989,-91.39058976
Concordia Bank & Trust Company,Wilkinson County,Full Service Brick and Mortar Office,498 Main Street,Woodville,MS,39669,31.10415692,-91.29853408
Century Bank,Century Bank,Full Service Brick and Mortar Office,4282 Main Street,Lucedale,MS,39452,30.92481031,-88.5953995
Century Bank,East Central,Full Service Brick and Mortar Office,Highways 613 And 614,Hurley,MS,39555,30.59801877,-88.48623132
Century Bank,Escatawpa,Full Service Brick and Mortar Office,7312 Highway 63,Escatawpa,MS,39552,30.44745829,-88.53078364
Century Bank,Market Place,Full Service Brick and Mortar Office,1002 Highway 63 South,Lucedale,MS,39452,30.75166551,-88.5980532
Holmes County Bank & Trust Company,Goodman,Full Service Brick and Mortar Office,9860 Main Street,Goodman,MS,39079,32.9689581,-89.90849235
Holmes County Bank & Trust Company,Holmes County Bank & Trust Company,Full Service Brick and Mortar Office,316 Court Square,Lexington,MS,39095,33.11287971,-90.0521607
Holmes County Bank & Trust Company,Vaiden,Full Service Brick and Mortar Office,Lee Street,Vaiden,MS,39176,33.3327925,-89.74230894
Holmes County Bank & Trust Company,West,Full Service Brick and Mortar Office,Highway 51,West,MS,39192,33.22110369,-89.76252475
First Financial Bank,Carthage Bank,Full Service Brick and Mortar Office,510 Hwy 35 S,Carthage,MS,39051,32.73203263,-89.53550041
First Financial Bank,Carthage Lpo,Limited Service Loan Production Office,204 N. Van Buren,Carthage,MS,39051,32.73720946,-89.53338701
First Financial Bank,First Financial Bank Loan Production,Limited Service Loan Production Office,1667 Simpson Highway 49,Magee,MS,39111,31.8698531,-89.74726326
First Financial Bank,Senatobia,Full Service Brick and Mortar Office,700 N Robinson St,Senatobia,MS,38668,34.62755587,-89.96445294
Bank of Okolona,Bank Of Okolona,Full Service Brick and Mortar Office,227 West Main Street,Okolona,MS,38860,34.00429175,-88.74838431
Bank of Okolona,Calhoun Banking Center,Full Service Brick and Mortar Office,122 South Pontotoc Road,Bruce,MS,38915,33.98951633,-89.34997414
Bank of Okolona,Houston,Full Service Brick and Mortar Office,321 West Madison Street,Houston,MS,38851,33.89657271,-89.0028791
Bank of Okolona,Mantee,Full Service Brick and Mortar Office,54 First Street,Mantee,MS,39751,33.73206786,-89.05533607
RiverHills Bank,Frontage Road,Full Service Brick and Mortar Office,2125 North Frontage Road,Vicksburg,MS,39180,32.32391411,-90.86676173
RiverHills Bank,Madison,Full Service Brick and Mortar Office,100 Fountains Boulevard,Madison,MS,39110,32.46964626,-90.14358011
RiverHills Bank,Market Street,Full Service Brick and Mortar Office,702 Market Street,Port Gibson,MS,39150,31.96022071,-90.98467558
RiverHills Bank,Riverhills Bank,Full Service Brick and Mortar Office,1400 Highway 61 North Bypass,Vicksburg,MS,39183,32.36278753,-90.82811605
Bank of Wiggins,Bank Of Wiggins,Full Service Brick and Mortar Office,109 West Pine Avenue,Wiggins,MS,39577,30.85792574,-89.13854839
Bank of Wiggins,Frontage Road,Full Service Brick and Mortar Office,1115 Frontage Drive East,Wiggins,MS,39577,30.84158365,-89.14188703
Bank of Wiggins,Mchenry,Limited Service Facility Office,481-A Highway 49,Mc Henry,MS,39561,30.7108376,-89.13493994
SunTrust Bank,Horn Lake Kroger,Full Service Retail Office,7251 Interstate Dr,Horn Lake,MS,38637,34.96433894,-90.00399367
SunTrust Bank,Olive Kroger,Full Service Retail Office,7427 Goodman Rd,Olive Branch,MS,38654,34.960194,-89.857746
SunTrust Bank,Southaven,Full Service Brick and Mortar Office,1965 Goodman Rd E,Southaven,MS,38671,34.96242809,-89.95607791
FIDELITY BANK,Biloxi Lpo,Limited Service Loan Production Office,2434-A Pass Road,Biloxi,MS,39531,30.40158971,-88.97905994
FIDELITY BANK,Picayune Lpo,Limited Service Loan Production Office,"1620 Us Highway 11 North, Suite D",Picayune,MS,39466,30.5378272,-89.67264651
FIDELITY BANK,Vicksburg Lpo,Limited Service Loan Production Office,"120 Holt Collier Drive, Suite A",Vicksburg,MS,39180,32.36139923,-90.82983046
First Choice Bank,First Choice Bank,Full Service Brick and Mortar Office,19 South Main Street,Pontotoc,MS,38863,34.24833896,-88.99908186
First Choice Bank,First Choice Bank Ecru,Full Service Brick and Mortar Office,7670 Hwy 15 North,Ecru,MS,38841,34.35614269,-89.03217165
First Choice Bank,West Pontotoc,Full Service Brick and Mortar Office,Highway 15 North,Pontotoc,MS,38863,34.21899234,-89.0000934
OmniBank,East Capitol Street,Full Service Brick and Mortar Office,236 East Capitol Street,Jackson,MS,39201,32.29984688,-90.1847242
OmniBank,Heidelberg,Full Service Brick and Mortar Office,301 Main Street,Heidelberg,MS,39439,31.88686052,-88.98390448
OmniBank,Omnibank,Full Service Brick and Mortar Office,531 3rd Street,Bay Springs,MS,39422,31.98271567,-89.28647725
Citizens Bank & Trust Co.,Citizens Bank & Trust Co.,Full Service Brick and Mortar Office,239 East Main St,Marks,MS,38646,34.25689307,-90.27125438
Citizens Bank & Trust Co.,Tunica,Full Service Brick and Mortar Office,1411 Main Street,Tunica,MS,38676,34.69095172,-90.38285067
Citizens Bank & Trust Co.,Walls,Full Service Brick and Mortar Office,6851 Highway 301,Walls,MS,38680,34.96025992,-90.09614617
The Bank of Forest,Bank Of Walnut Grove,Full Service Brick and Mortar Office,101 Chadwick Ave,Walnut Grove,MS,39189,32.59003281,-89.45781897
The Bank of Forest,Flowood,Full Service Brick and Mortar Office,1698 Old Fannin Road,Flowood,MS,39232,32.34589491,-90.06473725
The Bank of Forest,The Bank Of Forest,Full Service Brick and Mortar Office,211 West Third Street,Forest,MS,39074,32.36419497,-89.47634669
The Jefferson Bank,Greenville,Full Service Brick and Mortar Office,1645 Martin Luther King Boulevard,Greenville,MS,38701,33.37718465,-91.03952377
The Jefferson Bank,Rosedale,Full Service Brick and Mortar Office,600 Main Street,Rosedale,MS,38769,33.85709645,-91.02774702
The Jefferson Bank,The Jefferson Bank,Full Service Brick and Mortar Office,3008 East Reed Road,Greenville,MS,38703,33.38575852,-91.01230955
Liberty Bank and Trust Company,Five Points,Full Service Brick and Mortar Office,2325 Livingston Road,Jackson,MS,39217,32.327757,-90.197406
Liberty Bank and Trust Company,Vicksburg Loan Production Office,Limited Service Loan Production Office,"1905b Mission 66, Suite 1",Vicksburg,MS,39180,32.33888375,-90.8642397
Richton Bank & Trust Company,North Richton,Limited Service Facility Office,809 Front Street North,Richton,MS,39476,31.3560401,-88.9353327
Richton Bank & Trust Company,Richton Bank & Trust Company,Full Service Brick and Mortar Office,114 South Front Street,Richton,MS,39476,31.34838471,-88.93587644
"Grand Bank for Savings, FSB",226 Highway 42 East,Full Service Brick and Mortar Office,226 Highway 42 East,Petal,MS,39465,31.34663155,-89.25810158
"Grand Bank for Savings, FSB","Grand Bank For Savings, Fsb",Full Service Brick and Mortar Office,204 Westover Drive,Hattiesburg,MS,39402,31.328226,-89.355951
Bank of England,Bank Of England Mortgage,Limited Service Loan Production Office,"2900 Government Street, Suite D",Ocean Springs,MS,39564,30.41037309,-88.78592296
Bank of England,Oxford Lpo,Limited Service Loan Production Office,"2692 West Oxford Loop, Suite 102",Oxford,MS,38655,34.36632744,-89.57138957
Covington County Bank,Covington County Bank,Full Service Brick and Mortar Office,102 S Dogwood Ave,Collins,MS,39428,31.64432298,-89.55657908
Covington County Bank,Seminary,Full Service Brick and Mortar Office,51 Highway 590 West,Seminary,MS,39479,31.56297723,-89.50886685
First Bank and Trust,Biloxi,Full Service Brick and Mortar Office,244 Eisenhower Drive,Biloxi,MS,39531,30.39729012,-88.99295283
First Bank and Trust,First Bank And Trust Of Mississippi,Limited Service Loan Production Office,1703 Old Mobile Highway,Pascagoula,MS,39567,30.36580698,-88.54748146
Bank of Brookhaven,Bank Of Brookhaven,Full Service Brick and Mortar Office,411 Brookway Boulevard,Brookhaven,MS,39601,31.58015492,-90.44932015
Evolve Bank & Trust,Ridgeland Lpo,Limited Service Loan Production Office,"403-B Towne Center Boulevard, Suite 102",Ridgeland,MS,39157,32.40782152,-90.1222155
Amory Federal Savings and Loan Association,Amory Federal Savings And Loan Assoc,Full Service Brick and Mortar Office,213 2nd Ave N,Amory,MS,38821,33.98654929,-88.48989778
Bank of Morton,Bank Of Morton,Full Service Brick and Mortar Office,366 South 4th Street,Morton,MS,39117,32.35154595,-89.65691602
Bank OZK,Brookhaven Lpo,Limited Service Loan Production Office,114 West Cherokee Street,Brookhaven,MS,39601,31.57863886,-90.44392512
Bank of Winona,Bank Of Winona,Full Service Brick and Mortar Office,312 North Applegate,Winona,MS,38967,33.48616852,-89.73584918
Pinnacle Bank,Southaven Lpo,Limited Service Loan Production Office,"5740 Getwell Road, Suite 109",Southaven,MS,38672,34.943967,-89.93672744
Community Spirit Bank,Belmont,Full Service Brick and Mortar Office,342 Second Street,Belmont,MS,38827,34.5071384,-88.20695624
Delta Bank,Delta Bank Natchez,Full Service Brick and Mortar Office,173 Highway 61 South,Natchez,MS,39120,31.51733723,-91.3859466
Commerce Bank,Commerce Bank,Full Service Brick and Mortar Office,306 South Cass Street,Corinth,MS,38834,34.93001424,-88.51863683
Bank of Benoit,Bank Of Benoit,Full Service Brick and Mortar Office,28-30 Main Street,Benoit,MS,38725,33.65174682,-91.00904565
Paragon Bank,Oxford,Full Service Brick and Mortar Office,265 N Lamar Blvd Ste N,Oxford,MS,38655,34.36777665,-89.51850672
Commercial Bank & Trust Co.,Commercial Bank And Trust Company,Limited Service Loan Production Office,"5740 Getwell Road, Building 10, Suite C",Southaven,MS,38672,34.943967,-89.93672744
Home Banking Company,Corinth,Full Service Brick and Mortar Office,1300 South Harper Road,Corinth,MS,38834,34.9196028,-88.49682714
First National Banker's Bank,Mississippi,Full Service Brick and Mortar Office,300 Concourse Boulevard,Ridgeland,MS,39157,32.44311,-90.146682
The Bank of Vernon,Caledonia,Full Service Brick and Mortar Office,9715 Wolfe Road,Caledonia,MS,39740,33.67843982,-88.32539735
