bank,branch,service,street,city,state,zip,latitude,longitude
First-Citizens Bank & Trust Company,17 North,Full Service Brick and Mortar Office,2676 Highway 17 North,Mount Pleasant,SC,29466,32.85297,-79.8044985
First-Citizens Bank & Trust Company,Abbeville Main,Full Service Brick and Mortar Office,201 North Main Street,Abbeville,SC,29620,34.178634,-82.3803885
First-Citizens Bank & Trust Company,Aiken Main Office,Full Service Brick and Mortar Office,"125 Park Avenue, S.W.",Aiken,SC,29801,33.55869298,-81.72116235
First-Citizens Bank & Trust Company,Anderson Main,Full Service Brick and Mortar Office,102 North Main Street,Anderson,SC,29621,34.503624,-82.650024
First-Citizens Bank & Trust Company,Andrews,Full Service Brick and Mortar Office,12 North Morgan Avenue,Andrews,SC,29510,33.45211735,-79.56071015
First-Citizens Bank & Trust Company,Ashley Phosphate,Full Service Brick and Mortar Office,2170 Ashley Phosphate Road,Charleston,SC,29406,32.93694,-80.0419185
First-Citizens Bank & Trust Company,Augusta Street,Full Service Brick and Mortar Office,2201 Augusta Street,Greenville,SC,29605,34.824024,-82.392714
First-Citizens Bank & Trust Company,Ballentine,Full Service Brick and Mortar Office,1509 Dutch Fork Road,Irmo,SC,29063,34.12438079,-81.23771566
First-Citizens Bank & Trust Company,Barnwell,Full Service Brick and Mortar Office,10355 Dunbarton Boulevard,Barnwell,SC,29812,33.24422432,-81.37405164
First-Citizens Bank & Trust Company,Batesburg,Full Service Brick and Mortar Office,129 N. Pine Street,Batesburg,SC,29006,33.906042,-81.547011
First-Citizens Bank & Trust Company,Beaufort,Full Service Brick and Mortar Office,921 Bay Street,Beaufort,SC,29902,32.43109291,-80.67278173
First-Citizens Bank & Trust Company,Beech Island,Full Service Brick and Mortar Office,13999 Atomic Rd,Beech Island,SC,29842,33.42966691,-81.88722313
First-Citizens Bank & Trust Company,Bennettsville,Limited Service Facility Office,314 East Main Street,Bennettsville,SC,29512,34.61835123,-79.68017404
First-Citizens Bank & Trust Company,Bishopville,Full Service Brick and Mortar Office,144 South Main Street,Bishopville,SC,29010,34.21702856,-80.25036384
First-Citizens Bank & Trust Company,Bluffton,Full Service Brick and Mortar Office,1 Westbury Parkway,Bluffton,SC,29910,32.274666,-80.870733
First-Citizens Bank & Trust Company,Bluffton,Full Service Brick and Mortar Office,7 Arley Way,Okatie,SC,29909,32.27572869,-80.87283311
First-Citizens Bank & Trust Company,Blythewood,Full Service Brick and Mortar Office,201 Blythewood Road,Blythewood,SC,29016,34.21420639,-80.9775592
First-Citizens Bank & Trust Company,Boiling Springs,Full Service Brick and Mortar Office,3611 Boiling Springs Road,Boiling Springs,SC,29316,35.04458131,-81.98043039
First-Citizens Bank & Trust Company,Broughton Street,Full Service Brick and Mortar Office,791 Broughton Street,Orangeburg,SC,29115,33.48496608,-80.86149291
First-Citizens Bank & Trust Company,Bultman Drive,Full Service Brick and Mortar Office,683 Bultman Drive,Sumter,SC,29150,33.94084224,-80.37192229
First-Citizens Bank & Trust Company,Camden Main,Full Service Brick and Mortar Office,402 East Dekalb Street,Camden,SC,29020,34.2467447,-80.60330717
First-Citizens Bank & Trust Company,Carolina Forest,Full Service Brick and Mortar Office,4040 River Oaks Drive,Myrtle Beach,SC,29579,33.755364,-78.865938
First-Citizens Bank & Trust Company,Cayce,Full Service Brick and Mortar Office,860 Knox Abbott Drive,Cayce,SC,29033,33.98198295,-81.06279305
First-Citizens Bank & Trust Company,Centre South,Full Service Brick and Mortar Office,708 Silver Bluff Road,Aiken,SC,29803,33.5143732,-81.73279425
First-Citizens Bank & Trust Company,Charleston - East Bay,Limited Service Facility Office,152 East Bay Street,Charleston,SC,29401,32.778009,-79.926849
First-Citizens Bank & Trust Company,Charleston,Full Service Brick and Mortar Office,182 Meeting Street,Charleston,SC,29401,32.78034,-79.931322
First-Citizens Bank & Trust Company,Cheraw,Full Service Brick and Mortar Office,232 Market Street,Cheraw,SC,29520,34.69703441,-79.88426076
First-Citizens Bank & Trust Company,Cherrydale,Full Service Brick and Mortar Office,10 State Park Road,Greenville,SC,29609,34.89112518,-82.40426405
First-Citizens Bank & Trust Company,Chester Bypass,Full Service Brick and Mortar Office,1612 J A Cochran Bypass,Chester,SC,29706,34.69610225,-81.19290749
First-Citizens Bank & Trust Company,Chesterfield,Full Service Brick and Mortar Office,403 West Main Street,Chesterfield,SC,29709,34.7360905,-80.09172111
First-Citizens Bank & Trust Company,Clemson,Full Service Brick and Mortar Office,304 Old Greenville Highway,Clemson,SC,29631,34.68155883,-82.82001469
First-Citizens Bank & Trust Company,Clio,Full Service Brick and Mortar Office,114 South Main Street,Clio,SC,29525,34.57833465,-79.54491933
First-Citizens Bank & Trust Company,Columbia First Citizens,Full Service Brick and Mortar Office,1230 Main Street,Columbia,SC,29201,34.00207825,-81.03388718
First-Citizens Bank & Trust Company,Columbia Road,Full Service Brick and Mortar Office,"1820 Columbia Road, N.E.",Orangeburg,SC,29116,33.51309621,-80.86656856
First-Citizens Bank & Trust Company,Conway,Full Service Brick and Mortar Office,1200 Third Avenue,Conway,SC,29526,33.83405404,-79.04859115
First-Citizens Bank & Trust Company,Cowpens,Full Service Brick and Mortar Office,105 West Church Street,Cowpens,SC,29330,35.01719239,-81.80462182
First-Citizens Bank & Trust Company,Daniel Island,Full Service Brick and Mortar Office,"126 Seven Farms Drive, Suite 100",Charleston,SC,29492,32.865021,-79.9029585
First-Citizens Bank & Trust Company,Darlington,Full Service Brick and Mortar Office,511 Pearl Street,Darlington,SC,29532,34.29908858,-79.8780563
First-Citizens Bank & Trust Company,Dentsville,Full Service Brick and Mortar Office,7039 Parklane Road,Columbia,SC,29223,34.06663133,-80.95734502
First-Citizens Bank & Trust Company,Dillon,Full Service Brick and Mortar Office,406 U.S. Hwy 301 North,Dillon,SC,29536,34.41933897,-79.36898504
First-Citizens Bank & Trust Company,Easley Office,Full Service Brick and Mortar Office,6539 Calhoun Memorial Highway,Easley,SC,29640,34.82176307,-82.58656383
First-Citizens Bank & Trust Company,East Greenville Street,Full Service Brick and Mortar Office,1508 East Greenville Street,Anderson,SC,29621,34.52837498,-82.63532555
First-Citizens Bank & Trust Company,Ebenezer,Full Service Brick and Mortar Office,132 Herlong Avenue,Rock Hill,SC,29732,34.95728309,-81.04498062
First-Citizens Bank & Trust Company,Edgefield,Full Service Brick and Mortar Office,309 Main Street,Edgefield,SC,29824,33.78922491,-81.92801227
First-Citizens Bank & Trust Company,Elgin,Full Service Brick and Mortar Office,2464 Main Street,Elgin,SC,29045,34.17100666,-80.79090285
First-Citizens Bank & Trust Company,Fernwood Glendale,Full Service Brick and Mortar Office,1035 Fernwood Glendale Road,Spartanburg,SC,29307,34.96651649,-81.89197983
First-Citizens Bank & Trust Company,Five Forks,Full Service Brick and Mortar Office,2708 Woodruff Road,Simpsonville,SC,29681,34.805259,-82.2266595
First-Citizens Bank & Trust Company,Florence,Full Service Brick and Mortar Office,276 South Irby Street,Florence,SC,29501,34.194033,-79.7675535
First-Citizens Bank & Trust Company,Folly Road,Full Service Brick and Mortar Office,462 Folly Road,Charleston,SC,29412,32.755401,-79.9721145
First-Citizens Bank & Trust Company,Forest Lake,Full Service Brick and Mortar Office,4801 Forest Drive,Columbia,SC,29206,34.01952208,-80.96506219
First-Citizens Bank & Trust Company,Fort Mill,Full Service Brick and Mortar Office,1401 Highway 160,Fort Mill,SC,29715,35.00776995,-80.91266249
First-Citizens Bank & Trust Company,Georgetown,Full Service Brick and Mortar Office,726 Front Street,Georgetown,SC,29440,33.36620563,-79.28303113
First-Citizens Bank & Trust Company,Georgia Avenue,Full Service Brick and Mortar Office,518 Georgia Avenue,North Augusta,SC,29841,33.49446589,-81.97067304
First-Citizens Bank & Trust Company,Greenville,Full Service Brick and Mortar Office,325 W Mcbee Street,Greenville,SC,29601,34.85084569,-82.40343134
First-Citizens Bank & Trust Company,Greenwood,Full Service Brick and Mortar Office,518 South Main Street,Greenwood,SC,29646,34.187418,-82.160388
First-Citizens Bank & Trust Company,Hanahan,Full Service Brick and Mortar Office,1248 Yeamans Hall Road,Hanahan,SC,29410,32.903586,-80.0084745
First-Citizens Bank & Trust Company,Hartsville,Full Service Brick and Mortar Office,130 South Fifth Street,Hartsville,SC,29550,34.37324385,-80.07278777
First-Citizens Bank & Trust Company,Hemingway,Full Service Brick and Mortar Office,208 North Main Street,Hemingway,SC,29554,33.75497904,-79.44720858
First-Citizens Bank & Trust Company,Hillcrest,Full Service Brick and Mortar Office,1894 East Main Street,Spartanburg,SC,29307,34.96828916,-81.89174552
First-Citizens Bank & Trust Company,Hilton Head,Full Service Brick and Mortar Office,2 Northridge Drive,Hilton Head Island,SC,29926,32.21630531,-80.70597609
First-Citizens Bank & Trust Company,Hoffmeyer Road,Full Service Brick and Mortar Office,2009 Hoffmeyer Road,Florence,SC,29501,34.19115424,-79.80736963
First-Citizens Bank & Trust Company,Hollywood,Full Service Brick and Mortar Office,6213 South Carolina Highway 162,Hollywood,SC,29449,32.73520258,-80.23585962
First-Citizens Bank & Trust Company,Inman,Full Service Brick and Mortar Office,11280 Asheville Highway,Inman,SC,29349,35.0390649,-82.08024413
First-Citizens Bank & Trust Company,Interstate 26,Full Service Brick and Mortar Office,1319 North Main Street,Summerville,SC,29483,33.036471,-80.1539145
First-Citizens Bank & Trust Company,Irmo,Full Service Brick and Mortar Office,949 Lake Murray Boulevard,Irmo,SC,29063,34.0898625,-81.17353794
First-Citizens Bank & Trust Company,John B White Sr Br,Full Service Brick and Mortar Office,1450 John B White Sr Blvd,Spartanburg,SC,29306,34.92472645,-81.96994677
First-Citizens Bank & Trust Company,Johnnie Dodds,Full Service Brick and Mortar Office,903 Johnnie Dodds Boulevard,Mount Pleasant,SC,29464,32.810175,-79.8703065
First-Citizens Bank & Trust Company,Johnston,Full Service Brick and Mortar Office,430 Calhoun Street,Johnston,SC,29832,33.83187986,-81.80124386
First-Citizens Bank & Trust Company,Kershaw,Full Service Brick and Mortar Office,302 North Hampton Street,Kershaw,SC,29067,34.551135,-80.582859
First-Citizens Bank & Trust Company,Knox Avenue,Full Service Brick and Mortar Office,1289 Knox Avenue,North Augusta,SC,29861,33.507171,-81.957708
First-Citizens Bank & Trust Company,Lake City,Full Service Brick and Mortar Office,248 West Main Street,Lake City,SC,29560,33.87533155,-79.75765961
First-Citizens Bank & Trust Company,Lake View,Full Service Brick and Mortar Office,201 North Main Street,Lake View,SC,29563,34.34424728,-79.1659958
First-Citizens Bank & Trust Company,Lancaster,Full Service Brick and Mortar Office,500 North Main Street,Lancaster,SC,29720,34.72470448,-80.77328138
First-Citizens Bank & Trust Company,Landrum,Full Service Brick and Mortar Office,144 North Trade Avenue,Landrum,SC,29356,35.17672018,-82.19061048
First-Citizens Bank & Trust Company,Laurens,Full Service Brick and Mortar Office,305 West Main Street,Laurens,SC,29360,34.4981319,-82.01911544
First-Citizens Bank & Trust Company,Laurens Road Office,Full Service Brick and Mortar Office,2420 Laurens Road,Greenville,SC,29607,34.82992132,-82.3477567
First-Citizens Bank & Trust Company,Lewisville,Full Service Brick and Mortar Office,3551 Lancaster Hwy,Richburg,SC,29729,34.728696,-81.01944
First-Citizens Bank & Trust Company,Lexington,Full Service Brick and Mortar Office,5561 Sunset Boulevard,Lexington,SC,29072,33.99526938,-81.22433961
First-Citizens Bank & Trust Company,Liberty,Full Service Brick and Mortar Office,2 West Main Street,Liberty,SC,29657,34.788015,-82.693458
First-Citizens Bank & Trust Company,Lugoff,Full Service Brick and Mortar Office,844 Us Highway 1 South,Lugoff,SC,29078,34.22871535,-80.67463492
First-Citizens Bank & Trust Company,Lyman,Full Service Brick and Mortar Office,104 Edgewood Street,Lyman,SC,29365,34.95478165,-82.12021957
First-Citizens Bank & Trust Company,Marion,Full Service Brick and Mortar Office,214 North Main Street,Marion,SC,29571,34.18003841,-79.40023496
First-Citizens Bank & Trust Company,Mauldin,Full Service Brick and Mortar Office,112 W Butler Rd,Mauldin,SC,29662,34.77803918,-82.31130405
First-Citizens Bank & Trust Company,Moncks Corner,Full Service Brick and Mortar Office,212 East Main Street,Moncks Corner,SC,29461,33.19418947,-80.00881554
First-Citizens Bank & Trust Company,Mullins,Full Service Brick and Mortar Office,402 South Main Street,Mullins,SC,29574,34.20135777,-79.25350375
First-Citizens Bank & Trust Company,Murrells Inlet,Full Service Brick and Mortar Office,4375 Highway 17 Bypass,Murrells Inlet,SC,29576,33.55491804,-79.04458264
First-Citizens Bank & Trust Company,Myrtle Beach - Surfside,Full Service Brick and Mortar Office,128 Loyola Dr,Myrtle Beach,SC,29588,33.64393833,-78.98770641
First-Citizens Bank & Trust Company,Myrtle Beach,Full Service Brick and Mortar Office,2002 North Oak Street,Myrtle Beach,SC,29577,33.703587,-78.87411
First-Citizens Bank & Trust Company,North 21,Full Service Brick and Mortar Office,6824 North Main St,Columbia,SC,29203,34.069743,-81.0018495
First-Citizens Bank & Trust Company,North,Full Service Brick and Mortar Office,4557 Savannah Hwy,North,SC,29112,33.61743835,-81.10262811
First-Citizens Bank & Trust Company,North Church Street,Full Service Brick and Mortar Office,1068 North Church Street,Greenville,SC,29601,34.86143858,-82.38491227
First-Citizens Bank & Trust Company,North Kings Hwy,Full Service Brick and Mortar Office,7500 North Kings Hwy,Myrtle Beach,SC,29572,33.74623732,-78.81953791
First-Citizens Bank & Trust Company,North Main Street,Full Service Brick and Mortar Office,2621 North Main Street,Columbia,SC,29201,34.02090716,-81.04227153
First-Citizens Bank & Trust Company,North Myrtle Beach,Full Service Brick and Mortar Office,601 Highway 17 South,North Myrtle Beach,SC,29582,33.824268,-78.684354
First-Citizens Bank & Trust Company,Northpointe,Full Service Brick and Mortar Office,"3115 Martin Luther King, Jr. Blvd.",Anderson,SC,29625,34.541847,-82.6735635
First-Citizens Bank & Trust Company,Oak Ridge Plaza,Full Service Brick and Mortar Office,5090 Dorchester Road,North Charleston,SC,29418,32.857074,-80.0343315
First-Citizens Bank & Trust Company,Oakbrook,Full Service Brick and Mortar Office,1801 Trolley Road,Summerville,SC,29485,32.95772172,-80.1651968
First-Citizens Bank & Trust Company,Pacolet,Full Service Brick and Mortar Office,6910 S Pine St,Pacolet,SC,29372,34.89798033,-81.76469626
First-Citizens Bank & Trust Company,Pageland,Full Service Brick and Mortar Office,303 North Pearl Street,Pageland,SC,29728,34.77469808,-80.39252598
First-Citizens Bank & Trust Company,Pamplico Hwy,Full Service Brick and Mortar Office,619 Pamplico Hwy,Florence,SC,29505,34.162326,-79.756812
First-Citizens Bank & Trust Company,Park Street,Limited Service Facility Office,1301 Park Street,Columbia,SC,29201,34.00213932,-81.03776172
First-Citizens Bank & Trust Company,Pawleys Island Palmetto Br,Full Service Brick and Mortar Office,10919 Ocean Boulevard,Pawleys Island,SC,29585,33.44399085,-79.12343506
First-Citizens Bank & Trust Company,Pleasantburg,Full Service Brick and Mortar Office,928 North Pleasantburg Drive,Greenville,SC,29607,34.86611343,-82.35768355
First-Citizens Bank & Trust Company,Polo Road,Full Service Brick and Mortar Office,9800 Two Notch Road,Columbia,SC,29204,34.106508,-80.9013555
First-Citizens Bank & Trust Company,Powdersville,Full Service Brick and Mortar Office,11063 Anderson Road,Piedmont,SC,29673,34.78655783,-82.48353993
First-Citizens Bank & Trust Company,Prosperity,Full Service Brick and Mortar Office,147 Main Street,Prosperity,SC,29127,34.20889062,-81.53296283
First-Citizens Bank & Trust Company,Reidville Road,Full Service Brick and Mortar Office,2895 Reidville Road,Spartanburg,SC,29301,34.91597372,-82.00626205
First-Citizens Bank & Trust Company,Rock Hill,Full Service Brick and Mortar Office,226 East Main Street,Rock Hill,SC,29730,34.924077,-81.025479
First-Citizens Bank & Trust Company,Rosewood,Full Service Brick and Mortar Office,2600 Rosewood Drive,Columbia,SC,29205,33.98671597,-81.00687826
First-Citizens Bank & Trust Company,Saluda,Full Service Brick and Mortar Office,201 North Main Street,Saluda,SC,29138,34.00288993,-81.77227149
First-Citizens Bank & Trust Company,Sandhill,Full Service Brick and Mortar Office,131 Forum Drive,Columbia,SC,29229,34.13388725,-80.87996862
First-Citizens Bank & Trust Company,Savannah Lakes,Full Service Brick and Mortar Office,5811 Us Highway 378 W,Mc Cormick,SC,29835,33.87090442,-82.37853426
First-Citizens Bank & Trust Company,Seneca,Full Service Brick and Mortar Office,1007 Bypass 123,Seneca,SC,29678,34.692867,-82.974897
First-Citizens Bank & Trust Company,Simpsonville,Full Service Brick and Mortar Office,636 Fairview Road,Simpsonville,SC,29681,34.71264326,-82.25637731
First-Citizens Bank & Trust Company,Spartanburg Main Office,Full Service Brick and Mortar Office,450 East Henry Street,Spartanburg,SC,29302,34.94912198,-81.91857359
First-Citizens Bank & Trust Company,St. Andrews,Full Service Brick and Mortar Office,2350 Broad River Road,Columbia,SC,29210,34.041825,-81.096255
First-Citizens Bank & Trust Company,St. George,Full Service Brick and Mortar Office,129 North Parler Avenue,Saint George,SC,29477,33.18409291,-80.57416708
First-Citizens Bank & Trust Company,St. Matthews,Full Service Brick and Mortar Office,1225 St. Matthews Road,Orangeburg,SC,29115,33.51035289,-80.86143923
First-Citizens Bank & Trust Company,Summerton,Full Service Brick and Mortar Office,133 East Main Street,Summerton,SC,29148,33.60818042,-80.34983866
First-Citizens Bank & Trust Company,Summerville,Full Service Brick and Mortar Office,218 South Main Street,Summerville,SC,29483,33.01802142,-80.17657299
First-Citizens Bank & Trust Company,Sumter Highway,Full Service Brick and Mortar Office,7366 Garners Ferry Rd,Columbia,SC,29209,33.969843,-80.946477
First-Citizens Bank & Trust Company,Sunset Boulevard,Full Service Brick and Mortar Office,2830 Sunset Boulevard,West Columbia,SC,29169,34.00510472,-81.11737077
First-Citizens Bank & Trust Company,Tega Cay,Full Service Brick and Mortar Office,2880 West Highway 160,Fort Mill,SC,29708,35.059869,-80.9912205
First-Citizens Bank & Trust Company,The Parkway,Full Service Brick and Mortar Office,300 The Parkway,Greer,SC,29650,34.82287341,-82.59243765
First-Citizens Bank & Trust Company,Three Fountains Plaza,Full Service Brick and Mortar Office,3967 Platt Springs Road,West Columbia,SC,29170,33.93916461,-81.14759523
First-Citizens Bank & Trust Company,Town Square,Full Service Brick and Mortar Office,728 West Main Street,Lexington,SC,29072,33.98450193,-81.25081816
First-Citizens Bank & Trust Company,Trident,Full Service Brick and Mortar Office,9205 University Boulevard,Charleston,SC,29406,32.976765,-80.06985
First-Citizens Bank & Trust Company,Walhalla,Full Service Brick and Mortar Office,3819 Blue Ridge Boulevard,Walhalla,SC,29691,34.762374,-83.0560725
First-Citizens Bank & Trust Company,Ware Shoals,Full Service Brick and Mortar Office,808 N. Greenwood Avenue,Ware Shoals,SC,29692,34.40369724,-82.25310197
First-Citizens Bank & Trust Company,Washington Street,Full Service Brick and Mortar Office,201 North Washington Street,Sumter,SC,29150,33.92476303,-80.34427927
First-Citizens Bank & Trust Company,West Liberty Street,Full Service Brick and Mortar Office,1135 West Liberty Street,Sumter,SC,29150,33.915528,-80.383968
First-Citizens Bank & Trust Company,West Of The Ashley,Full Service Brick and Mortar Office,1624 Sam Rittenberg Boulevard,Charleston,SC,29407,32.806602,-80.010396
First-Citizens Bank & Trust Company,Whiskey Road,Full Service Brick and Mortar Office,1715 Whiskey Road,Aiken,SC,29803,33.527655,-81.7227045
First-Citizens Bank & Trust Company,Whitmire,Full Service Brick and Mortar Office,123 Main Street,Whitmire,SC,29178,34.5033278,-81.61554081
First-Citizens Bank & Trust Company,Williamsburg First National Bank Bra,Full Service Brick and Mortar Office,200 West Main Street,Kingstree,SC,29556,33.6634789,-79.8319137
First-Citizens Bank & Trust Company,Williamston,Full Service Brick and Mortar Office,113 East Main Street,Williamston,SC,29697,34.61972454,-82.47479023
First-Citizens Bank & Trust Company,Williston,Full Service Brick and Mortar Office,12965 Main Street,Williston,SC,29853,33.40174131,-81.42253314
First-Citizens Bank & Trust Company,Winnsboro,Full Service Brick and Mortar Office,111 South Congress Street,Winnsboro,SC,29180,34.38000335,-81.08634073
First-Citizens Bank & Trust Company,Woodruff,Full Service Brick and Mortar Office,255 South Main Street,Woodruff,SC,29388,34.73765785,-82.0357526
First-Citizens Bank & Trust Company,York,Full Service Brick and Mortar Office,911 East Liberty Street,York,SC,29745,34.98618226,-81.21600688
Wells Fargo Bank,Anderson Main,Full Service Brick and Mortar Office,1101 North Main Street,Anderson,SC,29621,34.513128,-82.653615
Wells Fargo Bank,Asheville Highway,Full Service Brick and Mortar Office,1206 Asheville Highway,Spartanburg,SC,29303,34.97327535,-81.95650047
Wells Fargo Bank,Ashley Plaza,Full Service Brick and Mortar Office,1305 Sam Rittenberg Boulevard,Charleston,SC,29407,32.815188,-79.9959735
Wells Fargo Bank,Ashley River Road,Full Service Brick and Mortar Office,1776 Ashley River Road,Charleston,SC,29407,32.801805,-80.0163765
Wells Fargo Bank,Assembly Street,Full Service Brick and Mortar Office,930 Assembly Street,Columbia,SC,29201,33.997878,-81.0334395
Wells Fargo Bank,Bamberg Main,Full Service Brick and Mortar Office,12157 Heritage Hwy,Bamberg,SC,29003,33.29755085,-81.03702332
Wells Fargo Bank,Barefoot Commons,Full Service Brick and Mortar Office,3910 Highway 17 South,North Myrtle Beach,SC,29582,33.802209,-78.729444
Wells Fargo Bank,Beaufort Main,Full Service Brick and Mortar Office,1011 Bay Street,Beaufort,SC,29902,32.43156406,-80.67361571
Wells Fargo Bank,Bennettsville Main,Full Service Brick and Mortar Office,145 Broad Street,Bennettsville,SC,29512,34.61529767,-79.68354391
Wells Fargo Bank,Berea,Full Service Brick and Mortar Office,2312 West Parker Road,Greenville,SC,29617,34.88163867,-82.45478888
Wells Fargo Bank,Berkeley Square,Full Service Brick and Mortar Office,101 Berkeley Square Lane,Goose Creek,SC,29445,33.001857,-80.040141
Wells Fargo Bank,Bluffton,Full Service Brick and Mortar Office,24 Bluffton Road,Bluffton,SC,29910,32.25763514,-80.85363136
Wells Fargo Bank,Brentwood Plaza,Full Service Brick and Mortar Office,4400 Dorchester Road,North Charleston,SC,29405,32.854536,-80.0126145
Wells Fargo Bank,Broad Street,Full Service Brick and Mortar Office,16 Broad Street,Charleston,SC,29401,32.776947,-79.927542
Wells Fargo Bank,Camden Main,Full Service Brick and Mortar Office,519 East Dekalb Street,Camden,SC,29020,34.24644955,-80.60588633
Wells Fargo Bank,Carolina Forest,Full Service Brick and Mortar Office,3766 Renee Drive,Myrtle Beach,SC,29579,33.75873,-78.966189
Wells Fargo Bank,Cayce,Full Service Brick and Mortar Office,1131 Knox Abbott Drive,Cayce,SC,29033,33.97998882,-81.06851901
Wells Fargo Bank,Celanese Road,Full Service Brick and Mortar Office,2691 Celanese Rd,Rock Hill,SC,29732,34.97600132,-81.02548012
Wells Fargo Bank,Chapin,Full Service Brick and Mortar Office,168 Columbia Avenue,Chapin,SC,29036,34.16735955,-81.34911
Wells Fargo Bank,Charleston Trust Office,Limited Service Trust Office,177 Meeting Street,Charleston,SC,29401,32.780565,-79.9316955
Wells Fargo Bank,Cheraw,Full Service Brick and Mortar Office,415 Market Street,Cheraw,SC,29520,34.69524178,-79.88753674
Wells Fargo Bank,Cherrydale,Full Service Brick and Mortar Office,3217 North Pleasantburg Drive,Greenville,SC,29609,34.88998948,-82.40083417
Wells Fargo Bank,Citadel Mall,Full Service Brick and Mortar Office,828 Orleans Road,Charleston,SC,29407,32.793768,-80.0271945
Wells Fargo Bank,Clemson Main,Full Service Brick and Mortar Office,955 Tiger Boulevard,Clemson,SC,29631,34.69246326,-82.84490534
Wells Fargo Bank,Clinton Main,Full Service Brick and Mortar Office,203 Broad Street,Clinton,SC,29325,34.4714257,-81.88067887
Wells Fargo Bank,Clover,Full Service Brick and Mortar Office,203 Bethel Street,Clover,SC,29710,35.1095906,-81.22331954
Wells Fargo Bank,Coleman,Full Service Brick and Mortar Office,507 Coleman Boulevard,Mount Pleasant,SC,29464,32.7907327,-79.87482756
Wells Fargo Bank,Columbia Five Points,Full Service Brick and Mortar Office,705 Saluda Avenue,Columbia,SC,29205,33.9985455,-81.01759799
Wells Fargo Bank,Columbia Main,Full Service Brick and Mortar Office,1441 Main Street,Columbia,SC,29201,34.004817,-81.035559
Wells Fargo Bank,Columbiana Centre,Full Service Brick and Mortar Office,331 Harbison Boulevard,Columbia,SC,29212,34.0749345,-81.15517025
Wells Fargo Bank,Conway Main,Full Service Brick and Mortar Office,1412 Third Avenue,Conway,SC,29526,33.832182,-79.05236387
Wells Fargo Bank,Costal Grand Mall Nd,Limited Service Messenger Office,2000 Coastal Grand Cir,Myrtle Beach,SC,29577,33.702318,-78.923259
Wells Fargo Bank,Crosscreek Mall,Full Service Brick and Mortar Office,345 Bypass 72 Nw,Greenwood,SC,29649,34.21045076,-82.17988566
Wells Fargo Bank,Dentsville,Full Service Brick and Mortar Office,7305 Two Notch Road,Columbia,SC,29223,34.06585315,-80.95605274
Wells Fargo Bank,Dillon Main,Full Service Brick and Mortar Office,601 Highway 301 North,Dillon,SC,29536,34.42106204,-79.36788088
Wells Fargo Bank,Dual Lane,Full Service Brick and Mortar Office,5561 Rivers Avenue,Charleston,SC,29406,32.895927,-80.0159625
Wells Fargo Bank,Dutch Square,Full Service Brick and Mortar Office,101 Dutch Square Blvd,Columbia,SC,29210,34.03189134,-81.09646998
Wells Fargo Bank,Easley,Full Service Brick and Mortar Office,5820 Calhoun Memorial Hwy,Easley,SC,29640,34.825383,-82.57266
Wells Fargo Bank,Florence Five Points,Full Service Brick and Mortar Office,1900 West Palmetto Street,Florence,SC,29501,34.188624,-79.804944
Wells Fargo Bank,Florence Main,Full Service Brick and Mortar Office,408 South Irby Street,Florence,SC,29501,34.191207,-79.767441
Wells Fargo Bank,Florence Mall,Full Service Brick and Mortar Office,104 David Mcleod Blvd.,Florence,SC,29501,34.18743905,-79.809347
Wells Fargo Bank,Forest Acres,Full Service Brick and Mortar Office,4408 Forest Drive,Columbia,SC,29206,34.02096848,-80.9741933
Wells Fargo Bank,Fort Jackson,Full Service Brick and Mortar Office,4709 Lee Road,Columbia,SC,29207,34.15608592,-80.92058041
Wells Fargo Bank,Fort Mill,Full Service Brick and Mortar Office,403 Tom Hall Street,Fort Mill,SC,29715,35.00732812,-80.93639764
Wells Fargo Bank,Freshfields At Kiawah,Full Service Brick and Mortar Office,100 Village Green Lane,Johns Island,SC,29455,32.607126,-80.148978
Wells Fargo Bank,Gaffney Main,Full Service Brick and Mortar Office,101 North Limestone Street,Gaffney,SC,29340,35.07256745,-81.64962572
Wells Fargo Bank,Gateway,Full Service Brick and Mortar Office,8800 Farrow Road,Columbia,SC,29203,34.104294,-80.953938
Wells Fargo Bank,Georgetown Main,Full Service Brick and Mortar Office,1002 Front Street,Georgetown,SC,29440,33.3684328,-79.28619395
Wells Fargo Bank,Greenville Lewis Plaza,Full Service Brick and Mortar Office,1714 Augusta Street,Greenville,SC,29605,34.82778212,-82.39850436
Wells Fargo Bank,Greenville Street,Full Service Brick and Mortar Office,1620 East Greenville Street,Anderson,SC,29621,34.528743,-82.634607
Wells Fargo Bank,Greenwood Main,Full Service Brick and Mortar Office,105 North Main Street,Greenwood,SC,29646,34.19263437,-82.16091837
Wells Fargo Bank,Greer,Full Service Brick and Mortar Office,6011 Wade Hampton Boulevard,Taylors,SC,29687,34.93466483,-82.28001135
Wells Fargo Bank,Hampton Hills,Full Service Brick and Mortar Office,4800 Garners Ferry Road,Columbia,SC,29209,33.98814,-80.973387
Wells Fargo Bank,Hartsville Main,Full Service Brick and Mortar Office,104 North Fifth Street,Hartsville,SC,29550,34.37480173,-80.07369364
Wells Fargo Bank,Haywood Road,Full Service Brick and Mortar Office,702 Haywood Road,Greenville,SC,29607,34.849746,-82.337085
Wells Fargo Bank,Heritage Square,Full Service Brick and Mortar Office,1797 Whiskey Road,Aiken,SC,29803,33.524532,-81.7205985
Wells Fargo Bank,Hillcrest,Full Service Brick and Mortar Office,1956 East Main Street,Spartanburg,SC,29307,34.97045911,-81.88787523
Wells Fargo Bank,James Island,Full Service Brick and Mortar Office,751 Daniel Ellis Drive,Charleston,SC,29412,32.747607,-79.9703685
Wells Fargo Bank,Johns Island,Full Service Brick and Mortar Office,"3575 Maybank Highway, Unit West",Johns Island,SC,29455,32.720517,-80.0790525
Wells Fargo Bank,Lady's Island,Full Service Brick and Mortar Office,148 Sea Island Parkway,Beaufort,SC,29907,32.41426179,-80.65121907
Wells Fargo Bank,Lake City Main,Full Service Brick and Mortar Office,205 West Main Street,Lake City,SC,29560,33.874382,-79.75654814
Wells Fargo Bank,Lake Keowee,Full Service Brick and Mortar Office,8233 Rochester Highway,Salem,SC,29676,34.80667499,-82.90850035
Wells Fargo Bank,Lancaster Main,Full Service Brick and Mortar Office,705 North Main Street,Lancaster,SC,29720,34.728975,-80.7749235
Wells Fargo Bank,Landrum,Full Service Brick and Mortar Office,401 East Rutherford Street,Landrum,SC,29356,35.17605408,-82.18528128
Wells Fargo Bank,Leesville Main,Full Service Brick and Mortar Office,418 East Railroad Avenue,Leesville,SC,29070,33.91738577,-81.51312944
Wells Fargo Bank,Lexington Main,Full Service Brick and Mortar Office,200 Columbia Avenue,Lexington,SC,29072,33.98710088,-81.24463826
Wells Fargo Bank,Lexington Place,Full Service Brick and Mortar Office,5490 Sunset Boulevard,Lexington,SC,29072,33.99829827,-81.2188724
Wells Fargo Bank,Long Point,Full Service Brick and Mortar Office,648 Long Point Road,Mount Pleasant,SC,29464,32.841342,-79.853787
Wells Fargo Bank,Marion Main,Full Service Brick and Mortar Office,507 North Main Street,Marion,SC,29571,34.18243298,-79.40011405
Wells Fargo Bank,"Market At Oakland, The",Full Service Brick and Mortar Office,3080 Ironclad Alley,Mount Pleasant,SC,29466,32.864877,-79.7851485
Wells Fargo Bank,Mauldin,Full Service Brick and Mortar Office,500 North Main Street,Mauldin,SC,29662,34.78534557,-82.31287957
Wells Fargo Bank,Mcalister,Full Service Brick and Mortar Office,137 South Pleasantburg Drive,Greenville,SC,29607,34.84111489,-82.36387205
Wells Fargo Bank,Mill Creek Commons,Full Service Brick and Mortar Office,5234 Highway 557,Clover,SC,29710,35.119647,-81.0846045
Wells Fargo Bank,Moncks Corner Main,Full Service Brick and Mortar Office,237 East Main Street,Moncks Corner,SC,29461,33.19346877,-80.00712709
Wells Fargo Bank,Mount Pleasant Bypass,Full Service Brick and Mortar Office,1100 Johnnie Dodds Blvd,Mount Pleasant,SC,29464,32.813037,-79.8589845
Wells Fargo Bank,Mt Pleasant Towne Centre Night Depos,Limited Service Messenger Office,1891 Sthy 17,Mount Pleasant,SC,29464,32.63469543,-80.86178561
Wells Fargo Bank,Murrells Inlet,Full Service Brick and Mortar Office,4380 Highway 17 Bypass,Murrells Inlet,SC,29576,33.5559916,-79.04420499
Wells Fargo Bank,Newberry Main,Full Service Brick and Mortar Office,1119 Boyce Street,Newberry,SC,29108,34.27478181,-81.6199296
Wells Fargo Bank,North Augusta Main,Full Service Brick and Mortar Office,402 Georgia Avenue,North Augusta,SC,29841,33.492609,-81.971811
Wells Fargo Bank,North Hill,Full Service Brick and Mortar Office,3439 Clemson Boulevard,Anderson,SC,29621,34.54890055,-82.67349609
Wells Fargo Bank,North Island,Full Service Brick and Mortar Office,75 Matthews Drive,Hilton Head Island,SC,29926,32.2146,-80.702019
Wells Fargo Bank,North Myrtle Beach,Full Service Brick and Mortar Office,1025 Highway 17 South,North Myrtle Beach,SC,29582,33.818256,-78.691905
Wells Fargo Bank,North Rivers Market,Full Service Brick and Mortar Office,7804 Rivers Avenue,Charleston,SC,29406,32.94504,-80.040231
Wells Fargo Bank,North Village,Full Service Brick and Mortar Office,"6877 Dorchester Road, Suite 19",North Charleston,SC,29418,32.885667,-80.067915
Wells Fargo Bank,Oak Street,Full Service Brick and Mortar Office,2110 North Oak Street,Myrtle Beach,SC,29577,33.70465109,-78.8739867
Wells Fargo Bank,Okatie Town Center,Full Service Brick and Mortar Office,197 Okatie Village Drive,Okatie,SC,29909,32.29699285,-80.94566353
Wells Fargo Bank,Pelham,Full Service Brick and Mortar Office,3600 Pelham Road,Greenville,SC,29615,34.86028722,-82.26988071
Wells Fargo Bank,Pickens Main,Full Service Brick and Mortar Office,431 Ann Street,Pickens,SC,29671,34.89167459,-82.71074262
Wells Fargo Bank,Reidville Road,Full Service Brick and Mortar Office,5870 Reidville Road,Moore,SC,29369,34.88704717,-82.065994
Wells Fargo Bank,Rock Hill Main,Full Service Brick and Mortar Office,113 East Main Street,Rock Hill,SC,29730,34.92589596,-81.02735
Wells Fargo Bank,Saint Matthews Main,Full Service Brick and Mortar Office,702 N F R Huff Drive,Saint Matthews,SC,29135,33.66610685,-80.77672645
Wells Fargo Bank,Sc Bamberg County 1,Limited Service Mobile Office,500 Solomon Blatt Boulevard,Denmark,SC,29042,33.32341108,-81.11960481
Wells Fargo Bank,Sc Bamberg County 2,Limited Service Mobile Office,1411 Voorhees Road,Denmark,SC,29042,33.25651365,-81.10002489
Wells Fargo Bank,Sc Charleston County,Limited Service Mobile Office,66 George Street,Charleston,SC,29424,32.7834,-79.9370235
Wells Fargo Bank,Sc Greenville County 1,Limited Service Mobile Office,3300 Poinsett Hwy,Greenville,SC,29613,34.926624,-82.434915
Wells Fargo Bank,Sc Horry County,Limited Service Mobile Office,755 Highway 544,Conway,SC,29526,33.797736,-79.018083
Wells Fargo Bank,Sc Richland County,Limited Service Mobile Office,901 Sumter Street,Columbia,SC,29208,33.997743,-81.030591
Wells Fargo Bank,Sea Pines,Full Service Brick and Mortar Office,One Greenwood Drvie,Hilton Head Island,SC,29928,32.13840243,-80.78803862
Wells Fargo Bank,Seneca Main,Full Service Brick and Mortar Office,301 East Main Street,Seneca,SC,29678,34.68514729,-82.95115923
Wells Fargo Bank,Seven Oaks,Full Service Brick and Mortar Office,6119 Saint Andrews Road,Columbia,SC,29212,34.05519,-81.1611675
Wells Fargo Bank,Shaw Air Force Base,Full Service Brick and Mortar Office,530 Exchange Street,Shaw A F B,SC,29152,33.97618856,-80.47785699
Wells Fargo Bank,Simpsonville,Full Service Brick and Mortar Office,667 Fairview Road,Simpsonville,SC,29680,34.70987167,-82.25661098
Wells Fargo Bank,Southpark,Full Service Brick and Mortar Office,1511 South Irby Street,Florence,SC,29505,34.165575,-79.76511
Wells Fargo Bank,Sparkleberry,Full Service Brick and Mortar Office,"10136 Two Notch Road, Suite 102",Columbia,SC,29229,34.11701296,-80.88320598
Wells Fargo Bank,Spartanburg Main,Full Service Brick and Mortar Office,101 North Pine Street,Spartanburg,SC,29302,34.95323571,-81.92092127
Wells Fargo Bank,Summerville Bacons Bridge,Full Service Brick and Mortar Office,805 Bacons Bridge Road,Summerville,SC,29485,32.99850415,-80.18426123
Wells Fargo Bank,Summerville Main,Full Service Brick and Mortar Office,406 North Main Street,Summerville,SC,29483,33.02439102,-80.17189623
Wells Fargo Bank,Sumter Highway,Full Service Brick and Mortar Office,6700 Garners Ferry Road,Columbia,SC,29209,33.97701792,-80.958559
Wells Fargo Bank,Sumter Main,Full Service Brick and Mortar Office,4 North Washington Street,Sumter,SC,29150,33.920892,-80.345052
Wells Fargo Bank,Surfside 544,Full Service Brick and Mortar Office,2361 Dick Pond Rd,Myrtle Beach,SC,29575,33.64833817,-78.97700784
Wells Fargo Bank,Surfside Beach,Full Service Brick and Mortar Office,1410 Highway 17 North,Myrtle Beach,SC,29575,33.623334,-78.971472
Wells Fargo Bank,Tega Cay,Full Service Brick and Mortar Office,2890 Highway 160 West,Fort Mill,SC,29708,35.061048,-80.9912115
Wells Fargo Bank,Travelers Rest,Full Service Brick and Mortar Office,5 Hawkins Rd,Travelers Rest,SC,29690,34.974576,-82.430487
Wells Fargo Bank,Trolley Road,Full Service Brick and Mortar Office,10106 Dorchester Road,Summerville,SC,29485,32.95260646,-80.16651233
Wells Fargo Bank,"Village Of Sandhill, The",Full Service Brick and Mortar Office,101 Forum Drive,Columbia,SC,29229,34.13469599,-80.88103382
Wells Fargo Bank,Wade Hampton,Full Service Brick and Mortar Office,2616 Wade Hampton Blvd,Greenville,SC,29615,34.896996,-82.33974
Wells Fargo Bank,Walterboro Main,Full Service Brick and Mortar Office,202 Eddie Chasteen Drive,Walterboro,SC,29488,32.91138584,-80.66926532
Wells Fargo Bank,Wando Crossing,Full Service Brick and Mortar Office,1505 N Hwy 17,Mount Pleasant,SC,29464,32.81688305,-79.84564699
Wells Fargo Bank,Wappoo Creek,Full Service Brick and Mortar Office,1730 Maybank Highway,Charleston,SC,29412,32.763141,-79.976673
Wells Fargo Bank,Wedgewood Square,Full Service Brick and Mortar Office,1709 Heckle Boulevard,Rock Hill,SC,29732,34.951275,-81.062865
Wells Fargo Bank,Wells Fargo Center,Full Service Brick and Mortar Office,15 South Main Street,Greenville,SC,29601,34.849962,-82.3986225
Wells Fargo Bank,Wesmark,Full Service Brick and Mortar Office,1119 Broad Street,Sumter,SC,29150,33.95305758,-80.37828522
Wells Fargo Bank,Westgate,Full Service Brick and Mortar Office,1505 Wo Ezell Boulevard,Spartanburg,SC,29301,34.93657859,-81.98927908
Wells Fargo Bank,Westgate Mall Nd,Limited Service Messenger Office,205 W Blackstock Rd,Spartanburg,SC,29301,34.94002149,-81.99138239
Wells Fargo Bank,Westside,Full Service Brick and Mortar Office,308 Pearman Dairy Road,Anderson,SC,29625,34.50736752,-82.68583019
Wells Fargo Bank,White Horse,Full Service Brick and Mortar Office,3043 White Horse Road,Greenville,SC,29611,34.81389886,-82.44082794
Wells Fargo Bank,Winnsboro Main,Full Service Brick and Mortar Office,101 Congress Street,Winnsboro,SC,29180,34.3802713,-81.08643223
Wells Fargo Bank,Woodruff East,Full Service Brick and Mortar Office,1720 Woodruff Road,Greenville,SC,29607,34.81934355,-82.27268457
South State Bank,100 Exchange Street,Full Service Brick and Mortar Office,100 Exchange Street,Hilton Head Island,SC,29926,32.21706756,-80.71841087
South State Bank,1309 Sam Rittenberg Boulevard,Full Service Brick and Mortar Office,1309 Sam Rittenberg Boulevard,Charleston,SC,29407,32.814774,-79.9963875
South State Bank,2 Palmetto Bay Road,Full Service Brick and Mortar Office,2 Palmetto Bay Road,Hilton Head Island,SC,29928,32.156469,-80.76276
South State Bank,211 Highway 17 North,Full Service Brick and Mortar Office,211 Highway 17 North,Myrtle Beach,SC,29575,33.613128,-78.9796035
South State Bank,2440 Mall Drive,Full Service Brick and Mortar Office,2440 Mall Drive,Charleston,SC,29406,32.878665,-80.0153595
South State Bank,501 Main Street,Full Service Brick and Mortar Office,501 Main Street,Conway,SC,29526,33.83776966,-79.04779205
South State Bank,601,Limited Service Facility Office,3025 St. Matthews Rd.,Orangeburg,SC,29118,33.54215296,-80.83227687
South State Bank,637 Rutledge Avenue,Full Service Brick and Mortar Office,637 Rutledge Avenue,Charleston,SC,29403,32.799609,-79.9519005
South State Bank,690 Bacon's Bridge Road,Full Service Brick and Mortar Office,690 Bacon's Bridge Road,Summerville,SC,29485,32.99937408,-80.18403397
South State Bank,7850 Rivers Avenue,Full Service Brick and Mortar Office,7850 Rivers Ave.,Charleston,SC,29406,32.948721,-80.040897
South State Bank,822 Coleman Boulevard,Full Service Brick and Mortar Office,822 Coleman Boulevard,Mount Pleasant,SC,29464,32.793795,-79.8656175
South State Bank,8450 Dorchester Rd,Full Service Brick and Mortar Office,8450 Dorchester Road,North Charleston,SC,29420,32.91562628,-80.10985262
South State Bank,855 Savannah Hwy,Full Service Brick and Mortar Office,855 Savannah Hwy,Charleston,SC,29407,32.78205,-79.9884225
South State Bank,Abbeville Main,Full Service Brick and Mortar Office,203 South Main Street,Abbeville,SC,29620,34.17591147,-82.37718453
South State Bank,Anderson,Full Service Brick and Mortar Office,201 East Greenville Street,Anderson,SC,29621,34.51010993,-82.64995793
South State Bank,Anderson Highway 81,Full Service Brick and Mortar Office,2123 Highway 81 N,Anderson,SC,29621,34.552881,-82.6302015
South State Bank,Antrim Drive Office,Full Service Brick and Mortar Office,45 East Antrim Drive,Greenville,SC,29607,34.8404502,-82.36190109
South State Bank,Ashley Avenue,Full Service Brick and Mortar Office,172 Ashley Avenue,Charleston,SC,29403,32.785731,-79.946532
South State Bank,Ashley Crossing,Full Service Brick and Mortar Office,1955 Magwood Road,Charleston,SC,29414,32.81566576,-80.04055222
South State Bank,Bamberg,Full Service Brick and Mortar Office,2770 Main Highway,Bamberg,SC,29003,33.30084508,-81.03398026
South State Bank,Bank Operations (Lpo),Limited Service Loan Production Office,600 North Duncan Bypass,Union,SC,29379,34.72964964,-81.63913663
South State Bank,Batesburg-Leesville Main Office Bran,Full Service Brick and Mortar Office,138 East Columbia Avenue,Leesville,SC,29070,33.91180434,-81.52471123
South State Bank,Beaufort,Full Service Brick and Mortar Office,1121 Boundary Street,Beaufort,SC,29901,32.43962749,-80.67490166
South State Bank,Belton,Full Service Brick and Mortar Office,717 Anderson Street,Belton,SC,29627,34.52031903,-82.50515375
South State Bank,Bluffton,Full Service Brick and Mortar Office,1328 Fording Island Road,Bluffton,SC,29910,32.24452734,-80.82738772
South State Bank,Bluffton Oak Forest,Full Service Brick and Mortar Office,9 Oak Forest Rd,Bluffton,SC,29910,32.266935,-80.8584885
South State Bank,Broad Street,Full Service Brick and Mortar Office,1141 Broad Street,Sumter,SC,29150,33.954615,-80.3787975
South State Bank,Center Pointe Drive,Full Service Brick and Mortar Office,4962 Centre Pointe Drive,North Charleston,SC,29418,32.872698,-80.0215065
South State Bank,Chapin Office,Limited Service Loan Production Office,"113 Virginia Street, Suite B",Chapin,SC,29036,34.16595197,-81.35508208
South State Bank,Charleston Broad Street,Full Service Brick and Mortar Office,46 Broad Street,Charleston,SC,29401,32.776812,-79.9290585
South State Bank,Clemson,Full Service Brick and Mortar Office,528 Old Greenville Highway,Clemson,SC,29631,34.69054633,-82.80981671
South State Bank,Clinton,Full Service Brick and Mortar Office,198 Jacobs Highway,Clinton,SC,29325,34.45534606,-81.87690842
South State Bank,Columbia Northeast,Full Service Brick and Mortar Office,2010 Clemson Road,Columbia,SC,29229,34.14007193,-80.91192048
South State Bank,Courier Service,Limited Service Messenger Office,1127 Ebenezer Road,Rock Hill,SC,29732,34.945056,-81.033372
South State Bank,Denmark,Full Service Brick and Mortar Office,18587 Heritage Way,Denmark,SC,29042,33.32597861,-81.1406327
South State Bank,Dick Pond,Full Service Brick and Mortar Office,5019 Dick Pond Road,Myrtle Beach,SC,29588,33.67440662,-78.99913043
South State Bank,Easley,Full Service Brick and Mortar Office,1800 East Main Street,Easley,SC,29640,34.82757,-82.5702255
South State Bank,East Broad Street,Full Service Brick and Mortar Office,200 East Broad Street,Greenville,SC,29601,34.846191,-82.3976055
South State Bank,Elloree,Full Service Brick and Mortar Office,6512 Old No. 6 Hwy.,Elloree,SC,29047,33.53024508,-80.5717335
South State Bank,Folly Road,Full Service Brick and Mortar Office,1185 Folly Road,Charleston,SC,29412,32.723226,-79.967322
South State Bank,Forest Drive,Full Service Brick and Mortar Office,4132 Forest Drive,Columbia,SC,29204,34.020513,-80.980659
South State Bank,Fort Mill,Full Service Brick and Mortar Office,808 East Tom Hall Street,Fort Mill,SC,29715,35.007012,-80.9306235
South State Bank,Georgetown,Full Service Brick and Mortar Office,1025 Church Street,Georgetown,SC,29440,33.37298013,-79.28215636
South State Bank,Greenwood Montague Avenue,Full Service Brick and Mortar Office,109 Montague Street,Greenwood,SC,29649,34.19818267,-82.17122613
South State Bank,Greenwood Montague Drive-Thru,Limited Service Facility Office,123 Montague Avenue,Greenwood,SC,29649,34.198488,-82.1717685
South State Bank,Greenwood Westwood,Full Service Brick and Mortar Office,537 Sc 72 -byp Nw,Greenwood,SC,29649,34.20375566,-82.19640733
South State Bank,Grissom Parkway,Full Service Brick and Mortar Office,4331 Robert M Grissom Parkway,Myrtle Beach,SC,29577,33.72708691,-78.86138548
South State Bank,Hardeeville,Full Service Brick and Mortar Office,21979 Whyte Hardee Blvd,Hardeeville,SC,29927,32.28570842,-81.08194912
South State Bank,Hartsville Mall,Full Service Brick and Mortar Office,825 South 5th Street,Hartsville,SC,29550,34.36378214,-80.06749021
South State Bank,Highway 160,Full Service Brick and Mortar Office,817 Dave Gibson Boulevard,Fort Mill,SC,29708,35.04313921,-80.98601777
South State Bank,Irmo,Full Service Brick and Mortar Office,201 Columbiana Drive,Columbia,SC,29212,34.07823099,-81.16014315
South State Bank,James Island,Full Service Brick and Mortar Office,315 Folly Road,Charleston,SC,29412,32.762493,-79.9749135
South State Bank,K-Mart Plaza,Full Service Brick and Mortar Office,2021 Hoffmeyer Road,Florence,SC,29501,34.192008,-79.8081795
South State Bank,Knox Abbott Drive,Full Service Brick and Mortar Office,1100 Knox Abbott Drive,Cayce,SC,29033,33.9804616,-81.06721233
South State Bank,Ladys Island,Full Service Brick and Mortar Office,189 Sea Island Parkway,Beaufort,SC,29907,32.41200075,-80.64657018
South State Bank,Lake City,Full Service Brick and Mortar Office,266 West Main Street,Lake City,SC,29560,33.87618,-79.758252
South State Bank,Laurens,Full Service Brick and Mortar Office,206 Hillcrest Drive,Laurens,SC,29360,34.5053404,-82.01300114
South State Bank,Lexington,Full Service Brick and Mortar Office,5109 Sunset Boulevard,Lexington,SC,29072,34.0078746,-81.19553208
South State Bank,Long Point Road,Full Service Brick and Mortar Office,632 Long Point Road,Mount Pleasant,SC,29464,32.84091,-79.8566625
South State Bank,Messenger Service,Limited Service Messenger Office,265 South Irby Street,Florence,SC,29501,34.194177,-79.768413
South State Bank,Messenger Service,Limited Service Messenger Office,1255 St. Matthews Road,Orangeburg,SC,29115,33.51099189,-80.86119173
South State Bank,Messenger Service,Limited Service Messenger Office,520 Gervais Street,Columbia,SC,29201,33.99807641,-81.04360746
South State Bank,Moncks Corner,Full Service Brick and Mortar Office,"317 Highway 52, North",Moncks Corner,SC,29461,33.199848,-79.9919325
South State Bank,Montague,Full Service Brick and Mortar Office,702 Montague Ave,Greenwood,SC,29649,34.205778,-82.173231
South State Bank,Mount Pleasant,Full Service Brick and Mortar Office,1899 Highway 17 North,Mount Pleasant,SC,29464,32.831586,-79.828803
South State Bank,Mt. Pleasant,Full Service Brick and Mortar Office,1032 Johnnie Dobbs Blvd,Mount Pleasant,SC,29464,32.812074,-79.864704
South State Bank,Murrells Inlet,Full Service Brick and Mortar Office,4210 Highway 17 Bypass,Murrells Inlet,SC,29576,33.55761162,-79.04304681
South State Bank,"New Commerce Bank, Na",Full Service Brick and Mortar Office,1006 E. Butler Road,Greenville,SC,29607,34.80796649,-82.28168668
South State Bank,Newberry,Full Service Brick and Mortar Office,999 Wilson Road,Newberry,SC,29108,34.28035936,-81.59468916
South State Bank,North Augusta,Full Service Brick and Mortar Office,"336 Georgia Avenue, Ste 104",North Augusta,SC,29841,33.49212516,-81.97163994
South State Bank,North Jeffries,Full Service Brick and Mortar Office,520 North Jeffries Boulevard,Walterboro,SC,29488,32.907969,-80.66673
South State Bank,North Myrtle,Full Service Brick and Mortar Office,606 Main Street,North Myrtle Beach,SC,29582,33.825501,-78.6760875
South State Bank,Oakheart Myrtle Beach,Full Service Brick and Mortar Office,2005c Oakheart Road,Myrtle Beach,SC,29579,33.75798937,-78.96330369
South State Bank,Orangeburg (Former Main Off),Full Service Brick and Mortar Office,"950 John C. Calhoun Drive, S.E.",Orangeburg,SC,29115,33.48835416,-80.86020781
South State Bank,Pamplico Highway,Full Service Brick and Mortar Office,108 Pamplico Highway,Florence,SC,29505,34.165584,-79.763508
South State Bank,Pelham Road,Full Service Brick and Mortar Office,3622 Pelham Road,Greenville,SC,29615,34.85999903,-82.26829489
South State Bank,Pickens,Full Service Brick and Mortar Office,424 Hampton Avenue,Pickens,SC,29671,34.8797703,-82.70209143
South State Bank,Pine Log Road,Full Service Brick and Mortar Office,1001 Pine Log Rd,Aiken,SC,29803,33.522165,-81.7222095
South State Bank,Plantation Federal Bank,Full Service Brick and Mortar Office,11039 Ocean Highway,Pawleys Island,SC,29585,33.44510488,-79.12267878
South State Bank,Pnb Courier,Limited Service Messenger Office,1800 East Main Street,Easley,SC,29640,34.82757,-82.5702255
South State Bank,Powdersville,Full Service Brick and Mortar Office,4 Hood Road,Greenville,SC,29611,34.79034632,-82.48640769
South State Bank,Proprietors Place,Full Service Retail Office,3000 Proprietors Place,Mount Pleasant,SC,29464,32.861799,-79.788222
South State Bank,Ridgeland,Full Service Brick and Mortar Office,10671 S. Jacob Smart Boulevard,Ridgeland,SC,29936,32.47876003,-80.98126602
South State Bank,Robertson Boulevard,Limited Service Facility Office,600 Robertson Boulevard,Walterboro,SC,29488,32.920947,-80.6669325
South State Bank,Rock Hill,Full Service Brick and Mortar Office,1127 Ebenezer Road,Rock Hill,SC,29732,34.945056,-81.033372
South State Bank,Rock Hill East Main Office,Full Service Brick and Mortar Office,222 East Main Street,Rock Hill,SC,29730,34.924419,-81.025749
South State Bank,Saluda,Limited Service Loan Production Office,437 North Main Street,Saluda,SC,29138,34.01388513,-81.7686993
South State Bank,Saluda,Full Service Brick and Mortar Office,200 North Main Street,Saluda,SC,29138,34.00288201,-81.77220553
South State Bank,Santee,Full Service Brick and Mortar Office,657 Bass Drive,Santee,SC,29142,33.48560133,-80.47787724
South State Bank,Savannah Highway,Full Service Brick and Mortar Office,3628 Savannah Highway,Johns Island,SC,29455,32.803488,-80.11197
South State Bank,Seneca,Full Service Brick and Mortar Office,201 Bypass 123,Seneca,SC,29678,34.699086,-82.9406745
South State Bank,Simpsonville,Full Service Brick and Mortar Office,#1 Five Forks Plaza Court,Simpsonville,SC,29681,34.806033,-82.232496
South State Bank,South Irby Street,Full Service Brick and Mortar Office,265 South Irby Street,Florence,SC,29501,34.194177,-79.768413
South State Bank,South State Bank,Full Service Brick and Mortar Office,520 Gervais Street,Columbia,SC,29201,33.99807641,-81.04360746
South State Bank,Southern Bank & Trust Aiken,Full Service Brick and Mortar Office,"149 Laurens Street, Nw",Aiken,SC,29801,33.56302946,-81.72190631
South State Bank,Spartanburg,Full Service Brick and Mortar Office,320 Main Street,Spartanburg,SC,29302,34.99193637,-81.83732802
South State Bank,St James Boulevard,Full Service Brick and Mortar Office,218 St. James Blvd.,Goose Creek,SC,29445,32.9597381,-80.01161019
South State Bank,St. George,Full Service Brick and Mortar Office,5542 Memorial Boulevard,Saint George,SC,29477,33.1867369,-80.57465887
South State Bank,St. Matthews Road,Full Service Brick and Mortar Office,1255 St. Matthews Road,Orangeburg,SC,29118,33.51099189,-80.86119173
South State Bank,Summerville,Full Service Brick and Mortar Office,1315 North Main Street,Summerville,SC,29483,33.03672714,-80.15517147
South State Bank,Summerville Messenger Service,Limited Service Messenger Office,402 - B North Main Street,Summerville,SC,29483,33.0242557,-80.17195554
South State Bank,Sun City,Full Service Brick and Mortar Office,32 William Pope Drive,Okatie,SC,29909,32.29691249,-80.94920302
South State Bank,Union Duncan Bypass,Full Service Brick and Mortar Office,502 North Duncan By-Pass,Union,SC,29379,34.726914,-81.63896807
South State Bank,Winnsboro,Full Service Brick and Mortar Office,801 Highway 321 South,Winnsboro,SC,29180,34.35924019,-81.09783291
South State Bank,York,Full Service Brick and Mortar Office,801 E. Liberty Street,York,SC,29745,34.986321,-81.2216655
Branch Banking and Trust Company,76th Avenue North,Full Service Brick and Mortar Office,505 76th Avenue North,Myrtle Beach,SC,29572,33.74682114,-78.81908594
Branch Banking and Trust Company,Anderson Highway 81,Full Service Brick and Mortar Office,"1637 E Greenville Street, Suite E",Anderson,SC,29621,34.52945147,-82.63470168
Branch Banking and Trust Company,Anderson Main,Full Service Brick and Mortar Office,4007 Clemson Boulevard,Anderson,SC,29621,34.55712649,-82.68682357
Branch Banking and Trust Company,Batesburg Main,Full Service Brick and Mortar Office,303 West Columbia Avenue,Batesburg,SC,29006,33.908265,-81.536958
Branch Banking and Trust Company,Beaufort Sc Main,Full Service Brick and Mortar Office,1 Kemmerlin Lane,Beaufort,SC,29907,32.4079953,-80.65714158
Branch Banking and Trust Company,Belton Main,Full Service Brick and Mortar Office,723 Anderson Street,Belton,SC,29627,34.5199102,-82.50585724
Branch Banking and Trust Company,Berea,Full Service Brick and Mortar Office,1954 Cedar Lane Road,Greenville,SC,29617,34.883235,-82.454355
Branch Banking and Trust Company,Bluffton,Full Service Brick and Mortar Office,2 Burnt Church Road,Bluffton,SC,29910,32.25112971,-80.84278769
Branch Banking and Trust Company,Boiling Springs Sc,Full Service Brick and Mortar Office,2701 Boiling Springs Road,Boiling Springs,SC,29316,35.03486028,-81.97135352
Branch Banking and Trust Company,Broad River,Full Service Brick and Mortar Office,7231 Broad River Road,Irmo,SC,29063,34.09452,-81.15768
Branch Banking and Trust Company,Carolina Forest,Full Service Brick and Mortar Office,3894 Renee Drive,Myrtle Beach,SC,29579,33.760413,-78.961113
Branch Banking and Trust Company,Chapin,Full Service Brick and Mortar Office,1301 Chapin Road,Chapin,SC,29036,34.166502,-81.354492
Branch Banking and Trust Company,Charleston Main,Full Service Brick and Mortar Office,174 Meeting Street,Charleston,SC,29401,32.780115,-79.931061
Branch Banking and Trust Company,Chester Sc,Full Service Brick and Mortar Office,115 Saluda Street,Chester,SC,29706,34.7076,-81.210384
Branch Banking and Trust Company,Clemson,Full Service Brick and Mortar Office,1380 Tiger Boulevard,Clemson,SC,29631,34.687188,-82.8186795
Branch Banking and Trust Company,Clemson Road,Full Service Brick and Mortar Office,205 Forum Drive,Columbia,SC,29229,34.13066893,-80.87598863
Branch Banking and Trust Company,Columbia Sc Main,Full Service Brick and Mortar Office,1201 Main Street,Columbia,SC,29201,34.001271,-81.03483
Branch Banking and Trust Company,Columbiana Financial Center,Full Service Brick and Mortar Office,291 Harbison Boulevard,Columbia,SC,29212,34.07346496,-81.15719264
Branch Banking and Trust Company,Conway Highway 501,Full Service Brick and Mortar Office,2300 E Highway 501,Conway,SC,29526,33.790383,-78.9980535
Branch Banking and Trust Company,Daniel Island,Full Service Brick and Mortar Office,"234 Seven Farms Drive, Ste 110",Charleston,SC,29492,32.85963546,-79.90913694
Branch Banking and Trust Company,Dave Lyle Boulevard,Full Service Brick and Mortar Office,2286 Dave Lyle Boulevard,Rock Hill,SC,29730,34.94047704,-80.96511866
Branch Banking and Trust Company,Dorchester Rd,Full Service Brick and Mortar Office,5010 Dorchester Rd,North Charleston,SC,29418,32.858145,-80.031168
Branch Banking and Trust Company,Dutch Square,Full Service Brick and Mortar Office,418 Bush River Road,Columbia,SC,29210,34.03073248,-81.09217956
Branch Banking and Trust Company,Easley Main,Full Service Brick and Mortar Office,6016 Calhoun Memorial Highway,Easley,SC,29640,34.824879,-82.5747975
Branch Banking and Trust Company,Five Points,Full Service Brick and Mortar Office,2101 Blossom Street,Columbia,SC,29205,33.99756879,-81.01521412
Branch Banking and Trust Company,Florence Main,Full Service Brick and Mortar Office,1831 West Evans Street,Florence,SC,29501,34.195806,-79.8018705
Branch Banking and Trust Company,Forest Drive,Full Service Brick and Mortar Office,3401 Forest Drive,Columbia,SC,29204,34.018821,-80.9917065
Branch Banking and Trust Company,Fort Mill,Full Service Brick and Mortar Office,1782 Highway 160 West,Fort Mill,SC,29708,35.034561,-80.971596
Branch Banking and Trust Company,Goose Creek,Full Service Brick and Mortar Office,144 St James Avenue,Goose Creek,SC,29445,33.003792,-80.0422425
Branch Banking and Trust Company,Greenville Sc Main,Full Service Brick and Mortar Office,1 North Main Street,Greenville,SC,29601,34.851438,-82.399248
Branch Banking and Trust Company,Greenville Sc Main Drive Thru,Limited Service Facility Office,106 Hampton Avenue,Greenville,SC,29601,34.85379743,-82.40262124
Branch Banking and Trust Company,Greer Downtown,Full Service Brick and Mortar Office,101 North Main Street,Greer,SC,29650,34.939143,-82.2274335
Branch Banking and Trust Company,Hampton,Full Service Brick and Mortar Office,402 Elm Street East,Hampton,SC,29924,32.86360585,-81.10454364
Branch Banking and Trust Company,Haywood Road,Full Service Brick and Mortar Office,701 Haywood Road,Greenville,SC,29607,34.850223,-82.337904
Branch Banking and Trust Company,Highway 290,Full Service Brick and Mortar Office,2075 East Main Street,Duncan,SC,29334,34.88919658,-82.07229928
Branch Banking and Trust Company,Hilton Head Main,Full Service Brick and Mortar Office,1008 William Hilton Parkway,Hilton Head Island,SC,29928,32.159133,-80.7562305
Branch Banking and Trust Company,Hudson Corners,Full Service Brick and Mortar Office,2101 Old Spartanburg Road,Greer,SC,29650,34.892073,-82.290348
Branch Banking and Trust Company,Indian Land,Full Service Brick and Mortar Office,7715 Charlotte Highway,Fort Mill,SC,29707,34.93644379,-80.83661415
Branch Banking and Trust Company,Inman,Full Service Brick and Mortar Office,11157 Asheville Highway,Inman,SC,29349,35.03843006,-82.07797486
Branch Banking and Trust Company,Irmo,Full Service Brick and Mortar Office,7425 St. Andrews Road,Irmo,SC,29063,34.085538,-81.183834
Branch Banking and Trust Company,James Island,Full Service Brick and Mortar Office,1035 Folly Road,Charleston,SC,29412,32.728356,-79.968645
Branch Banking and Trust Company,Johns Island,Full Service Brick and Mortar Office,340 Freshfields Drive,Johns Island,SC,29455,32.607945,-80.146827
Branch Banking and Trust Company,Lake Wylie,Full Service Brick and Mortar Office,585 Nautical Drive,Clover,SC,29710,35.11837194,-81.07915023
Branch Banking and Trust Company,Lancaster,Full Service Brick and Mortar Office,600 North Main Street,Lancaster,SC,29720,34.725708,-80.7747435
Branch Banking and Trust Company,Lexington Sc Main,Full Service Brick and Mortar Office,309 Columbia Avenue,Lexington,SC,29072,33.988149,-81.24282
Branch Banking and Trust Company,Loris,Full Service Brick and Mortar Office,3610 Broad Street,Loris,SC,29569,34.053525,-78.8898825
Branch Banking and Trust Company,Mauldin,Full Service Brick and Mortar Office,110 North Main Street,Mauldin,SC,29662,34.77971242,-82.31036129
Branch Banking and Trust Company,Mccormick,Full Service Brick and Mortar Office,200 East Augusta Street,Mc Cormick,SC,29835,33.91276117,-82.29241115
Branch Banking and Trust Company,Mills Avenue,Full Service Brick and Mortar Office,505 Mills Avenue,Greenville,SC,29605,34.8253583,-82.41157305
Branch Banking and Trust Company,Mount Pleasant,Full Service Brick and Mortar Office,"885 Johnnie Dodds Boulevard, Floor 2",Mount Pleasant,SC,29464,32.809599,-79.8716115
Branch Banking and Trust Company,Mount Pleasant North,Full Service Brick and Mortar Office,2692 N. Highway 17,Mount Pleasant,SC,29466,32.854239,-79.802712
Branch Banking and Trust Company,Murrells Inlet,Full Service Brick and Mortar Office,656 Sunnyside Avenue,Murrells Inlet,SC,29576,33.56669954,-79.03390931
Branch Banking and Trust Company,Myrtle Beach Main,Full Service Brick and Mortar Office,2619 North Oak Street,Myrtle Beach,SC,29577,33.709914,-78.869007
Branch Banking and Trust Company,Newberry Main,Full Service Brick and Mortar Office,1724 Wilson Road,Newberry,SC,29108,34.29119926,-81.60347696
Branch Banking and Trust Company,North Conway,Full Service Brick and Mortar Office,2600 Main Street,Conway,SC,29526,33.86728991,-79.0529778
Branch Banking and Trust Company,North Myrtle Beach,Full Service Brick and Mortar Office,1702 Hwy 17,Little River,SC,29566,33.877458,-78.610275
Branch Banking and Trust Company,North Myrtle Beach Main,Full Service Brick and Mortar Office,521 Main St,North Myrtle Beach,SC,29582,33.82467745,-78.67596775
Branch Banking and Trust Company,Northwoods Mall,Full Service Brick and Mortar Office,2152 Northwoods Boulevard,Charleston,SC,29406,32.94342,-80.0411445
Branch Banking and Trust Company,Orangeburg Main,Full Service Brick and Mortar Office,500 Bennett Street,Orangeburg,SC,29115,33.50489668,-80.86916052
Branch Banking and Trust Company,Pawleys Island,Full Service Brick and Mortar Office,11403 Ocean Highway,Pawleys Island,SC,29585,33.44867403,-79.12027506
Branch Banking and Trust Company,Pelham Road,Full Service Brick and Mortar Office,3841 Pelham Road,Greenville,SC,29615,34.85983181,-82.26712915
Branch Banking and Trust Company,Pelion,Full Service Brick and Mortar Office,617 Pine Street,Pelion,SC,29123,33.76450153,-81.24612618
Branch Banking and Trust Company,Piedmont,Full Service Brick and Mortar Office,900 Anderson Street,Piedmont,SC,29673,34.70063365,-82.47515263
Branch Banking and Trust Company,Pleasantburg,Full Service Brick and Mortar Office,265 South Pleasantburg Drive,Greenville,SC,29607,34.83721508,-82.36617174
Branch Banking and Trust Company,Red Bank,Full Service Brick and Mortar Office,1120 South Lake Drive,Lexington,SC,29073,33.950889,-81.23445
Branch Banking and Trust Company,Rock Hill Main,Full Service Brick and Mortar Office,245 S Herlong Ave,Rock Hill,SC,29732,34.9553427,-81.05382685
Branch Banking and Trust Company,Saint Matthews Main,Full Service Brick and Mortar Office,718 North F R Huff Drive,Saint Matthews,SC,29135,33.66487421,-80.7774647
Branch Banking and Trust Company,Sam Rittenberg,Full Service Brick and Mortar Office,1962 Sam Rittenberg Blvd,Charleston,SC,29407,32.797287,-80.025498
Branch Banking and Trust Company,Second Loop Road,Full Service Brick and Mortar Office,407 Second Loop Road,Florence,SC,29505,34.167195,-79.768368
Branch Banking and Trust Company,Seneca Main,Full Service Brick and Mortar Office,975 By Pass 123,Seneca,SC,29678,34.694145,-82.972368
Branch Banking and Trust Company,Simpsonville,Full Service Brick and Mortar Office,713 Se Main St,Simpsonville,SC,29681,34.72104494,-82.25232617
Branch Banking and Trust Company,Socastee Boulevard,Full Service Brick and Mortar Office,4801 Socastee Boulevard,Myrtle Beach,SC,29588,33.682968,-78.99543
Branch Banking and Trust Company,Spartanburg Hillcrest,Full Service Brick and Mortar Office,1585 East Main Street,Spartanburg,SC,29307,34.96431298,-81.89874751
Branch Banking and Trust Company,Spartanburg Main,Full Service Brick and Mortar Office,380 East Main Street,Spartanburg,SC,29302,34.95169788,-81.92222538
Branch Banking and Trust Company,Springdale,Full Service Brick and Mortar Office,3300 Platt Springs Road,West Columbia,SC,29170,33.95575578,-81.11876288
Branch Banking and Trust Company,Summerville North Main,Full Service Brick and Mortar Office,904 North Main Street,Summerville,SC,29483,33.03073975,-80.16693642
Branch Banking and Trust Company,Summerville Oakbrook,Full Service Brick and Mortar Office,10105 Dorchester Rd,Summerville,SC,29485,32.95255248,-80.16644714
Branch Banking and Trust Company,Sumter Broad Street,Full Service Brick and Mortar Office,1099 Broad Street,Sumter,SC,29150,33.951798,-80.3768445
Branch Banking and Trust Company,Sumter Westside,Full Service Brick and Mortar Office,498 North Guignard Drive,Sumter,SC,29150,33.93234,-80.3695545
Branch Banking and Trust Company,Sunset,Full Service Brick and Mortar Office,2404 Sunset Boulevard,West Columbia,SC,29169,34.003278,-81.1058805
Branch Banking and Trust Company,Surfside Beach,Full Service Brick and Mortar Office,112 Highway 17 S,Myrtle Beach,SC,29575,33.612966,-78.982299
Branch Banking and Trust Company,Swansea,Full Service Brick and Mortar Office,235 South Church Street,Swansea,SC,29160,33.737103,-81.100035
Branch Banking and Trust Company,Taylors,Full Service Brick and Mortar Office,3255 Wade Hampton Boulevard,Taylors,SC,29687,34.917093,-82.317312
Branch Banking and Trust Company,Two Notch,Full Service Brick and Mortar Office,8910 Two Notch Road,Columbia,SC,29223,34.08914187,-80.92840932
Branch Banking and Trust Company,Wade Hampton,Full Service Brick and Mortar Office,1533 Wade Hampton Blvd,Greenville,SC,29609,34.87345937,-82.36893124
Branch Banking and Trust Company,Walterboro Main,Full Service Brick and Mortar Office,401 Robertson Blvd,Walterboro,SC,29488,32.92210802,-80.67259502
Branch Banking and Trust Company,West Columbia Main,Full Service Brick and Mortar Office,701 Twelfth Street,West Columbia,SC,29169,33.98426838,-81.07128864
Branch Banking and Trust Company,West Poinsett,Full Service Brick and Mortar Office,1319 W Poinsett St,Greer,SC,29650,34.9428803,-82.25343639
Branch Banking and Trust Company,Westgate,Full Service Brick and Mortar Office,1488 W.O. Ezell Boulevard,Spartanburg,SC,29301,35.10731037,-81.87211984
Branch Banking and Trust Company,Woodhill Mall,Full Service Brick and Mortar Office,6098 Garners Ferry Rd,Columbia,SC,29209,33.982389,-80.96634
Branch Banking and Trust Company,Woodruff Road,Full Service Brick and Mortar Office,2000 Woodruff Road,Greenville,SC,29607,34.819794,-82.2615795
Branch Banking and Trust Company,Yemassee,Full Service Brick and Mortar Office,33 Salkehatchie Road,Yemassee,SC,29945,32.68993392,-80.84775857
Bank of America,200 Meeting Street,Full Service Brick and Mortar Office,200 Meeting Street,Charleston,SC,29401,32.781798,-79.931511
Bank of America,Aiken Main,Full Service Brick and Mortar Office,"167 Laurens Street, S.W.",Aiken,SC,29801,33.56018534,-81.72330183
Bank of America,Aiken Mall,Full Service Brick and Mortar Office,150 Aiken Mall Drive,Aiken,SC,29803,33.50891349,-81.71291585
Bank of America,Anderson Main,Full Service Brick and Mortar Office,3005 North Main Street,Anderson,SC,29621,34.53475845,-82.66611987
Bank of America,Anna Knapp,Full Service Brick and Mortar Office,1020 Anna Knapp Boulevard,Mount Pleasant,SC,29464,32.812974,-79.8639525
Bank of America,Ashley Crossing,Full Service Brick and Mortar Office,2275 Ashley Crossing Drive,Charleston,SC,29414,32.811894,-80.0396775
Bank of America,Augusta Road,Full Service Brick and Mortar Office,1927 Augusta St,Greenville,SC,29605,34.82601252,-82.39613252
Bank of America,Aviation Avenue,Full Service Brick and Mortar Office,5900 Core Avenue,Charleston,SC,29406,32.90145286,-80.02395525
Bank of America,Berea,Full Service Brick and Mortar Office,20 Farr's Bridge Road,Greenville,SC,29617,34.88361252,-82.45673365
Bank of America,Bluffton Commons,Full Service Brick and Mortar Office,101 Windrush Lane,Bluffton,SC,29910,32.28023747,-80.87622263
Bank of America,Brookgreen Town Center,Full Service Brick and Mortar Office,710 Coleman Boulevard,Mount Pleasant,SC,29464,32.79267,-79.869456
Bank of America,Brushy Creek,Full Service Brick and Mortar Office,2010 Old Spartanburg Road,Greer,SC,29650,34.892937,-82.289385
Bank of America,Camden,Full Service Brick and Mortar Office,200 East Dekalb Street,Camden,SC,29020,34.2469454,-80.59943167
Bank of America,Carolina Forest,Full Service Brick and Mortar Office,1000 Glenforest Road,Myrtle Beach,SC,29579,33.757542,-78.965928
Bank of America,Carolina Lakes,Full Service Brick and Mortar Office,6292 Carolina Commons Dr,Fort Mill,SC,29707,34.93788552,-80.83836498
Bank of America,Cayce Park Place,Full Service Brick and Mortar Office,440 Knox Abbott Drive,Cayce,SC,29033,33.98542818,-81.05526543
Bank of America,Cherry Road,Full Service Brick and Mortar Office,1165 Cherry Road,Rock Hill,SC,29732,34.951797,-81.018495
Bank of America,Clemson Main,Full Service Brick and Mortar Office,521 College Ave,Clemson,SC,29631,34.689915,-82.8348525
Bank of America,Coastal Grande,Full Service Brick and Mortar Office,1750 Pine Island Road,Myrtle Beach,SC,29577,33.70205813,-78.91472971
Bank of America,Conway Main,Full Service Brick and Mortar Office,424 Main St,Conway,SC,29526,33.83706055,-79.04724049
Bank of America,Dentsville,Full Service Brick and Mortar Office,7405 Two Notch Road,Columbia,SC,29223,34.07061635,-80.95095348
Bank of America,Duncan,Full Service Brick and Mortar Office,1537 East Main Street,Duncan,SC,29334,34.90915028,-82.10232872
Bank of America,Dutch Square,Full Service Brick and Mortar Office,330 Bush River Road,Columbia,SC,29210,34.03073595,-81.09132147
Bank of America,Fairview Road,Full Service Brick and Mortar Office,622 Fairview Road,Simpsonville,SC,29680,34.71614753,-82.25594496
Bank of America,Festival Center N Charleston,Full Service Brick and Mortar Office,5001 Ashley Phosphate Road,North Charleston,SC,29418,32.91756826,-80.1032731
Bank of America,Five Points,Full Service Brick and Mortar Office,2111 Devine Street,Columbia,SC,29205,33.999219,-81.01503
Bank of America,Folly Road,Full Service Brick and Mortar Office,540 Folly Road,Charleston,SC,29412,32.752107,-79.9717635
Bank of America,Fort Mill Main,Full Service Brick and Mortar Office,115 Tom Hall Street,Fort Mill,SC,29715,35.00786656,-80.94176161
Bank of America,Freshfields Village,Full Service Brick and Mortar Office,125 Hedge Row Lane,Johns Island,SC,29455,32.607666,-80.1467865
Bank of America,Gaffney Mall,Full Service Brick and Mortar Office,1602 West Floyd Baker Boulevard,Gaffney,SC,29341,35.09314957,-81.66483871
Bank of America,Goose Creek,Full Service Brick and Mortar Office,212 St. James Avenue,Goose Creek,SC,29445,33.008067,-80.044641
Bank of America,Greenville Plaza,Full Service Brick and Mortar Office,101 N Main St,Greenville,SC,29601,34.852113,-82.3998375
Bank of America,Greer Main - Poinsett,Full Service Brick and Mortar Office,1322 West Poinsett St,Greer,SC,29650,34.94289749,-82.25324566
Bank of America,Harbison,Full Service Brick and Mortar Office,301 Harbison Boulevard,Columbia,SC,29212,34.07393352,-81.15633603
Bank of America,Haywood Road,Full Service Brick and Mortar Office,911 Haywood Road,Greenville,SC,29615,34.856397,-82.3353885
Bank of America,Hearon Circle,Full Service Brick and Mortar Office,1787 Asheville Highway,Spartanburg,SC,29303,34.98226636,-81.96982344
Bank of America,Heckle And Herlong,Full Service Brick and Mortar Office,1710 West Heckle Boulevard,Rock Hill,SC,29732,34.95199174,-81.06255475
Bank of America,Highway 123,Full Service Brick and Mortar Office,1313 Sandifer Blvd.,Seneca,SC,29678,34.692219,-82.9852155
Bank of America,Hillcrest,Full Service Brick and Mortar Office,1604 East Main Street,Spartanburg,SC,29307,34.96477882,-81.89804433
Bank of America,Indigo Run,Full Service Brick and Mortar Office,21 Hatton Place,Hilton Head Island,SC,29926,32.212926,-80.7226245
Bank of America,Inman,Full Service Brick and Mortar Office,79 S Main St,Inman,SC,29349,35.04276817,-82.08936049
Bank of America,Jean Ribaut Square,Full Service Brick and Mortar Office,2115 Boundary Street,Beaufort,SC,29902,32.442282,-80.691237
Bank of America,Lexington Highway 378,Full Service Brick and Mortar Office,5559 Sunset Blvd,Lexington,SC,29072,33.99574272,-81.22368762
Bank of America,Lexington West Main Street,Full Service Brick and Mortar Office,215 West Main St,Lexington,SC,29072,33.98383812,-81.24037645
Bank of America,Manchester Village,Full Service Brick and Mortar Office,1952 Springsteen Road,Rock Hill,SC,29730,34.940403,-80.9781705
Bank of America,Mauldin Main,Full Service Brick and Mortar Office,126 West Butler Rd,Mauldin,SC,29662,34.77708,-82.314504
Bank of America,Mill Creek Commons,Full Service Brick and Mortar Office,5342 Highway 557,Clover,SC,29710,35.120538,-81.0890865
Bank of America,Murray Landing,Full Service Brick and Mortar Office,104 Regency Drive,Columbia,SC,29212,34.098723,-81.222102
Bank of America,Murrells Inlet,Full Service Brick and Mortar Office,3991 Highway 17 Bypass,Murrells Inlet,SC,29576,33.56136932,-79.03954687
Bank of America,Myrtle Beach Main,Full Service Brick and Mortar Office,2501 Oak Street,Myrtle Beach,SC,29577,33.708879,-78.8706585
Bank of America,North Kings Highway,Full Service Brick and Mortar Office,7815 North Kings Highway,Myrtle Beach,SC,29572,33.74869875,-78.81669642
Bank of America,North Myrtle Beach,Full Service Brick and Mortar Office,"1339 U.S. Highway 17, South",North Myrtle Beach,SC,29582,33.84044684,-78.6650968
Bank of America,Northwoods,Full Service Brick and Mortar Office,7420 Rivers Avenue,Charleston,SC,29406,32.937651,-80.038809
Bank of America,Oakbrook,Full Service Brick and Mortar Office,10090 Dorchester Road,Summerville,SC,29485,32.95263446,-80.1654615
Bank of America,Pawley's Island,Full Service Brick and Mortar Office,10267 Ocean Hwy,Pawleys Island,SC,29585,33.43695755,-79.13049167
Bank of America,Pelham Road,Full Service Brick and Mortar Office,3596 Pelham Road,Greenville,SC,29615,34.86051859,-82.27115326
Bank of America,Pine Knoll,Full Service Brick and Mortar Office,2003 Wade Hampton Boulevard,Greenville,SC,29615,34.881327,-82.3589325
Bank of America,Pleasantburg,Full Service Brick and Mortar Office,498 South Pleasantburg Drive,Greenville,SC,29607,34.830819,-82.3703805
Bank of America,Poinsett Highway,Full Service Brick and Mortar Office,1601 Poinsett Highway,Greenville,SC,29609,34.89001419,-82.40585073
Bank of America,Polo Road,Full Service Brick and Mortar Office,9732 Two Notch Road,Columbia,SC,29223,34.10607729,-80.90275039
Bank of America,Pope Avenue,Full Service Brick and Mortar Office,59 Pope Avenue,Hilton Head Island,SC,29928,32.1472253,-80.75550241
Bank of America,Rice Creek Village,Full Service Brick and Mortar Office,4601 Hard Scrabble Road,Columbia,SC,29229,34.152084,-80.912268
Bank of America,Savannah Highway,Full Service Brick and Mortar Office,901 Savannah Highway,Charleston,SC,29407,32.782041,-79.9890435
Bank of America,Spartanburg Main,Full Service Brick and Mortar Office,295 East Main Street,Spartanburg,SC,29302,34.95096192,-81.92531265
Bank of America,Summerville Main,Full Service Brick and Mortar Office,600 North Main St,Summerville,SC,29483,33.02674279,-80.17003194
Bank of America,Sumter Highway,Full Service Brick and Mortar Office,7547 Garners Ferry Road,Columbia,SC,29209,33.96082234,-80.94046954
Bank of America,Sunset Boulevard,Full Service Brick and Mortar Office,2021 Sunset Boulevard,West Columbia,SC,29169,33.998544,-81.0970425
Bank of America,Surfside,Full Service Brick and Mortar Office,1207 Highway 17 North,Myrtle Beach,SC,29575,33.621156,-78.9713235
Bank of America,Sweetgrass,Full Service Brick and Mortar Office,1929 N Highway 17,Mount Pleasant,SC,29464,32.832747,-79.8262065
Bank of America,Tower,Full Service Brick and Mortar Office,1301 Gervais Street,Columbia,SC,29201,34.002711,-81.0315045
Bank of America,Town N' Country,Full Service Brick and Mortar Office,6091 Calhoun Memorial Hwy,Easley,SC,29640,34.82373444,-82.57769963
Bank of America,Trenholm Road,Full Service Brick and Mortar Office,5004 Trenholm Road,Columbia,SC,29206,34.01629432,-80.966325
Bank of America,West Anderson,Full Service Brick and Mortar Office,1499 Pearman Dairy Road,Anderson,SC,29625,34.53123645,-82.69670928
Bank of America,West Martintown Road,Full Service Brick and Mortar Office,441 West Martintown Road,North Augusta,SC,29841,33.509655,-81.972513
Bank of America,Westwood Plaza,Full Service Brick and Mortar Office,1806 Sam Rittenberg Boulevard,Charleston,SC,29407,32.801463,-80.0185005
Bank of America,White Blvd.,Full Service Brick and Mortar Office,1535 John B White Sr Boulevard,Spartanburg,SC,29301,34.92347254,-81.97562833
Bank of America,Woodruff Road,Full Service Brick and Mortar Office,1790 Woodruff Road,Greenville,SC,29607,34.819209,-82.2698325
TD Bank,Aiken Main,Full Service Brick and Mortar Office,142 Chesterfield Street,Aiken,SC,29801,33.56197038,-81.71842871
TD Bank,Anderson Main,Full Service Brick and Mortar Office,129 North Main Street,Anderson,SC,29621,34.504641,-82.6506945
TD Bank,Anderson North,Full Service Brick and Mortar Office,2918 N Main St,Anderson,SC,29621,34.533882,-82.6649505
TD Bank,Anderson South,Full Service Brick and Mortar Office,2808 S Main St,Anderson,SC,29624,34.47837923,-82.6488386
TD Bank,Andrews,Full Service Brick and Mortar Office,201 South Morgan Avenue,Andrews,SC,29510,33.44806947,-79.56209059
TD Bank,Augusta Road,Full Service Brick and Mortar Office,2303 Augusta Street,Greenville,SC,29605,34.822935,-82.390644
TD Bank,Bluffton Hwy 278,Full Service Brick and Mortar Office,1021 Fording Island Road,Bluffton,SC,29910,32.25648657,-80.84925241
TD Bank,Buckwalter,Full Service Brick and Mortar Office,110 Buckwalter Parkway,Bluffton,SC,29910,32.28322939,-80.91081341
TD Bank,"Camden, Sc",Full Service Brick and Mortar Office,315 East Dekalb Street,Camden,SC,29020,34.24670358,-80.60250691
TD Bank,Carolina Forest,Full Service Brick and Mortar Office,4100 Postal Way,Myrtle Beach,SC,29579,33.75960189,-78.96021645
TD Bank,Chapin,Full Service Brick and Mortar Office,260 Columbia Avenue,Chapin,SC,29036,34.16767628,-81.34223271
TD Bank,Charleston Main,Full Service Brick and Mortar Office,40 Calhoun Street,Charleston,SC,29401,32.789259,-79.929054
TD Bank,Citadel Mall,Full Service Brick and Mortar Office,852 Orleans Road,Charleston,SC,29407,32.795568,-80.027595
TD Bank,Columbia Main,Full Service Brick and Mortar Office,1501 Main Street,Columbia,SC,29201,34.005393,-81.0364635
TD Bank,Columbia Northeast,Full Service Brick and Mortar Office,10000 Two Notch Road,Columbia,SC,29223,34.111656,-80.8943805
TD Bank,Conway,Full Service Brick and Mortar Office,1500 3rd Avenue,Conway,SC,29526,33.831837,-79.053885
TD Bank,Corley Mill Road,Full Service Brick and Mortar Office,4320 Sunset Blvd,Lexington,SC,29072,34.01433,-81.1529505
TD Bank,Easley,Full Service Brick and Mortar Office,200 South Pendleton Street,Easley,SC,29640,34.828281,-82.603377
TD Bank,East Bay Drive Thru,Limited Service Facility Office,586 East Bay Street,Charleston,SC,29403,32.792499,-79.931169
TD Bank,Fairview Road,Full Service Brick and Mortar Office,640 Fairview Road,Simpsonville,SC,29680,34.71215215,-82.25642634
TD Bank,Five Points,Full Service Brick and Mortar Office,2006 Devine Street,Columbia,SC,29205,33.99854047,-81.01699181
TD Bank,Forest Drive,Full Service Brick and Mortar Office,4875 Forest Drive,Columbia,SC,29206,34.01914943,-80.96253657
TD Bank,Gateway,Full Service Brick and Mortar Office,8850 Farrow Road,Columbia,SC,29203,34.10576425,-80.95302769
TD Bank,Georgetown Main,Full Service Brick and Mortar Office,1031 Front Street,Georgetown,SC,29440,33.36887819,-79.28691802
TD Bank,Greenville Main,Full Service Brick and Mortar Office,102 South Main Street,Greenville,SC,29601,34.84939565,-82.39965179
TD Bank,Greer,Full Service Brick and Mortar Office,516 West Wade Hampton Blvd,Greer,SC,29650,34.949016,-82.2396015
TD Bank,Haywood Road,Full Service Brick and Mortar Office,917 Haywood Road,Greenville,SC,29615,34.856928,-82.335879
TD Bank,Hilton Head Main,Full Service Brick and Mortar Office,62 New Orleans Road,Hilton Head Island,SC,29928,32.15451464,-80.76033856
TD Bank,Irmo,Full Service Brick and Mortar Office,1265 Lake Murray Blvd,Irmo,SC,29063,34.085979,-81.1830015
TD Bank,James Island,Full Service Brick and Mortar Office,504 Folly Road,Charleston,SC,29412,32.754564,-79.971867
TD Bank,Lake City,Full Service Brick and Mortar Office,133 West Main Street,Lake City,SC,29560,33.87377841,-79.75578923
TD Bank,"Lexington,sc",Full Service Brick and Mortar Office,575 Columbia Avenue,Lexington,SC,29072,33.98906806,-81.23652998
TD Bank,Little River,Full Service Brick and Mortar Office,1390 Us 17 North,Little River,SC,29566,33.87329663,-78.6216276
TD Bank,Marion,Full Service Brick and Mortar Office,307 North Main Street,Marion,SC,29571,34.18108906,-79.40024154
TD Bank,Mauldin,Full Service Brick and Mortar Office,305 New Neeley Ferry Road,Mauldin,SC,29662,34.77248844,-82.30368292
TD Bank,Mount Pleasant,Full Service Brick and Mortar Office,1021 Anna Knapp Boulevard,Mount Pleasant,SC,29464,32.812821,-79.8650595
TD Bank,Murrells Inlet,Full Service Brick and Mortar Office,3205 S Highway 17,Murrells Inlet,SC,29576,33.578325,-79.0220295
TD Bank,Myrtle Beach Main,Full Service Brick and Mortar Office,2003 N Oak St,Myrtle Beach,SC,29577,33.70388333,-78.87489305
TD Bank,Newberry Office,Full Service Brick and Mortar Office,2633 Winnsboro Road,Newberry,SC,29108,34.28306407,-81.59865355
TD Bank,North Harper,Full Service Brick and Mortar Office,508 North Harper Street,Laurens,SC,29360,34.50596874,-82.00903928
TD Bank,Parkway,Full Service Brick and Mortar Office,401 William Hilton Parkway,Hilton Head Island,SC,29926,32.216823,-80.7077385
TD Bank,Pickens,Full Service Brick and Mortar Office,333 East Main Street,Pickens,SC,29671,34.884855,-82.705968
TD Bank,Plantation Point,Full Service Brick and Mortar Office,1320 38th Avenue North,Myrtle Beach,SC,29577,33.727158,-78.868332
TD Bank,Rock Hill Main,Full Service Brick and Mortar Office,331 East Main Street,Rock Hill,SC,29730,34.92341887,-81.02317717
TD Bank,Seneca,Full Service Brick and Mortar Office,104 Mill Road,Seneca,SC,29672,34.70092388,-82.9387758
TD Bank,Shiland,Full Service Brick and Mortar Office,2609 Mills Park Drive,Rock Hill,SC,29732,34.97698507,-81.02357541
TD Bank,South Broad/Clinton,Full Service Brick and Mortar Office,819 South Broad Street,Clinton,SC,29325,34.46061287,-81.87845917
TD Bank,South Florence,Full Service Brick and Mortar Office,684 Pamplico Highway,Florence,SC,29505,34.16145317,-79.75672486
TD Bank,Spartanburg,Full Service Brick and Mortar Office,340 East Main Street,Spartanburg,SC,29302,34.95139711,-81.92358487
TD Bank,Summerville,Full Service Brick and Mortar Office,1900 Old Trolley Road,Summerville,SC,29485,32.95572046,-80.16581296
TD Bank,"Summit, Sc",Full Service Brick and Mortar Office,5041 Calhoun Memorial Highway,Easley,SC,29640,34.82488721,-82.55239278
TD Bank,Sumter Highway,Full Service Brick and Mortar Office,7389 Garners Ferry Road,Columbia,SC,29209,33.969024,-80.947359
TD Bank,Surfside Beach,Full Service Brick and Mortar Office,300 Highway 17 North,Myrtle Beach,SC,29575,33.614532,-78.979932
TD Bank,Swansea,Full Service Brick and Mortar Office,200 South Brecon Avenue,Swansea,SC,29160,33.73748493,-81.10159146
TD Bank,Tega Cay,Full Service Brick and Mortar Office,100 Stone Village Drive,Fort Mill,SC,29708,35.05743,-80.992476
TD Bank,Thornblade,Full Service Brick and Mortar Office,6 Elmshorn Drive,Greer,SC,29650,34.86815365,-82.25594226
TD Bank,Travelers Rest,Full Service Brick and Mortar Office,6514-B State Park Road,Travelers Rest,SC,29690,34.96444237,-82.43308417
TD Bank,Usc Bluffton,Full Service Brick and Mortar Office,13 University Parkway,Okatie,SC,29909,32.30681564,-80.97741922
TD Bank,Wade Hampton,Full Service Brick and Mortar Office,1450 Wade Hampton Boulevard,Greenville,SC,29609,34.872291,-82.370007
TD Bank,Woodruff Road,Full Service Brick and Mortar Office,1216 Woodruff Road,Greenville,SC,29607,34.82217243,-82.28707375
Woodforest National Bank,8003 West Columbia South Carolina Wa,Full Service Retail Office,2401 Augusta Road,West Columbia,SC,29169,33.980292,-81.0997875
Woodforest National Bank,8005 Columbia South Carolina Walmart,Full Service Retail Office,5420 Forest Drive,Columbia,SC,29206,34.021368,-80.9523
Woodforest National Bank,8006 Aiken,Full Service Retail Office,2035 Whiskey Road,Aiken,SC,29803,33.518214,-81.7196265
Woodforest National Bank,8007 Greenville,Full Service Retail Office,1451 Woodruff Road,Greenville,SC,29607,34.82170905,-82.28507446
Woodforest National Bank,8008 Wade Hampton Bouldvard Walmart,Full Service Retail Office,3027 Wade Hampton Blvd.,Taylors,SC,29687,34.908678,-82.3322205
Woodforest National Bank,8009 Simpsonville South Carolina Wal,Full Service Retail Office,3950 Grandview Drive,Simpsonville,SC,29680,34.71192,-82.2519585
Woodforest National Bank,8010 Anderson South Carolina Walmart,Full Service Retail Office,3812 Liberty Highway,Anderson,SC,29621,34.55409185,-82.6802889
Woodforest National Bank,8011 Anderson South Carolina,Full Service Retail Office,651 Highway 28 Bypass,Anderson,SC,29624,34.488198,-82.6776855
Woodforest National Bank,8012 Seneca,Full Service Retail Office,1636 Sandifer Blvd.,Seneca,SC,29678,34.689591,-82.9983465
Woodforest National Bank,8014 Greenwood South Carolina Walmar,Full Service Retail Office,508 Bypass 72 Nw,Greenwood,SC,29649,34.20592809,-82.19128428
Woodforest National Bank,8015 Beaufort South Carolina Walmart,Full Service Retail Office,350 Robert Smalls Parkway,Beaufort,SC,29906,32.42556,-80.734203
Woodforest National Bank,8016 Moncks Corner South Carolina Wa,Full Service Retail Office,511 North Highway 52,Moncks Corner,SC,29461,33.210828,-79.9855335
Woodforest National Bank,8017 Walterboro,Full Service Retail Office,2110 Bells Highway,Walterboro,SC,29488,32.93245918,-80.69450445
Woodforest National Bank,8018 Gaffney,Full Service Retail Office,165 Walton Drive,Gaffney,SC,29341,35.08907812,-81.66327817
Woodforest National Bank,8019 Spartanburg South Carolina Walm,Full Service Retail Office,2151 East Main Street,Spartanburg,SC,29307,34.97534605,-81.87899389
Woodforest National Bank,8021 Aiken South Carolina Walmart Br,Full Service Retail Office,3583 Richland Avenue West,Aiken,SC,29801,33.56369967,-81.76605416
Woodforest National Bank,8024 Conway,Full Service Retail Office,151 Middle Ridge Avenue,Conway,SC,29526,33.778718,-78.98796123
Woodforest National Bank,8025 Marion South Carolina Wal-Mart,Full Service Retail Office,305 Commerce Drive,Mullins,SC,29574,34.18347675,-79.34414385
Woodforest National Bank,8026 Dillion South Carolina Walmart,Full Service Retail Office,805 Enterprise Road,Dillon,SC,29536,34.43479532,-79.37661429
Woodforest National Bank,8029 Laurens South Carolina Walmart,Full Service Retail Office,922 East Main Street,Laurens,SC,29360,34.49294495,-81.98222721
Woodforest National Bank,8030 Union South Carolina Walmart Br,Full Service Retail Office,513 N. Duncan Bypass,Union,SC,29379,34.72726262,-81.63904493
Woodforest National Bank,8051 Columbia South Carolina Walmart,Full Service Retail Office,360 Harbison Blvd.,Columbia,SC,29212,34.073901,-81.151749
Woodforest National Bank,8168 Rock Hill South Carolina Walmar,Full Service Retail Office,4875 Old York Road,Rock Hill,SC,29732,34.97931,-81.0898065
Woodforest National Bank,8193 Lancaster South Carolina Walmar,Full Service Retail Office,805 Hwy 9 Bypass West,Lancaster,SC,29720,34.7358424,-80.78406951
Woodforest National Bank,8194 Columbia Garners Ferry South Ca,Full Service Retail Office,7520 Garners Ferry Road,Columbia,SC,29209,33.964389,-80.9390025
Woodforest National Bank,8201 York South Carolina Walmart Bra,Full Service Retail Office,970 East Liberty Street,York,SC,29745,34.983504,-81.2131245
Woodforest National Bank,8204 North Charleston South Carolina,Full Service Retail Office,4920 Centre Pointe Drive,North Charleston,SC,29418,32.877594,-80.017695
Woodforest National Bank,8214 White Horse Road Walmart,Full Service Retail Office,6134 White Horse Road,Greenville,SC,29611,34.856937,-82.453806
Woodforest National Bank,8267 Charleston (Walmart) - Sc - Bra,Full Service Retail Office,3951 W. Ashley Circle,Charleston,SC,29414,32.821686,-80.081424
Woodforest National Bank,8268 Sc Lexington,Full Service Retail Office,5556 Sunset Blvd,Lexington,SC,29072,33.997536,-81.2250675
Woodforest National Bank,8273 Sc Greer Wal Mart,Full Service Retail Office,14055 East Wade Hampton Boulevard,Greer,SC,29651,34.94730812,-82.20705439
Woodforest National Bank,Boiling Springs Wal Mart,Full Service Retail Office,4000 Highway 9,Boiling Springs,SC,29316,35.04965369,-81.98636909
Woodforest National Bank,Central,Full Service Retail Office,1286 Eighteen Mile Road,Central,SC,29630,34.705665,-82.762218
Woodforest National Bank,Cheraw,Full Service Retail Office,1040 Chesterfield Highway,Cheraw,SC,29520,34.69927288,-79.93259506
Woodforest National Bank,Columbia (Walmart) - Sc -branch,Full Service Brick and Mortar Office,1326 Bush River Rd,Columbia,SC,29210,34.029045,-81.1083465
Woodforest National Bank,Columbia,Full Service Retail Office,10060 Two Notch Road,Columbia,SC,29223,34.110153,-80.8865415
Woodforest National Bank,Easely Walmart,Full Service Brick and Mortar Office,115 Rolling Hills Cir,Easley,SC,29640,34.828542,-82.5495435
Woodforest National Bank,Goose Creek (Walmart) - Sc -,Full Service Brick and Mortar Office,605 Saint James Ave.,Goose Creek,SC,29445,33.03387,-80.0642025
Woodforest National Bank,Greer (Walmart) - Sc -,Full Service Brick and Mortar Office,14055 E Wade Hampton Blvd,Greer,SC,29651,34.94730812,-82.20705439
Woodforest National Bank,North Charleston Walmart,Full Service Brick and Mortar Office,7400 Rivers Ave,Charleston,SC,29406,32.939604,-80.0384985
Woodforest National Bank,Tega City,Full Service Retail Office,1151 Stonecrest Blvd.,Fort Mill,SC,29708,35.046189,-80.9935875
Woodforest National Bank,Travelers Rest (Walmart) - Sc - Bran,Full Service Brick and Mortar Office,9 Benton Rd.,Travelers Rest,SC,29690,34.960401,-82.430892
Synovus Bank,Anderson,Full Service Brick and Mortar Office,432 North Main Street,Anderson,SC,29621,34.507125,-82.6505685
Synovus Bank,Bishop Gadsden,Limited Service Retail Office,1873 Camp Road,Charleston,SC,29412,32.734782,-79.9767405
Synovus Bank,Bishop Gadsden,Limited Service Facility Office,1873 Camp Road,Charleston,SC,29412,32.734782,-79.9767405
Synovus Bank,Bishopville,Full Service Brick and Mortar Office,200 East Church Street,Bishopville,SC,29010,34.2166235,-80.24684013
Synovus Bank,Bluffton,Full Service Brick and Mortar Office,3 Belfair Village Dr.,Bluffton,SC,29910,32.26836238,-80.86037859
Synovus Bank,Broad River,Full Service Brick and Mortar Office,1025 Broad River Road,Columbia,SC,29210,34.025697,-81.0820125
Synovus Bank,Camden,Full Service Brick and Mortar Office,501 East Dekalb Street,Camden,SC,29020,34.2465006,-80.60530919
Synovus Bank,Cayce,Full Service Brick and Mortar Office,1245 Knox Abbott Drive,Cayce,SC,29033,33.97927756,-81.07074957
Synovus Bank,Charles Towne Square,Full Service Brick and Mortar Office,2701 Mall Drive,Charleston,SC,29406,32.87751548,-80.01376921
Synovus Bank,Columbia,Full Service Brick and Mortar Office,1221 Main Street,Columbia,SC,29201,34.00210665,-81.03396185
Synovus Bank,Daniel Island,Full Service Brick and Mortar Office,230 Seven Farms Drive,Charleston,SC,29492,32.860575,-79.9077195
Synovus Bank,Devine Street,Full Service Brick and Mortar Office,2401 Devine Street,Columbia,SC,29205,33.998931,-81.010323
Synovus Bank,Florence,Full Service Brick and Mortar Office,600 West Palmetto Street,Florence,SC,29501,34.19320129,-79.77710264
Synovus Bank,Founders Centre,Full Service Brick and Mortar Office,2411 Oak Street,Myrtle Beach,SC,29577,33.7073459,-78.87144571
Synovus Bank,Gamecock,Full Service Brick and Mortar Office,1311 Pendleton Street,Columbia,SC,29201,33.99912951,-81.03024224
Synovus Bank,Goose Creek,Full Service Brick and Mortar Office,305 Goose Creek Boulevard North,Goose Creek,SC,29445,33.00527942,-80.03775258
Synovus Bank,Greenville Main,Full Service Brick and Mortar Office,201 East Mcbee Avenue,Greenville,SC,29601,34.849161,-82.3971555
Synovus Bank,Hilton Head Island,Full Service Brick and Mortar Office,210 Central Avenue,Hilton Head Island,SC,29926,32.21337704,-80.72585205
Synovus Bank,Irmo,Full Service Brick and Mortar Office,1363 Lake Murray Boulevard,Irmo,SC,29063,34.08524334,-81.18525311
Synovus Bank,James Island,Full Service Brick and Mortar Office,337 Folly Road,Charleston,SC,29412,32.759028,-79.9743285
Synovus Bank,Lexington,Full Service Brick and Mortar Office,5456 Sunset Boulevard,Lexington,SC,29072,33.99867983,-81.21735979
Synovus Bank,Loris,Full Service Brick and Mortar Office,3650 Main Street,Loris,SC,29569,34.057557,-78.8944455
Synovus Bank,Lower Richland,Full Service Brick and Mortar Office,7851 Garners Ferry Road,Columbia,SC,29209,33.954561,-80.9261775
Synovus Bank,Manning,Full Service Brick and Mortar Office,111 West Boyce Street,Manning,SC,29102,33.69527153,-80.21498833
Synovus Bank,Meeting Street,Full Service Brick and Mortar Office,158 Meeting Street,Charleston,SC,29401,32.77926,-79.9312005
Synovus Bank,Messenger Service,Limited Service Messenger Office,201 East Mcbee Avenue,Greenville,SC,29601,34.849161,-82.3971555
Synovus Bank,Mt. Pleasant North,Full Service Brick and Mortar Office,1470 North Highway 17,Mount Pleasant,SC,29464,32.816844,-79.8470145
Synovus Bank,North Myrtle Beach,Full Service Brick and Mortar Office,780 Main Street,North Myrtle Beach,SC,29582,33.82740131,-78.67880546
Synovus Bank,Palmetto Plaza,Full Service Brick and Mortar Office,497 North Guignard Drive,Sumter,SC,29150,33.93269267,-80.3691129
Synovus Bank,Pinewood Road,Full Service Brick and Mortar Office,481 Pinewood Road,Sumter,SC,29154,33.90371474,-80.37926473
Synovus Bank,Reidville Road,Full Service Brick and Mortar Office,2660 Reidville Road,Spartanburg,SC,29301,34.91851726,-81.99983845
Synovus Bank,Sandhills,Full Service Brick and Mortar Office,217 Forum Drive,Columbia,SC,29229,34.13031746,-80.87537296
Synovus Bank,Spartanburg Main,Full Service Brick and Mortar Office,150 East Henry Street,Spartanburg,SC,29306,34.94708233,-81.92890186
Synovus Bank,Summerville Main,Full Service Brick and Mortar Office,616 North Main Street,Summerville,SC,29484,33.02734272,-80.16956502
Synovus Bank,Sumter,Full Service Brick and Mortar Office,One Broad Street,Sumter,SC,29150,33.94550611,-80.52378185
Synovus Bank,Trenholm Plaza,Full Service Brick and Mortar Office,4840 Forest Drive,Columbia,SC,29206,34.01865507,-80.96387894
Synovus Bank,Wade Hampton,Full Service Brick and Mortar Office,2800 Wade Hampton Boulevard,Taylors,SC,29687,34.901001,-82.3354515
Synovus Bank,West Ashley,Full Service Brick and Mortar Office,1870 Sam Rittenberg Boulevard,Charleston,SC,29416,32.799726,-80.0216325
Synovus Bank,Wilson Hall Road,Full Service Brick and Mortar Office,1175 Wilson Hall Road,Sumter,SC,29150,33.95290375,-80.4007331
SunTrust Bank,Augusta Road 711,Full Service Brick and Mortar Office,1715 Augusta Rd,Greenville,SC,29605,34.82794041,-82.39862102
SunTrust Bank,Berea 704,Full Service Brick and Mortar Office,55 Farrs Bridge Rd,Greenville,SC,29617,34.88431588,-82.45810387
SunTrust Bank,Chesnee 734,Full Service Brick and Mortar Office,303 S. Alabama Avenue,Chesnee,SC,29323,35.14533199,-81.86041741
SunTrust Bank,Clemson,Full Service Brick and Mortar Office,1051 Tiger Blvd,Clemson,SC,29631,34.69185127,-82.84029849
SunTrust Bank,Coosaw Creek,Full Service Brick and Mortar Office,8610 Dorchester Rd,North Charleston,SC,29420,32.92058138,-80.11797282
SunTrust Bank,Daniel Island,Full Service Brick and Mortar Office,"162 Seven Farms Drive, Suite 200",Charleston,SC,29492,32.863698,-79.903629
SunTrust Bank,East Bay,Full Service Brick and Mortar Office,276 E Bay St,Charleston,SC,29401,32.783499,-79.9280325
SunTrust Bank,East First Avenue,Full Service Brick and Mortar Office,201 E First Ave,Easley,SC,29640,34.82939992,-82.60077757
SunTrust Bank,Goose Creek,Full Service Brick and Mortar Office,539 Saint James Ave,Goose Creek,SC,29445,33.032682,-80.060958
SunTrust Bank,Greenville Highway,Full Service Brick and Mortar Office,7801 Warren H. Abernathy Highway,Spartanburg,SC,29301,34.93557355,-82.00270947
SunTrust Bank,Greer,Full Service Brick and Mortar Office,655 W Wade Hampton Blvd,Greer,SC,29650,34.946613,-82.243602
SunTrust Bank,Hillcrest 735,Full Service Brick and Mortar Office,1742 E. Main St,Spartanburg,SC,29307,34.96544499,-81.89685255
SunTrust Bank,Indigo Run,Full Service Brick and Mortar Office,One Lafayette Place,Hilton Head Island,SC,29926,32.21318556,-80.72121282
SunTrust Bank,Inman 731,Full Service Brick and Mortar Office,24 S Main St,Inman,SC,29349,35.04614089,-82.08939227
SunTrust Bank,Ivy Hall,Full Service Brick and Mortar Office,3072 North Highway 17,Mount Pleasant,SC,29466,32.865282,-79.7870115
SunTrust Bank,James Island Bi-Lo,Full Service Retail Office,860 Folly Rd,Charleston,SC,29412,32.736861,-79.965198
SunTrust Bank,Laurens 297,Full Service Brick and Mortar Office,201 West Main Street,Laurens,SC,29360,34.49864461,-82.01629538
SunTrust Bank,Mathis Ferry,Full Service Brick and Mortar Office,404 Johnnie Dodds Blvd,Mount Pleasant,SC,29464,32.804775,-79.891767
SunTrust Bank,Mauldin 707,Full Service Brick and Mortar Office,203 W Butler Rd,Mauldin,SC,29662,34.77669969,-82.3142912
SunTrust Bank,Mcbee Avenue 701,Full Service Brick and Mortar Office,300 East Mcbee Avenue,Greenville,SC,29601,34.848486,-82.397808
SunTrust Bank,North Charleston,Full Service Brick and Mortar Office,2089 Ashley Phosphate Road,Charleston,SC,29406,32.936958,-80.038224
SunTrust Bank,Northtowne 288,Full Service Brick and Mortar Office,3898 Liberty Highway,Anderson,SC,29621,34.55518803,-82.68125611
SunTrust Bank,Pickens 775,Full Service Brick and Mortar Office,210 West Cedar Rock Street,Pickens,SC,29671,34.8818352,-82.70915254
SunTrust Bank,Pleasantburg,Full Service Brick and Mortar Office,201 S Pleasantburg Dr,Greenville,SC,29607,34.840458,-82.363779
SunTrust Bank,Powdersville 778,Full Service Brick and Mortar Office,11001 Anderson Road,Piedmont,SC,29673,34.78422231,-82.48452843
SunTrust Bank,Sam Rittenberg,Full Service Brick and Mortar Office,1923 Sam Rittenberg Boulevard,Charleston,SC,29407,32.797656,-80.0230815
SunTrust Bank,Sea Pines,Full Service Brick and Mortar Office,2 Greenwood Dr,Hilton Head Island,SC,29928,32.15545283,-80.76405565
SunTrust Bank,Seneca 779,Full Service Brick and Mortar Office,1439 Sandifer Blvd,Seneca,SC,29678,34.69198553,-82.98751098
SunTrust Bank,Simpsonville 762,Full Service Brick and Mortar Office,124 Ne Main St,Simpsonville,SC,29681,34.73901,-82.2554235
SunTrust Bank,Southbank,Full Service Brick and Mortar Office,907 N Main St,Anderson,SC,29621,34.51086,-82.6527105
SunTrust Bank,Spartanburg Main Office,Full Service Brick and Mortar Office,350 E. Henry St.,Spartanburg,SC,29302,34.94785005,-81.92103715
SunTrust Bank,Summerville,Full Service Brick and Mortar Office,741 N Main St,Summerville,SC,29483,33.02847164,-80.16862603
SunTrust Bank,Sun City,Full Service Brick and Mortar Office,21 William Pope Dr,Okatie,SC,29909,32.297332,-80.94915366
SunTrust Bank,Wade Hampton 705,Full Service Brick and Mortar Office,2111 Wade Hampton Blvd,Greenville,SC,29615,34.88545487,-82.35351966
SunTrust Bank,Westbury Park,Full Service Brick and Mortar Office,2 Westbury Parkway,Bluffton,SC,29910,32.275422,-80.871804
SunTrust Bank,Williamston 776,Full Service Brick and Mortar Office,1 N Hamilton St,Williamston,SC,29697,34.6225881,-82.47115076
SunTrust Bank,Woodruff Road 716,Full Service Brick and Mortar Office,1610 Woodruff Road,Greenville,SC,29607,34.819245,-82.277046
United Community Bank,Anderson,Full Service Brick and Mortar Office,815 North Main Street,Anderson,SC,29621,34.51050365,-82.65186152
United Community Bank,Augusta Road,Full Service Brick and Mortar Office,1400 Augusta Street,Greenville,SC,29605,34.83045642,-82.40197621
United Community Bank,Bluffton,Full Service Brick and Mortar Office,52 Burnt Church Road,Bluffton,SC,29910,32.24772893,-80.84488504
United Community Bank,Boiling Springs,Full Service Brick and Mortar Office,3995 Sc Highway 9,Boiling Springs,SC,29316,35.05005688,-81.98698815
United Community Bank,Church Street,Full Service Brick and Mortar Office,501 Church Street,Laurens,SC,29360,34.50556345,-82.02276229
United Community Bank,Clinton,Full Service Brick and Mortar Office,101 West Carolina Avenue,Clinton,SC,29325,34.47257708,-81.88117138
United Community Bank,Conway,Full Service Brick and Mortar Office,1627-A Church Street,Conway,SC,29526,33.847101,-79.066449
United Community Bank,Coral Gables Ii,Full Service Brick and Mortar Office,11915 Plaza Drive,Murrells Inlet,SC,29576,33.586713,-79.0261155
United Community Bank,Downtown Conway Office,Full Service Brick and Mortar Office,1300 2nd Avenue,Conway,SC,29526,33.83231581,-79.04914608
United Community Bank,Duncan,Full Service Brick and Mortar Office,108 East Main Street,Duncan,SC,29334,34.93618925,-82.13525881
United Community Bank,Easley,Full Service Brick and Mortar Office,1524 East Main Street,Easley,SC,29640,34.82928,-82.576404
United Community Bank,Fountain Inn,Full Service Brick and Mortar Office,300 North Weston Street,Fountain Inn,SC,29644,34.69609677,-82.20071688
United Community Bank,Gaffney,Full Service Brick and Mortar Office,311 South Limestone Street,Gaffney,SC,29340,35.07016716,-81.65165629
United Community Bank,Greer,Full Service Brick and Mortar Office,809 West Wade Hampton Boulevard,Greer,SC,29650,34.94529811,-82.24911388
United Community Bank,Haywood Road,Full Service Brick and Mortar Office,470 Haywood Road,Greenville,SC,29607,34.8430412,-82.34202108
United Community Bank,Horry County State Bank,Full Service Brick and Mortar Office,5009 Broad Street,Loris,SC,29569,34.061814,-78.8846355
United Community Bank,Inman,Full Service Brick and Mortar Office,11500 Asheville Highway,Inman,SC,29349,35.03979689,-82.08315393
United Community Bank,Laurens,Full Service Brick and Mortar Office,101 West Main Street,Laurens,SC,29360,34.49871256,-82.01524768
United Community Bank,Little River,Full Service Brick and Mortar Office,3187 Highway 9 East,Little River,SC,29566,33.874713,-78.6782835
United Community Bank,Mauldin,Full Service Brick and Mortar Office,401 West Butler Road,Mauldin,SC,29662,34.775388,-82.3168575
United Community Bank,Montague,Full Service Brick and Mortar Office,701 Montague Avenue,Greenwood,SC,29649,34.20543108,-82.17366813
United Community Bank,Myrtle Beach,Full Service Brick and Mortar Office,1701 North Oak Street,Myrtle Beach,SC,29577,33.70126161,-78.8778495
United Community Bank,Myrtle Beach Main Office,Full Service Brick and Mortar Office,1312 Professional Drive,Myrtle Beach,SC,29577,33.73048641,-78.86036575
United Community Bank,Ninety Six,Full Service Brick and Mortar Office,207 North Cambridge,Ninety Six,SC,29666,34.177716,-82.024389
United Community Bank,Ocean Drive,Full Service Brick and Mortar Office,617 Hwy. 17 South,North Myrtle Beach,SC,29582,33.823755,-78.684777
United Community Bank,Pendleton,Full Service Brick and Mortar Office,901 South Mechanic Street,Pendleton,SC,29670,34.63780521,-82.7824893
United Community Bank,Simpsonville,Full Service Brick and Mortar Office,106 West College Street,Simpsonville,SC,29681,34.73884693,-82.25629623
United Community Bank,Spartanburg,Full Service Brick and Mortar Office,449 East Main Street,Spartanburg,SC,29302,34.95230495,-81.92020517
United Community Bank,Summerville,Full Service Brick and Mortar Office,1510 Old Trolley Road,Summerville,SC,29485,32.96925786,-80.16880856
United Community Bank,Tabor City,Full Service Brick and Mortar Office,3210 Highway 701 North Byp,Loris,SC,29569,34.13454891,-78.87605972
United Community Bank,The Palmetto Bank,Full Service Brick and Mortar Office,306 East North Street,Greenville,SC,29601,34.85154024,-82.39515934
United Community Bank,Tidelands Bank,Full Service Brick and Mortar Office,875 Lowcountry Boulevard,Mount Pleasant,SC,29464,32.8086,-79.8801705
United Community Bank,Travelers Rest,Full Service Brick and Mortar Office,570 Roe Center Court,Travelers Rest,SC,29690,34.95884327,-82.43827287
United Community Bank,Ucbi.Com,Full Service Cyber Office,922 E Main St,Laurens,SC,29360,34.49294495,-81.98222721
United Community Bank,West Ashley,Full Service Brick and Mortar Office,946 Orleans Road,Charleston,SC,29407,32.79771,-80.0280675
United Community Bank,Woodruff Road,Full Service Brick and Mortar Office,2101 Woodruff Road,Greenville,SC,29607,34.8201438,-82.25921389
CresCom Bank,16th Avenue,Full Service Brick and Mortar Office,1230 16th Avenue,Conway,SC,29526,33.846183,-79.062507
CresCom Bank,Cane Bay,Full Service Brick and Mortar Office,1724 State Road,Summerville,SC,29483,33.10455173,-80.12710111
CresCom Bank,Cayce Office,Full Service Brick and Mortar Office,1201 Knox Abbott Drive,Cayce,SC,29033,33.97967261,-81.06953613
CresCom Bank,Congaree State Bank,Full Service Brick and Mortar Office,2023 Sunset Boulevard,West Columbia,SC,29169,33.99894266,-81.09591795
CresCom Bank,Conway,Full Service Brick and Mortar Office,2069 East Hwy 501,Conway,SC,29526,33.798357,-79.0026885
CresCom Bank,Crescom Bank,Full Service Brick and Mortar Office,288 Meeting Street,Charleston,SC,29401,32.785056,-79.932933
CresCom Bank,Garden City,Full Service Brick and Mortar Office,2636 Highway 17 South,Murrells Inlet,SC,29576,33.589755,-79.007787
CresCom Bank,Greenville,Full Service Brick and Mortar Office,3695 East North Street,Greenville,SC,29615,34.872984,-82.3297545
CresCom Bank,Greer,Full Service Brick and Mortar Office,601 North Main Street,Greer,SC,29650,34.94716438,-82.22459279
CresCom Bank,Heath Springs,Full Service Brick and Mortar Office,202 North Main Street,Heath Springs,SC,29058,34.5935371,-80.67548509
CresCom Bank,James Island,Full Service Brick and Mortar Office,430 Folly Road,Charleston,SC,29412,32.756661,-79.972659
CresCom Bank,Little River,Full Service Brick and Mortar Office,1180 Hwy 17,Little River,SC,29566,33.87017225,-78.62690451
CresCom Bank,Messenger Service,Limited Service Messenger Office,1111 West Poinsett Street,Greer,SC,29652,34.941609,-82.247625
CresCom Bank,Mount Pleasant,Full Service Brick and Mortar Office,1492 Stuart Engals Boulevard,Mount Pleasant,SC,29464,32.81598,-79.8458445
CresCom Bank,Myrtle,Full Service Brick and Mortar Office,991 38th Avenue North,Myrtle Beach,SC,29577,33.72347562,-78.86574818
CresCom Bank,North Charleston,Full Service Brick and Mortar Office,8485 Dorchester Road,North Charleston,SC,29418,32.91733153,-80.11318598
CresCom Bank,North Myrtle Beach,Full Service Brick and Mortar Office,700 Main Street,North Myrtle Beach,SC,29582,33.82562952,-78.6767892
CresCom Bank,Pawley's Island,Full Service Brick and Mortar Office,13021 Ocean Highway,Pawleys Island,SC,29585,33.47068673,-79.10573518
CresCom Bank,Pleasant Grove,Full Service Brick and Mortar Office,871 S Buncombe Rd,Greer,SC,29650,34.915212,-82.2386025
CresCom Bank,Poinsett,Full Service Brick and Mortar Office,1111 West Poinsett Street,Greer,SC,29650,34.941609,-82.247625
CresCom Bank,Socastee,Full Service Brick and Mortar Office,4506 Socastee Boulevard,Myrtle Beach,SC,29588,33.68484,-78.9880815
CresCom Bank,St. George,Full Service Brick and Mortar Office,5561 West Memorial Blvd,Saint George,SC,29477,33.18728595,-80.57608945
CresCom Bank,Summerville,Full Service Brick and Mortar Office,200 North Cedar Street,Summerville,SC,29483,33.02267028,-80.17545388
CresCom Bank,Taylors,Full Service Brick and Mortar Office,3317 Wade Hampton Boulelvard,Taylors,SC,29687,34.91771027,-82.31560152
CresCom Bank,West Ashley,Full Service Brick and Mortar Office,884 Orleans Road,Charleston,SC,29407,32.797026,-80.027793
Pinnacle Bank,Coleman,Full Service Brick and Mortar Office,602 Coleman Boulevard,Mount Pleasant,SC,29464,32.791257,-79.87437
Pinnacle Bank,Dorchester Road,Full Service Brick and Mortar Office,8420 Dorchester Road,North Charleston,SC,29420,32.91477242,-80.10845593
Pinnacle Bank,Easley,Full Service Brick and Mortar Office,6602 Calhoun Memorial Highway,Easley,SC,29640,34.82151343,-82.58795028
Pinnacle Bank,Folly Road,Full Service Brick and Mortar Office,329 Folly Road,Charleston,SC,29412,32.760063,-79.974873
Pinnacle Bank,Goose Creek,Full Service Brick and Mortar Office,597 Old Mt. Holly Road,Goose Creek,SC,29445,33.03354636,-80.06016667
Pinnacle Bank,Greenville Mcbee Avenue,Full Service Brick and Mortar Office,550 E Mcbee Avenue,Greenville,SC,29601,34.84776417,-82.39320273
Pinnacle Bank,Harbor National Bank,Full Service Brick and Mortar Office,1503 Old Towne Road,Charleston,SC,29407,32.814702,-79.994466
Pinnacle Bank,Hilton Head Wexford,Full Service Brick and Mortar Office,1000 William Hilton Parkway,Hilton Head Island,SC,29928,32.160411,-80.753706
Pinnacle Bank,Laurens Road,Full Service Brick and Mortar Office,2415 Laurens Road,Greenville,SC,29607,34.830828,-82.347741
Pinnacle Bank,Mauldin,Full Service Brick and Mortar Office,787-H East Butler Road,Mauldin,SC,29662,34.80003111,-82.2857483
Pinnacle Bank,Maybank Highway,Full Service Brick and Mortar Office,2753 Maybank Highway,Johns Island,SC,29455,32.744718,-80.036244
Pinnacle Bank,Meeting Street,Full Service Brick and Mortar Office,"134 Meeting Street, Suite 201",Charleston,SC,29401,32.778504,-79.9310835
Pinnacle Bank,Messenger Service,Limited Service Messenger Office,530 Johnnie Dobbs Boulevard,Mount Pleasant,SC,29464,32.806044,-79.887978
Pinnacle Bank,Myrtle Beach Grissom,Full Service Brick and Mortar Office,3751 Robert M. Grissom Parkway Suite 100,Myrtle Beach,SC,29577,33.724008,-78.867234
Pinnacle Bank,North Myrtle Beach,Full Service Brick and Mortar Office,710 Highway 17 North,North Myrtle Beach,SC,29582,33.834258,-78.6715875
Pinnacle Bank,Park West,Full Service Brick and Mortar Office,3305 South Morgan's Point,Mount Pleasant,SC,29466,32.871582,-79.775847
Pinnacle Bank,Pelham Road,Full Service Brick and Mortar Office,3900 Pelham Road,Greenville,SC,29615,34.859097,-82.265382
Pinnacle Bank,Savannah Highway,Full Service Brick and Mortar Office,802 Savannah Highway,Charleston,SC,29407,32.782419,-79.9852635
Pinnacle Bank,Southcoast Community Bank,Full Service Brick and Mortar Office,530 Johnnie Dodds Boulevard,Mount Pleasant,SC,29464,32.806044,-79.887978
Pinnacle Bank,Spartanburg,Full Service Brick and Mortar Office,531 East Main Street,Spartanburg,SC,29302,34.95350405,-81.91804438
Pinnacle Bank,Summerville,Full Service Brick and Mortar Office,203 N. Main Street,Summerville,SC,29483,33.02178739,-80.17380438
Pinnacle Bank,Surfside,Full Service Brick and Mortar Office,3064 Dick Pond Road,Myrtle Beach,SC,29588,33.652656,-78.9845265
First Palmetto Bank,4311 Main Street,Full Service Brick and Mortar Office,4311 Main Street,Loris,SC,29569,34.055118,-78.8868
First Palmetto Bank,48th Avenue,Full Service Brick and Mortar Office,1204 48th Ave N,Myrtle Beach,SC,29578,33.73293976,-78.85924479
First Palmetto Bank,Bethune,Full Service Brick and Mortar Office,300 King Street East,Bethune,SC,29009,34.41527089,-80.34416733
First Palmetto Bank,Bishopville,Full Service Brick and Mortar Office,201 E Church St,Bishopville,SC,29010,34.21645565,-80.24649022
First Palmetto Bank,Darlington,Full Service Brick and Mortar Office,206 Cashua Street,Darlington,SC,29532,34.30470483,-79.86848502
First Palmetto Bank,Dusty Bend,Full Service Brick and Mortar Office,2310 N. Broad Street,Camden,SC,29020,34.27038062,-80.60937481
First Palmetto Bank,First Palmetto Bank,Full Service Brick and Mortar Office,407 Dekalb Street,Camden,SC,29020,34.24658054,-80.60404863
First Palmetto Bank,Forest Drive,Full Service Brick and Mortar Office,3932 Forest Drive,Columbia,SC,29204,34.020108,-80.983215
First Palmetto Bank,Irmo,Full Service Brick and Mortar Office,7327 Saint Andrews Road,Irmo,SC,29063,34.08425377,-81.18263921
First Palmetto Bank,Kershaw,Full Service Brick and Mortar Office,301 North Hampton Street,Kershaw,SC,29067,34.55102162,-80.58348884
First Palmetto Bank,Lancaster,Full Service Brick and Mortar Office,409 N. Main Street,Lancaster,SC,29720,34.72425213,-80.77292261
First Palmetto Bank,Lexington,Full Service Brick and Mortar Office,5321 Sunset Boulevard,Lexington,SC,29072,34.003107,-81.2074095
First Palmetto Bank,Little River,Full Service Brick and Mortar Office,1376 Highway 17,Little River,SC,29566,33.87321,-78.6211155
First Palmetto Bank,Lugoff,Full Service Brick and Mortar Office,788 Highway 1 South,Lugoff,SC,29078,34.23112658,-80.67088171
First Palmetto Bank,Manning,Full Service Brick and Mortar Office,111 N Brooks St,Manning,SC,29102,33.69751228,-80.21064246
First Palmetto Bank,Mount Pleasant,Full Service Brick and Mortar Office,"1636 Highway 17, North",Mount Pleasant,SC,29464,32.822397,-79.84143
First Palmetto Bank,North Myrtle Beach,Full Service Brick and Mortar Office,501 Highway 17,North Myrtle Beach,SC,29582,33.615999,-78.9770385
First Palmetto Bank,Pageland,Full Service Brick and Mortar Office,201 North Pearl Street,Pageland,SC,29728,34.7733443,-80.39198026
First Palmetto Bank,Pontiac,Full Service Brick and Mortar Office,10540 Two Notch Road,Elgin,SC,29045,34.12798916,-80.85747587
First Palmetto Bank,Summerville,Full Service Brick and Mortar Office,211 N. Main Street,Summerville,SC,29483,33.02261222,-80.17317753
First Palmetto Bank,Surfside Beach,Full Service Brick and Mortar Office,2293 Glenn's Bay Road,Myrtle Beach,SC,29575,33.62007488,-79.00282123
First Palmetto Bank,West Ashley,Full Service Brick and Mortar Office,5 Sumar Street,Charleston,SC,29407,32.815161,-79.9942095
Anderson Brothers Bank,Anderson Brothers Bank,Full Service Brick and Mortar Office,101 North Main Street,Mullins,SC,29574,34.20594237,-79.2546639
Anderson Brothers Bank,Aynor,Full Service Brick and Mortar Office,Eighth Avenue,Aynor,SC,29511,33.99847552,-79.20175909
Anderson Brothers Bank,Consumer Banking Center,Full Service Brick and Mortar Office,102 North Main Street,Mullins,SC,29574,34.20575453,-79.25454767
Anderson Brothers Bank,Conway Church Street,Full Service Brick and Mortar Office,2651 Church Street,Conway,SC,29526,33.858261,-79.087725
Anderson Brothers Bank,Conway Main Street,Full Service Brick and Mortar Office,500 Main Street,Conway,SC,29528,33.83767935,-79.04767002
Anderson Brothers Bank,Dillon,Full Service Brick and Mortar Office,1006 Highway 301 North,Dillon,SC,29536,34.42452995,-79.36506952
Anderson Brothers Bank,Florence 2nd Loop,Full Service Brick and Mortar Office,501 W Second Loop Road,Florence,SC,29501,34.16711176,-79.77152574
Anderson Brothers Bank,Florence Cashua Street,Full Service Brick and Mortar Office,2985 South Cashua Street,Florence,SC,29501,34.166448,-79.8270615
Anderson Brothers Bank,Georgetown,Full Service Brick and Mortar Office,706 North Fraser Street,Georgetown,SC,29440,33.38035705,-79.2875268
Anderson Brothers Bank,Hemingway Main,Full Service Brick and Mortar Office,201 South Main Street,Hemingway,SC,29554,33.75200327,-79.44745951
Anderson Brothers Bank,Johnsonville,Full Service Brick and Mortar Office,Georgetown Road And Pine Street,Johnsonville,SC,29555,33.820578,-79.4428425
Anderson Brothers Bank,Kingstree,Full Service Brick and Mortar Office,500 East Main Street,Kingstree,SC,29556,33.66564009,-79.82247839
Anderson Brothers Bank,Latta,Full Service Brick and Mortar Office,100 E. Main Street,Latta,SC,29565,34.33771814,-79.43232408
Anderson Brothers Bank,Longs,Full Service Brick and Mortar Office,71 Cloverleaf Drive,Longs,SC,29568,33.89123666,-78.69211642
Anderson Brothers Bank,Loris 701,Full Service Brick and Mortar Office,302 Highway 701 North,Loris,SC,29569,34.065513,-78.8810805
Anderson Brothers Bank,Loris Main Street,Full Service Brick and Mortar Office,4230 East Main Street,Loris,SC,29569,34.055046,-78.888249
Anderson Brothers Bank,Marion Hwy 76,Full Service Brick and Mortar Office,2500 East Hwy 76,Marion,SC,29571,34.18376232,-79.36765027
Anderson Brothers Bank,Marion Main Street,Full Service Brick and Mortar Office,728 North Main St.,Marion,SC,29571,34.18504327,-79.39985553
Anderson Brothers Bank,Market Common,Full Service Brick and Mortar Office,2711 Anges Ln,Myrtle Beach,SC,29577,33.774615,-78.949161
Anderson Brothers Bank,Mcintyre,Full Service Brick and Mortar Office,232 West Mcintyre St,Mullins,SC,29574,34.19966025,-79.25674369
Anderson Brothers Bank,Myrtle Beach Grissom,Full Service Brick and Mortar Office,1010 London Street,Myrtle Beach,SC,29577,33.72577813,-78.86413395
Anderson Brothers Bank,North Myrtle Beach,Full Service Brick and Mortar Office,1799 Highway 17 North,North Myrtle Beach,SC,29597,33.845598,-78.6557205
Regions Bank,Barnwell,Full Service Brick and Mortar Office,1680 Jackson Street,Barnwell,SC,29812,33.24521485,-81.36655131
Regions Bank,Bluffton Parkway,Full Service Brick and Mortar Office,56 Persimmon Street,Bluffton,SC,29910,32.25819683,-80.86397176
Regions Bank,Burton,Full Service Brick and Mortar Office,69 Robert Small Parkway,Beaufort,SC,29906,32.436324,-80.7083055
Regions Bank,Charleston Meeting St Main,Full Service Brick and Mortar Office,170 Meeting Street,Charleston,SC,29401,32.779656,-79.9312545
Regions Bank,Clearwater Sc,Full Service Brick and Mortar Office,4385 Jefferson Davis Highway,Clearwater,SC,29822,33.503634,-81.8988435
Regions Bank,Clemson Blvd,Full Service Brick and Mortar Office,3404 Clemson Blvd,Anderson,SC,29621,34.546428,-82.6702065
Regions Bank,Gervais St Main,Full Service Brick and Mortar Office,1010 Gervais Street,Columbia,SC,29201,33.999921,-81.036198
Regions Bank,Greenville Sc Main,Full Service Brick and Mortar Office,290 S. Pleasantburg Drive,Greenville,SC,29607,34.8367138,-82.36652633
Regions Bank,Hampton Sc,Full Service Brick and Mortar Office,403 First Street E.,Hampton,SC,29924,32.86616822,-81.10824378
Regions Bank,Harbison,Full Service Brick and Mortar Office,149 Columbiana Drive,Columbia,SC,29212,34.076151,-81.1591245
Regions Bank,Hilton Head Indigo Run,Full Service Brick and Mortar Office,2 Lafayette Place,Hilton Head Island,SC,29926,32.21352533,-80.72069907
Regions Bank,Johnston,Full Service Brick and Mortar Office,400 Lee Street,Johnston,SC,29832,33.83081713,-81.79858857
Regions Bank,Lady's Island,Full Service Brick and Mortar Office,146 Sea Island Parkway,Beaufort,SC,29907,32.4145697,-80.65185269
Regions Bank,Mount Pleasant,Full Service Brick and Mortar Office,1210 Ben Sawyer Boulevard,Mount Pleasant,SC,29464,32.794767,-79.8613065
Regions Bank,Mt Pleasant Towne Centre,Full Service Brick and Mortar Office,1200 Two Island Court Suite B,Mount Pleasant,SC,29466,32.831055,-79.8231465
Regions Bank,North Augusta,Full Service Brick and Mortar Office,432 West Avenue,North Augusta,SC,29841,33.49374762,-81.97267402
Regions Bank,Ridgeland,Full Service Brick and Mortar Office,11004 N. Jacob Smart Boulevard,Ridgeland,SC,29936,32.48349429,-80.97897324
Regions Bank,Simpsonville,Full Service Brick and Mortar Office,2565 Woodruff Road,Simpsonville,SC,29681,34.80715099,-82.23345133
Regions Bank,South Aiken,Full Service Brick and Mortar Office,1799 Whiskey Road,Aiken,SC,29803,33.523911,-81.7202385
Regions Bank,Spartanburg Main,Full Service Brick and Mortar Office,235 S. Pine Street,Spartanburg,SC,29302,34.94915562,-81.91696445
Regions Bank,Summerville Sc,Full Service Brick and Mortar Office,201 S. Main Street,Summerville,SC,29483,33.01861354,-80.17598368
Regions Bank,Washington St,Full Service Brick and Mortar Office,101 E. Washington Street,Greenville,SC,29601,34.850718,-82.39779
The Citizens Bank,Camden,Full Service Brick and Mortar Office,703 West Dekalb Street,Camden,SC,29020,34.24618958,-80.60966985
The Citizens Bank,Florence #1,Full Service Brick and Mortar Office,702 Pamplico Highway,Florence,SC,29505,34.16002619,-79.75537943
The Citizens Bank,Florence #2,Full Service Brick and Mortar Office,311 Revell Drive,Florence,SC,29501,34.18921991,-79.79970495
The Citizens Bank,Georgetown,Full Service Brick and Mortar Office,1510 Exhange Street,Georgetown,SC,29440,33.37483339,-79.28997232
The Citizens Bank,Hartsville Br,Full Service Brick and Mortar Office,206 South Fifth Street,Hartsville,SC,29550,34.37284199,-80.07255758
The Citizens Bank,Johnsonville,Full Service Brick and Mortar Office,127 South Georgetown Highway,Johnsonville,SC,29555,33.81853557,-79.44201446
The Citizens Bank,Kingstree,Full Service Brick and Mortar Office,5 North Williamsburg County Highway,Kingstree,SC,29556,33.68371321,-79.82364824
The Citizens Bank,Lake City,Full Service Brick and Mortar Office,209 East Main Street,Lake City,SC,29560,33.871122,-79.7526855
The Citizens Bank,Loan Production Office,Limited Service Loan Production Office,125 South Academy Street,Kingstree,SC,29556,33.66353459,-79.83011103
The Citizens Bank,Lynchburg,Full Service Brick and Mortar Office,11 Willow Grove Road,Lynchburg,SC,29080,34.05984231,-80.07177961
The Citizens Bank,Mcbee,Full Service Brick and Mortar Office,7 North Seventh Street,Mc Bee,SC,29101,34.46882847,-80.25609891
The Citizens Bank,Messenger Service,Limited Service Messenger Office,124 Main Street,Olanta,SC,29114,33.9361405,-79.93411279
The Citizens Bank,Murrells Inlet,Full Service Brick and Mortar Office,3796 Hwy 17 Bypass,Murrells Inlet,SC,29576,33.56558224,-79.03618291
The Citizens Bank,Pamplico,Full Service Brick and Mortar Office,705 South Walnut Street,Pamplico,SC,29583,33.988581,-79.5665115
The Citizens Bank,Pawleys Island,Full Service Brick and Mortar Office,10769 Ocean Highway,Pawleys Island,SC,29585,33.4421985,-79.12462391
The Citizens Bank,Scranton,Full Service Brick and Mortar Office,1812 Highway 52,Scranton,SC,29591,33.916059,-79.7454405
The Citizens Bank,St. George,Full Service Brick and Mortar Office,5730 W. Memorial Blvd.,Saint George,SC,29477,33.19099892,-80.58483115
The Citizens Bank,Sumter,Full Service Brick and Mortar Office,1225 Alice Drive,Sumter,SC,29151,33.951537,-80.386695
The Citizens Bank,The Citizens Bank,Full Service Brick and Mortar Office,124 East Main Street,Olanta,SC,29114,33.9361405,-79.93411279
The Citizens Bank,Timmonsville,Full Service Brick and Mortar Office,4700 West Palmetto Street,Timmonsville,SC,29161,34.146063,-79.905744
The Citizens Bank,Turbeville,Full Service Brick and Mortar Office,1718 Main Street,Turbeville,SC,29162,33.89338993,-80.01661492
First Community Bank,Aiken,Full Service Brick and Mortar Office,407 Silver Bluff Road Sw,Aiken,SC,29803,33.52075405,-81.72640878
First Community Bank,Berea,Full Service Brick and Mortar Office,45 Farrs Bridge Road,Greenville,SC,29617,34.88396651,-82.45752831
First Community Bank,Blythewood,Full Service Brick and Mortar Office,201 Main Street,Blythewood,SC,29016,34.214661,-80.9743455
First Community Bank,Camden,Full Service Brick and Mortar Office,631 W. Dekalb Street,Camden,SC,29020,34.24625451,-80.60862822
First Community Bank,Cayce/West Columbia,Full Service Brick and Mortar Office,506 Meeting Street,West Columbia,SC,29169,33.994017,-81.059103
First Community Bank,Chapin,Full Service Brick and Mortar Office,127 Amicks Ferry Road,Chapin,SC,29036,34.16478738,-81.35426094
First Community Bank,Cornerstone National Bank,Full Service Brick and Mortar Office,1670 East Main Street,Easley,SC,29641,34.828344,-82.572831
First Community Bank,Downtown Columbia,Full Service Brick and Mortar Office,1213 Lady Street,Columbia,SC,29201,34.00279828,-81.03352649
First Community Bank,Downtown Greenville,Limited Service Loan Production Office,105 N. Spring Street,Greenville,SC,29601,34.851411,-82.397475
First Community Bank,First Community Bank,Full Service Brick and Mortar Office,5455 Sunset Boulevard,Lexington,SC,29072,33.99861171,-81.21738206
First Community Bank,Forest Acres,Full Service Brick and Mortar Office,4404 Forest Drive,Columbia,SC,29206,34.02101411,-80.97651296
First Community Bank,Gilbert,Full Service Brick and Mortar Office,4325 Augusta Hwy,Gilbert,SC,29054,33.96069,-81.398835
First Community Bank,Greenville,Full Service Brick and Mortar Office,105 N Spring St,Greenville,SC,29601,34.851411,-82.397475
First Community Bank,Irmo,Full Service Brick and Mortar Office,1030 Lake Murray Boulevard,Irmo,SC,29063,34.08920036,-81.17537008
First Community Bank,Newberry,Full Service Brick and Mortar Office,1735 Wilson Road,Newberry,SC,29108,34.29059699,-81.60302479
First Community Bank,Northeast,Full Service Brick and Mortar Office,9822 Two Notch Road,Columbia,SC,29223,34.10885263,-80.89898551
First Community Bank,Powdersville,Full Service Brick and Mortar Office,11000 Anderson Road,Piedmont,SC,29673,34.78406468,-82.48453211
First Community Bank,Prosperity,Full Service Brick and Mortar Office,101 N Wheeler Avenue,Prosperity,SC,29127,34.21056307,-81.53215779
First Community Bank,Red Bank,Full Service Brick and Mortar Office,1449 Two Notch Road,Lexington,SC,29073,33.95275818,-81.23274415
Arthur State Bank,221 South,Limited Service Facility Office,731 Laurens Rd,Woodruff,SC,29388,34.73234338,-82.02757677
Arthur State Bank,Arthur State Bank,Full Service Brick and Mortar Office,100 East Main Street,Union,SC,29379,34.71524455,-81.62359766
Arthur State Bank,Augusta Road,Full Service Brick and Mortar Office,1925 Augusta Road,Greenville,SC,29601,34.8263531,-82.39657579
Arthur State Bank,Clinton,Full Service Brick and Mortar Office,205 Jacobs Highway,Clinton,SC,29325,34.45426264,-81.87631058
Arthur State Bank,Columbia Beltline,Full Service Brick and Mortar Office,2140 North Beltline Blvd,Columbia,SC,29204,34.01697436,-80.98836444
Arthur State Bank,East Main,Full Service Brick and Mortar Office,100 East Main Street,Union,SC,29379,34.71524455,-81.62359766
Arthur State Bank,East Spartanburg,Full Service Brick and Mortar Office,756 East Main Street,Spartanburg,SC,29302,34.95690505,-81.91212495
Arthur State Bank,Gervais,Full Service Brick and Mortar Office,1700 Gervais Street,Columbia,SC,29201,34.003242,-81.0249435
Arthur State Bank,Greenville,Full Service Brick and Mortar Office,1410 N. Pleasantburg Drive,Greenville,SC,29601,34.87832537,-82.36015332
Arthur State Bank,Lexington,Full Service Brick and Mortar Office,5051 Sunset Boulevard,Lexington,SC,29072,34.00906818,-81.19267085
Arthur State Bank,North Main,Limited Service Facility Office,595 North Main Street,Woodruff,SC,29388,34.7471131,-82.04473387
Arthur State Bank,Rock Hill,Full Service Brick and Mortar Office,201 South Herlong Avenue,Rock Hill,SC,29732,34.95515147,-81.050382
Arthur State Bank,Roebuck,Full Service Brick and Mortar Office,4285 South Church Street Extention,Roebuck,SC,29376,34.88366978,-81.95723878
Arthur State Bank,Sparkleberry,Full Service Brick and Mortar Office,121 Sparkleberry Crossing,Columbia,SC,29229,34.10143425,-80.85602312
Arthur State Bank,West Spartanburg,Full Service Brick and Mortar Office,8770 Greenville Highway,Spartanburg,SC,29304,34.93641636,-82.01456652
Arthur State Bank,West Towne,Full Service Brick and Mortar Office,501 North Duncan Bypass,Union,SC,29379,34.72568093,-81.63904374
Arthur State Bank,Woodruff Main Street,Full Service Brick and Mortar Office,131 S Main Street,Woodruff,SC,29388,34.73917342,-82.03678213
The Conway National Bank,Aynor,Full Service Brick and Mortar Office,2605 Highway 501,Aynor,SC,29511,33.997734,-79.204419
The Conway National Bank,Carolina Forest Office,Full Service Brick and Mortar Office,4100 River Oaks Drive,Myrtle Beach,SC,29579,33.756129,-78.8652315
The Conway National Bank,Conway Banking Center,Full Service Brick and Mortar Office,1411 Fourth Avenue,Conway,SC,29526,33.833043,-79.053084
The Conway National Bank,Conway,Full Service Brick and Mortar Office,309 Main Street,Conway,SC,29526,33.83561267,-79.04632459
The Conway National Bank,Little River Office,Full Service Brick and Mortar Office,2380 Highway 9 East,Conway,SC,29526,33.88513842,-78.68767621
The Conway National Bank,Murrells Inlet,Full Service Brick and Mortar Office,4345 Highway 17 Bypass,Murrells Inlet,SC,29576,33.55560152,-79.04414452
The Conway National Bank,Myrtle Beach,Full Service Brick and Mortar Office,1352 21st Avenue North,Myrtle Beach,SC,29577,33.71360454,-78.88605171
The Conway National Bank,North Conway,Full Service Brick and Mortar Office,2601 Main Street,Conway,SC,29526,33.867414,-79.0536465
The Conway National Bank,North Myrtle Beach Office,Full Service Brick and Mortar Office,110 Highway 17 North,North Myrtle Beach,SC,29582,33.829254,-78.678027
The Conway National Bank,Northside,Full Service Brick and Mortar Office,Highway 17 And Chestnut Road,North Myrtle Beach,SC,29582,33.780933,-78.7894695
The Conway National Bank,Pawleys Island,Full Service Brick and Mortar Office,10608 Ocean Highway,Pawleys Island,SC,29585,33.44009896,-79.12602595
The Conway National Bank,Red Hill,Full Service Brick and Mortar Office,U.S. 501 And State Highway 544,Conway,SC,29526,33.807438,-79.0185015
The Conway National Bank,Socastee,Full Service Brick and Mortar Office,3591 Northgate Drive,Myrtle Beach,SC,29588,33.68398803,-78.96235542
The Conway National Bank,Surfside Beach,Full Service Brick and Mortar Office,Fifth Avenue And Highway 17,Myrtle Beach,SC,29577,33.689781,-78.8867595
The Conway National Bank,The Conway National Bank,Full Service Brick and Mortar Office,1400 Third Avenue,Conway,SC,29526,33.83257297,-79.05158848
The Conway National Bank,West Conway,Full Service Brick and Mortar Office,2810 Church Street,Conway,SC,29526,33.861636,-79.0913295
Carolina Bank & Trust Co.,109 Express Lane,Full Service Brick and Mortar Office,109 Express Lane,Darlington,SC,29532,34.28371818,-79.85835229
Carolina Bank & Trust Co.,Bennettsville,Full Service Brick and Mortar Office,301 East Main Street,Bennettsville,SC,29512,34.61772602,-79.68185283
Carolina Bank & Trust Co.,Carolina Bank & Trust Co.,Full Service Brick and Mortar Office,112 Main Street,Lamar,SC,29069,34.16971532,-80.06349699
Carolina Bank & Trust Co.,Cheraw,Full Service Brick and Mortar Office,320 Chesterfield Highway (Highway 9),Cheraw,SC,29520,34.69203365,-79.90578243
Carolina Bank & Trust Co.,Chesterfield,Full Service Brick and Mortar Office,166 Olde Towne Center,Chesterfield,SC,29709,37.50647007,-77.60923003
Carolina Bank & Trust Co.,Darlington,Full Service Brick and Mortar Office,Orange Street,Darlington,SC,29532,34.30103415,-79.87709664
Carolina Bank & Trust Co.,Florence,Full Service Brick and Mortar Office,185 West Evans St.,Florence,SC,29501,34.1972743,-79.76801097
Carolina Bank & Trust Co.,Florence,Full Service Brick and Mortar Office,3037 West Palmetto Street,Florence,SC,29501,34.17138,-79.84005837
Carolina Bank & Trust Co.,Hartsville,Full Service Brick and Mortar Office,1042 North Fifth Street,Hartsville,SC,29550,34.39145808,-80.07521138
Carolina Bank & Trust Co.,Hartsville,Full Service Brick and Mortar Office,525 South Fifth Street,Hartsville,SC,29550,34.36890662,-80.0702346
Carolina Bank & Trust Co.,Mullins Main,Full Service Brick and Mortar Office,110 West Mcintyre Street,Mullins,SC,29574,34.20014486,-79.25409289
Carolina Bank & Trust Co.,N Myrtle Beach,Full Service Brick and Mortar Office,1043 Sea Mountain Hwy,North Myrtle Beach,SC,29582,33.84011308,-78.6457392
Carolina Bank & Trust Co.,Quinby,Full Service Brick and Mortar Office,408 Ashby Road,Florence,SC,29501,34.22873399,-79.74365382
Carolina Bank & Trust Co.,Society Hill,Full Service Brick and Mortar Office,121 South Main Street,Society Hill,SC,29593,34.51221926,-79.85121121
Carolina Bank & Trust Co.,South Florence,Full Service Brick and Mortar Office,1539 South Irby Street,Florence,SC,29505,34.16520793,-79.76477974
Security Federal Bank,1665 Richland Avenue,Full Service Brick and Mortar Office,1665 Richland Avenue,Aiken,SC,29801,33.5650779,-81.74329405
Security Federal Bank,1705 Whiskey Rd,Full Service Brick and Mortar Office,1705 Whiskey Rd,Aiken,SC,29803,33.529041,-81.7236045
Security Federal Bank,313 Martintowne Rd,Full Service Brick and Mortar Office,313 E. Martintown Rd.,North Augusta,SC,29841,33.4992137,-81.96194366
Security Federal Bank,Assembly Street,Full Service Brick and Mortar Office,1900 Assembly Street,Columbia,SC,29201,34.01036853,-81.03940901
Security Federal Bank,Ballentine Office,Full Service Brick and Mortar Office,1790 Dutch Fork Road,Irmo,SC,29063,34.135398,-81.2542545
Security Federal Bank,Clearwater,Full Service Brick and Mortar Office,4568 Jefferson Davis Hwy,Clearwater,SC,29822,33.50232512,-81.90511058
Security Federal Bank,Graniteville,Full Service Brick and Mortar Office,50 Canal Street,Graniteville,SC,29829,33.564582,-81.8068635
Security Federal Bank,Langley,Full Service Brick and Mortar Office,2812 Augusta Street,Langley,SC,29834,34.81429577,-82.38374057
Security Federal Bank,Lexington,Full Service Brick and Mortar Office,5446 Sunset Boulevard,Lexington,SC,29072,33.99903535,-81.21600551
Security Federal Bank,Ridge Spring,Full Service Brick and Mortar Office,636 East Main Street,Ridge Spring,SC,29129,33.84546847,-81.66116181
Security Federal Bank,Security Federal Bank,Full Service Brick and Mortar Office,"238 Richland Avenue, Nw",Aiken,SC,29801,33.56153406,-81.72156784
Security Federal Bank,Southside,Full Service Brick and Mortar Office,2587 Whiskey Road,Aiken,SC,29803,33.505137,-81.7097445
Security Federal Bank,Wagener,Full Service Brick and Mortar Office,118 North Main Street,Wagener,SC,29164,33.65160405,-81.36179281
Security Federal Bank,West Columbia,Full Service Brick and Mortar Office,1185 Sunset Boulevard,West Columbia,SC,29169,33.99798962,-81.07732505
Ameris Bank,Ameris - Magnolia,Limited Service Facility Office,108 Magnolia Road,Charleston,SC,29407,32.783031,-79.987599
Ameris Bank,Beaufort,Full Service Brick and Mortar Office,2348 Boundary Street,Beaufort,SC,29902,32.440284,-80.7026535
Ameris Bank,Charleston/West Ashley,Full Service Brick and Mortar Office,834 Savannah Highway,Charleston,SC,29407,32.782491,-79.9874145
Ameris Bank,Columbia,Full Service Brick and Mortar Office,"1333 Main Street, Suite 100 & 200",Columbia,SC,29201,34.00319107,-81.03446151
Ameris Bank,Greenville Main Street,Limited Service Administrative Office,301 N. Main Street,Greenville,SC,29601,34.85431668,-82.39743759
Ameris Bank,Irmo,Full Service Brick and Mortar Office,1200 Lake Murray Boulevard,Irmo,SC,29063,34.08666527,-81.18183186
Ameris Bank,Lexington,Full Service Brick and Mortar Office,701 West Main Street,Lexington,SC,29072,33.98496352,-81.24884311
Ameris Bank,Messenger Service,Limited Service Messenger Office,834 Savannah Highway,Charleston,SC,29407,32.782491,-79.9874145
Ameris Bank,Messenger Service,Limited Service Messenger Office,1614 Woodruff Road,Greenville,SC,29607,34.819137,-82.276128
Ameris Bank,Messenger Service,Limited Service Messenger Office,701 West Main Street,Lexington,SC,29072,33.98496352,-81.24884311
Ameris Bank,Mount Pleasant,Full Service Brick and Mortar Office,349 Coleman Blvd,Mount Pleasant,SC,29464,32.79041939,-79.87726751
Ameris Bank,"Richland & Lexington County, Sc",Limited Service Messenger Office,"1333 Main Street, Ste 100 & 200",Columbia,SC,29201,34.00319107,-81.03446151
Ameris Bank,Summerville,Full Service Brick and Mortar Office,"1708 Old Trolley Road, Suite C",Summerville,SC,29485,32.95902522,-80.16496192
Ameris Bank,Woodruff Road,Full Service Brick and Mortar Office,1614 Woodruff Rd,Greenville,SC,29607,34.819137,-82.276128
Countybank,Anderson-Hwy 81,Full Service Brick and Mortar Office,2125 N Highway 81,Anderson,SC,29621,34.553736,-82.629792
Countybank,Corporate Offices,Limited Service Administrative Office,425 Main Street,Greenwood,SC,29646,34.188921,-82.159272
Countybank,Countybank,Full Service Brick and Mortar Office,419 Main Street,Greenwood,SC,29646,34.189218,-82.15938
Countybank,Countybank Trust Services,Limited Service Trust Office,419 Main Street,Greenwood,SC,29646,34.189218,-82.15938
Countybank,Greenville Mcbee Ave Financial Cente,Full Service Brick and Mortar Office,201 West Mcbee Avenue,Greenville,SC,29601,34.85041044,-82.40209079
Countybank,Greenville Pelham Rd Financial Cente,Full Service Brick and Mortar Office,3431 Pelham Road,Greenville,SC,29601,34.86141606,-82.27463136
Countybank,Greenwood Calhoun Ave Financial Cent,Full Service Brick and Mortar Office,583 Highway 72 By-Pass Nw,Greenwood,SC,29646,34.20305826,-82.19814241
Countybank,Greenwood Reynolds Ave Financial Cen,Full Service Brick and Mortar Office,1230 Reynolds Avenue,Greenwood,SC,29646,34.208217,-82.146249
Countybank,Greer Trade Street Financial Center,Full Service Brick and Mortar Office,300 Trade Street,Greer,SC,29650,34.936425,-82.226268
Countybank,Messenger Service,Limited Service Messenger Office,609 Phoenix Street,Greenwood,SC,29646,34.188192,-82.1574585
Countybank,Mobile,Limited Service Messenger Office,1110 Marshall Road,Greenwood,SC,29649,34.178562,-82.1236005
Countybank,Pelham,<br/>,3431 Pelham Rd.,Greenville,SC,29615,34.86141606,-82.27463136
Enterprise Bank of South Carolina,Bamberg,Full Service Brick and Mortar Office,400 North Main Street,Bamberg,SC,29003,33.33434516,-81.02017893
Enterprise Bank of South Carolina,Barnwell,Full Service Brick and Mortar Office,287 Main Street,Barnwell,SC,29812,33.24406352,-81.36281278
Enterprise Bank of South Carolina,Bells Highway,Full Service Brick and Mortar Office,776 Bells Highway,Walterboro,SC,29488,32.92015765,-80.67752521
Enterprise Bank of South Carolina,Blackville,Full Service Brick and Mortar Office,227 Main Street,Blackville,SC,29817,33.35472131,-81.2663921
Enterprise Bank of South Carolina,Cottageville,Full Service Brick and Mortar Office,11003 Cottageville Highway,Cottageville,SC,29435,32.934915,-80.4768705
Enterprise Bank of South Carolina,Denmark,Full Service Brick and Mortar Office,117 North Palmetto Avenue,Denmark,SC,29042,33.32640709,-81.14213347
Enterprise Bank of South Carolina,Edisto Island,Full Service Brick and Mortar Office,804 Oyster Park Drive,Edisto Island,SC,29438,32.537025,-80.295012
Enterprise Bank of South Carolina,Enterprise Bank Of South Carolina,Full Service Brick and Mortar Office,13497 Broxton Bridge Road,Ehrhardt,SC,29081,33.096213,-81.01384923
Enterprise Bank of South Carolina,Ridgeville,Full Service Brick and Mortar Office,102 Main Street,Ridgeville,SC,29472,33.09942702,-80.31196155
Enterprise Bank of South Carolina,Springfield,Full Service Brick and Mortar Office,7222 Festival Trail Road,Springfield,SC,29146,33.49667065,-81.27975808
Enterprise Bank of South Carolina,Walterboro,Full Service Brick and Mortar Office,1105 N Jefferies,Walterboro,SC,29488,32.916276,-80.6681385
Enterprise Bank of South Carolina,Williston,Full Service Brick and Mortar Office,11 West Main Street,Williston,SC,29853,33.3851503,-81.38801412
Bank of Travelers Rest,Bank Of Travelers Rest,Full Service Brick and Mortar Office,42 Plaza Drive,Travelers Rest,SC,29690,34.97331387,-82.42932155
Bank of Travelers Rest,Downtown Greenville Office,Full Service Brick and Mortar Office,217-B East Washington Street,Greenville,SC,29601,34.850169,-82.396584
Bank of Travelers Rest,Marietta,Full Service Brick and Mortar Office,3211 Geer Hwy,Marietta,SC,29661,35.03216608,-82.50103103
Bank of Travelers Rest,North Pleasantburg,Full Service Brick and Mortar Office,2021 North Pleasantburg Drive,Greenville,SC,29609,34.887492,-82.372743
Bank of Travelers Rest,Old Buncombe Road,Full Service Brick and Mortar Office,Old Buncombe And Duncan Chapel Roads,Greenville,SC,29609,34.909848,-82.4301
Bank of Travelers Rest,Pelham Ridge,Full Service Brick and Mortar Office,201 Pelham Road,Greenville,SC,29615,34.86701722,-82.3488394
Bank of Travelers Rest,Roe Road,Full Service Brick and Mortar Office,15 Roe Road,Travelers Rest,SC,29690,34.96102955,-82.43640963
Bank of Travelers Rest,Taylors,Full Service Brick and Mortar Office,6000 Wade Hampton Boulevard,Taylors,SC,29687,34.934904,-82.277541
Bank of Travelers Rest,Verdae,Full Service Brick and Mortar Office,1041 Verdae Blvd,Greenville,SC,29607,34.835733,-82.3172535
Bank of Travelers Rest,White Horse Road,Full Service Brick and Mortar Office,6204 White Horse Road,Greenville,SC,29611,34.856505,-82.45791
First Reliance Bank,Charleston Peninsula,Full Service Brick and Mortar Office,25 Cumberland Street,Charleston,SC,29401,32.779818,-79.9285815
First Reliance Bank,First Reliance Bank,Full Service Brick and Mortar Office,2170 West Palmetto Street,Florence,SC,29501,34.1860718,-79.81140496
First Reliance Bank,Greenville Downtown,Full Service Brick and Mortar Office,500 East Washington Street,Greenville,SC,29601,34.849062,-82.3942485
First Reliance Bank,Lexington North Lake Dr,Full Service Brick and Mortar Office,801 N Lake Dr,Lexington,SC,29072,33.99231604,-81.23162504
First Reliance Bank,Mount Pleasant,Full Service Brick and Mortar Office,800 South Shelmore Boulevard,Mount Pleasant,SC,29464,32.809455,-79.878303
First Reliance Bank,Myrtle Beach Brach,Full Service Brick and Mortar Office,507 21st Avenue North,Myrtle Beach,SC,29577,33.70275,-78.873012
First Reliance Bank,Second Loop,Full Service Brick and Mortar Office,411 Second Loop Road,Florence,SC,29501,34.167213,-79.7690655
First Reliance Bank,Simpsonville,Full Service Brick and Mortar Office,150 Highway 14,Simpsonville,SC,29681,34.756749,-82.2654675
First Reliance Bank,"Sunset Blvd, West Columbia",Full Service Brick and Mortar Office,2805 A Sunset Blvd,West Columbia,SC,29169,34.004421,-81.1163025
First Reliance Bank,Wade Hampton,Full Service Brick and Mortar Office,2801b Wade Hampton Boulevard,Taylors,SC,29687,34.901685,-82.3376115
First Tennessee Bank,Boiling Springs,Full Service Brick and Mortar Office,3090 Boiling Springs Road,Boiling Springs,SC,29316,35.0390858,-81.97452563
First Tennessee Bank,Charleston Commercial Banking,Limited Service Loan Production Office,28 Bridgeside Blvd. Suite 100,Mount Pleasant,SC,29464,32.798232,-79.9046955
First Tennessee Bank,Columbia Main,Full Service Brick and Mortar Office,1320 Main Street,Columbia,SC,29201,34.00291285,-81.03422927
First Tennessee Bank,Mount Pleasant,Full Service Brick and Mortar Office,651 Johnnie Dodds Boulevard,Mount Pleasant,SC,29464,32.806467,-79.882659
First Tennessee Bank,Northeast,Full Service Brick and Mortar Office,10134 Two Notch Road,Columbia,SC,29223,34.11619442,-80.88505656
First Tennessee Bank,Pelham Road,Full Service Brick and Mortar Office,3401 Pelham Road,Greenville,SC,29615,34.861995,-82.2752955
First Tennessee Bank,Pine St,Full Service Brick and Mortar Office,215 North Pine Street,Spartanburg,SC,29302,34.95538448,-81.92122813
First Tennessee Bank,Reidville Road,Full Service Brick and Mortar Office,2680 Reidville Road,Spartanburg,SC,29301,34.9177922,-82.0016702
First Tennessee Bank,Stonecrest,Full Service Brick and Mortar Office,1115 Stonecrest Blvd,Fort Mill,SC,29708,35.04852172,-80.99167945
First Tennessee Bank,Trenholm,Full Service Brick and Mortar Office,4840 Forest Drive,Columbia,SC,29206,34.01865507,-80.96387894
"Community First Bank, Inc.",Anderson,Full Service Brick and Mortar Office,4002 Clemson Blvd,Anderson,SC,29621,34.55704852,-82.68658643
"Community First Bank, Inc.",Anderson Highway 81,Full Service Brick and Mortar Office,2007 E. Greenville Street,Anderson,SC,29621,34.54654052,-82.63140934
"Community First Bank, Inc.",Bank Of Westminster-West,Full Service Brick and Mortar Office,306 East Windsor Street,Westminster,SC,29693,34.66367038,-83.094704
"Community First Bank, Inc.","Community First Bank, Inc.",Full Service Brick and Mortar Office,3685 Blue Ridge Boulevard,Walhalla,SC,29691,34.758458,-83.05159059
"Community First Bank, Inc.",Greenville Office,Full Service Brick and Mortar Office,210 Brendan Way,Greenville,SC,29615,34.85777845,-82.32783125
"Community First Bank, Inc.",Messenger Service,Limited Service Messenger Office,3685 Blue Ridge Boulevard,Walhalla,SC,29691,34.758458,-83.05159059
"Community First Bank, Inc.",North Seneca,Full Service Brick and Mortar Office,449 Highway 123 Bypass,Seneca,SC,29678,34.69725388,-82.94665735
"Community First Bank, Inc.",Seneca,Full Service Brick and Mortar Office,1600 Sandifer Boulevard,Seneca,SC,29678,34.690788,-82.9932705
"Community First Bank, Inc.",Williamston,Full Service Brick and Mortar Office,208 East Main Street,Williamston,SC,29697,34.62010446,-82.47345316
PNC Bank,Calhoun Street,Full Service Brick and Mortar Office,100 Calhoun Street,Charleston,SC,29401,32.787909,-79.9320015
PNC Bank,Chandler Commons,Full Service Brick and Mortar Office,1888 India Hook Road,Rock Hill,SC,29732,34.96394452,-81.03470106
PNC Bank,Columbia-Vista,Full Service Brick and Mortar Office,701 Gervais Street,Columbia,SC,29201,33.99891289,-81.04146137
PNC Bank,Five Point,Full Service Brick and Mortar Office,2000 West Palmetto Street,Florence,SC,29501,34.187463,-79.8081345
PNC Bank,Greenville West End,Full Service Brick and Mortar Office,"531 South Main Street, Suite 100",Greenville,SC,29601,34.84542365,-82.40176335
PNC Bank,Litchfield,Full Service Brick and Mortar Office,38-A Black Gum Road,Pawleys Island,SC,29585,33.48052738,-79.09919547
PNC Bank,Mount Pleasant,Full Service Brick and Mortar Office,1021 E- Wall Street,Mount Pleasant,SC,29464,32.807088,-79.884
PNC Bank,Myrtle Beach Main,Full Service Brick and Mortar Office,2513 North Oak Street,Myrtle Beach,SC,29577,33.70916745,-78.86930317
PNC Bank,Pope Avenue,Full Service Brick and Mortar Office,4 Office Way,Hilton Head Island,SC,29928,34.69356625,-82.43650355
Southern First Bank,Augusta Road,Full Service Brick and Mortar Office,2125 Augusta Street,Greenville,SC,29605,34.824231,-82.393308
Southern First Bank,Calhoun,Full Service Brick and Mortar Office,80 Calhoun Street,Charleston,SC,29401,32.78808,-79.9316505
Southern First Bank,Forest Drive,Full Service Brick and Mortar Office,4018 Forest Drive,Columbia,SC,29204,34.020315,-80.982459
Southern First Bank,Knox Abbott Br,Full Service Brick and Mortar Office,190 Knox Abbott Drive,Cayce,SC,29033,33.986673,-81.052443
Southern First Bank,Lexington,Full Service Brick and Mortar Office,5346 Sunset Blvd,Lexington,SC,29072,34.002603,-81.2101005
Southern First Bank,Mount Pleasant,Full Service Retail Office,691 Johnnie Dodds Boulevard,Mount Pleasant,SC,29464,32.807691,-79.8777405
Southern First Bank,Parkway,Full Service Brick and Mortar Office,307 The Parkway,Greer,SC,29650,34.82184864,-82.5933351
Southern First Bank,Southern First Bank,Full Service Brick and Mortar Office,"100 Verdae Boulevard, Suite 100",Greenville,SC,29607,34.8201712,-82.33754434
Southern First Bank,Woodruff,Full Service Brick and Mortar Office,1900 Woodruff Rd,Greenville,SC,29607,34.819758,-82.2642885
South Atlantic Bank,Bluffton,Full Service Brick and Mortar Office,1 Sheridan Park Circle,Bluffton,SC,29910,32.26287686,-80.85824312
South Atlantic Bank,East Bay,Full Service Brick and Mortar Office,480 East Bay Street,Charleston,SC,29403,32.789736,-79.9296885
South Atlantic Bank,Georgetown,Full Service Brick and Mortar Office,1187 North Fraiser Street,Georgetown,SC,29440,33.38885599,-79.28906085
South Atlantic Bank,Hilton Head,Full Service Brick and Mortar Office,5a Park Lane,Hilton Head Island,SC,29928,32.16352521,-80.74529774
South Atlantic Bank,Mt. Pleasant,Full Service Brick and Mortar Office,930 Johnnie Dodds Blvd.,Mount Pleasant,SC,29464,32.81142124,-79.86733639
South Atlantic Bank,Murrells Inlet,Full Service Brick and Mortar Office,11019 Tournament Blvd,Murrells Inlet,SC,29576,33.5851723,-79.02839736
South Atlantic Bank,North Myrtle Beach,Full Service Brick and Mortar Office,1801 Highway 17 South,North Myrtle Beach,SC,29582,33.811146,-78.7052385
South Atlantic Bank,Pawleys Island Office,Full Service Brick and Mortar Office,10970 Ocean Highway,Pawleys Island,SC,29585,33.4445162,-79.12298693
South Atlantic Bank,South Atlantic Bank,Full Service Brick and Mortar Office,630 29th Ave North,Myrtle Beach,SC,29577,33.71526849,-78.87241691
Palmetto State Bank,Allendale,Full Service Brick and Mortar Office,230 Main Street N,Allendale,SC,29810,33.0089727,-81.30760588
Palmetto State Bank,Bluffton,Full Service Brick and Mortar Office,194 Bluffton Road,Bluffton,SC,29910,32.23931154,-80.85996768
Palmetto State Bank,Burton,Full Service Brick and Mortar Office,2347 Boundary Street,Beaufort,SC,29902,32.44101614,-80.70250125
Palmetto State Bank,Drive-In,Limited Service Facility Office,Bay Street,Allendale,SC,29810,33.01508574,-81.31620627
Palmetto State Bank,Estill,Full Service Brick and Mortar Office,106 East 3rd Street,Estill,SC,29918,32.75381853,-81.24047841
Palmetto State Bank,Fairfax,Full Service Brick and Mortar Office,Seventh Street And Charleston Avenue,Fairfax,SC,29827,32.958666,-81.234891
Palmetto State Bank,Lady's Island,Full Service Brick and Mortar Office,145 Lady's Island Drive,Beaufort,SC,29902,32.406786,-80.6571495
Palmetto State Bank,Palmetto State Bank,Full Service Brick and Mortar Office,"601 First Street, West",Hampton,SC,29924,32.86581195,-81.11053847
First National Bank of South Carolina,Boone Hill,Full Service Brick and Mortar Office,1400 Boonehill Road,Summerville,SC,29483,32.98909848,-80.22383325
First National Bank of South Carolina,Eutawville,Full Service Brick and Mortar Office,12181 Old Number Six Highway,Eutawville,SC,29048,33.39917518,-80.3356658
First National Bank of South Carolina,First National Bank Of South Carolin,Full Service Brick and Mortar Office,801 Gilway Avenue,Holly Hill,SC,29059,33.31966108,-80.41150714
First National Bank of South Carolina,Goose Creek,Full Service Brick and Mortar Office,106 Thomason Boulevard,Goose Creek,SC,29445,33.00148893,-80.03981935
First National Bank of South Carolina,Harleyville,Full Service Brick and Mortar Office,143 West Main Street,Harleyville,SC,29448,33.2150289,-80.45052557
First National Bank of South Carolina,Ridgeville,Full Service Brick and Mortar Office,173 Church Street,Ridgeville,SC,29472,33.09778769,-80.31205699
First National Bank of South Carolina,Sangaree,Full Service Brick and Mortar Office,1710 North Main Street,Summerville,SC,29485,33.041664,-80.1341865
First National Bank of South Carolina,Summerville,Full Service Brick and Mortar Office,415 North Main Street,Summerville,SC,29483,33.02428423,-80.17185399
GrandSouth Bank,Anderson,Full Service Brick and Mortar Office,325 South Main Street,Anderson,SC,29621,34.50193905,-82.64987317
GrandSouth Bank,Charleston,Full Service Brick and Mortar Office,291 East Bay Street,Charleston,SC,29401,32.784642,-79.929063
GrandSouth Bank,Columbia,Full Service Brick and Mortar Office,1901 Assembly Street,Columbia,SC,29201,34.01046412,-81.03967733
GrandSouth Bank,Fountain Inn,Full Service Brick and Mortar Office,325 South Main Street,Fountain Inn,SC,29644,34.68964453,-82.19618825
GrandSouth Bank,Grandsouth Bank,Full Service Brick and Mortar Office,381 Halton Road,Greenville,SC,29606,34.839432,-82.3348665
GrandSouth Bank,Greer,Full Service Brick and Mortar Office,501 West Wade Hampton Boulevard,Greer,SC,29650,34.948143,-82.238058
GrandSouth Bank,Messenger Service,Limited Service Messenger Office,381 Halton Road,Greenville,SC,29606,34.839432,-82.3348665
GrandSouth Bank,Orangeburg Office,Full Service Brick and Mortar Office,1085 St. Matthews Road,Orangeburg,SC,29115,33.5081666,-80.86233224
Farmers and Merchants Bank of South Carolina,Bowman,Full Service Brick and Mortar Office,7002 Charleston Hwy,Bowman,SC,29018,33.34909626,-80.68289807
Farmers and Merchants Bank of South Carolina,Branchville,Full Service Brick and Mortar Office,7633 Freedom Road,Branchville,SC,29432,33.24957615,-80.81635687
Farmers and Merchants Bank of South Carolina,Cameron,Full Service Brick and Mortar Office,216 N Boyce Lawton Drive,Cameron,SC,29030,33.55782651,-80.71485684
Farmers and Merchants Bank of South Carolina,Carnes Crossroads,Full Service Brick and Mortar Office,2900 North Main Street,Moncks Corner,SC,29461,33.064461,-80.09343
Farmers and Merchants Bank of South Carolina,Eutawville,Full Service Brick and Mortar Office,12064 Old Number 6 Highway,Eutawville,SC,29048,33.3984489,-80.34163537
Farmers and Merchants Bank of South Carolina,Farmers And Merchants Bank Of South,Full Service Brick and Mortar Office,8624 Old State Street,Holly Hill,SC,29059,33.32104509,-80.4110157
Farmers and Merchants Bank of South Carolina,Moncks Corner,Full Service Brick and Mortar Office,221 East Main Street,Moncks Corner,SC,29461,33.193746,-80.008713
Farmers and Merchants Bank of South Carolina,St. Stephen,Full Service Brick and Mortar Office,117 Church Street,Saint Stephen,SC,29479,33.4052668,-79.92362028
Coastal Carolina National Bank,Aiken,Full Service Brick and Mortar Office,"128 Laurens Street, Nw",Aiken,SC,29801,33.56261561,-81.7218337
Coastal Carolina National Bank,Coastal Carolina National Bank,Full Service Brick and Mortar Office,1012 38th Ave N,Myrtle Beach,SC,29577,33.72453326,-78.86664604
Coastal Carolina National Bank,Columbia Office,Full Service Brick and Mortar Office,1219 Assembly St,Columbia,SC,29201,34.00158107,-81.03573317
Coastal Carolina National Bank,Conway Office,Full Service Brick and Mortar Office,1106 3rd Ave,Conway,SC,29526,33.83463557,-79.0475279
Coastal Carolina National Bank,Garden City,Full Service Brick and Mortar Office,2961 South Highway 17,Murrells Inlet,SC,29576,33.583968,-79.014213
Coastal Carolina National Bank,Greenville,Full Service Brick and Mortar Office,416 East North Street,Greenville,SC,29601,34.85115,-82.392993
Coastal Carolina National Bank,North Myrtle,Full Service Brick and Mortar Office,1100 Hwy 17 North,North Myrtle Beach,SC,29582,33.838308,-78.6663495
First Piedmont Federal Savings and Loan Association of Gaffney,1510 John B White Blvd,Full Service Brick and Mortar Office,1510 John B White Blvd.,Spartanburg,SC,29301,34.92385823,-81.97245586
First Piedmont Federal Savings and Loan Association of Gaffney,210 S Limestone St,Full Service Brick and Mortar Office,210 S Limestone St,Gaffney,SC,29340,35.07083154,-81.65116091
First Piedmont Federal Savings and Loan Association of Gaffney,503 N Granard St,Full Service Brick and Mortar Office,503 N Granard St,Gaffney,SC,29340,35.07686901,-81.64758266
First Piedmont Federal Savings and Loan Association of Gaffney,901 E Main St,Full Service Brick and Mortar Office,901 E Main St,Spartanburg,SC,29304,34.95981599,-81.90681804
First Piedmont Federal Savings and Loan Association of Gaffney,Boiling Springs,Full Service Brick and Mortar Office,2101 Boiling Springs Rd,Boiling Springs,SC,29316,35.02072842,-81.9630438
First Piedmont Federal Savings and Loan Association of Gaffney,First Piedmont Federal Savings And L,Full Service Brick and Mortar Office,1229 West Floyd Baker Boulevard,Gaffney,SC,29340,35.08512906,-81.65920509
First Bank,080 Latta,Full Service Brick and Mortar Office,100 East Leitner Street,Latta,SC,29565,34.33686615,-79.43296061
First Bank,081 Dillon,Full Service Brick and Mortar Office,101 West Main Street,Dillon,SC,29536,34.41737903,-79.37267682
First Bank,082 Dillon Monroe,Limited Service Facility Office,206 East Monroe Street,Dillon,SC,29536,34.42431505,-79.3651337
First Bank,083 Cheraw (Sc),Full Service Brick and Mortar Office,901 Chesterfield Highway,Cheraw,SC,29520,34.69726113,-79.92516709
First Bank,085 Florence Second Loop,Full Service Brick and Mortar Office,452 Second Loop Rd,Florence,SC,29505,34.16695238,-79.77090691
First Bank,086 Florence Evan Street,Full Service Brick and Mortar Office,2170 West Evans Street,Florence,SC,29501,34.187625,-79.810992
The Commercial Bank,Belton,Full Service Brick and Mortar Office,710 Anderson Street,Belton,SC,29627,34.52087981,-82.50368328
The Commercial Bank,Church Street,Limited Service Facility Office,6 Church Street,Honea Path,SC,29654,34.44569514,-82.39147017
The Commercial Bank,Donalds,Full Service Brick and Mortar Office,104 Main Street,Donalds,SC,29638,34.37760451,-82.34798071
The Commercial Bank,Due West,Full Service Brick and Mortar Office,105 Main Street,Due West,SC,29639,34.332588,-82.388844
The Commercial Bank,South Greenville,Full Service Brick and Mortar Office,8016 Augusta Road,Piedmont,SC,29673,34.6963224,-82.3976217
The Commercial Bank,The Commercial Bank,Full Service Brick and Mortar Office,4 Church Street,Honea Path,SC,29654,34.44564055,-82.39143004
The Peoples Bank,Clemson Boulevard,Full Service Brick and Mortar Office,3901 Clemson Boulevard,Anderson,SC,29621,34.55563338,-82.68437632
The Peoples Bank,Downtown,Full Service Brick and Mortar Office,605 North Main Street,Anderson,SC,29621,34.508601,-82.6516125
The Peoples Bank,Greenville Street,Full Service Brick and Mortar Office,1921 East Greenville Street,Anderson,SC,29621,34.54310651,-82.63100791
The Peoples Bank,Highway 24,Full Service Brick and Mortar Office,3009 Whitehall Road,Anderson,SC,29626,34.50981702,-82.75727921
The Peoples Bank,Homeland Park,Full Service Brick and Mortar Office,3010 South Main Street,Anderson,SC,29624,34.47325449,-82.65313886
The Peoples Bank,The Peoples Bank,Full Service Brick and Mortar Office,801 East Front Street,Iva,SC,29655,34.30769239,-82.66229379
Sandhills Bank,Carolina Forest,Full Service Brick and Mortar Office,273 Carolina Forest Boulevard,Myrtle Beach,SC,29579,33.761997,-78.956955
Sandhills Bank,Farrow Commons,Full Service Brick and Mortar Office,3600 Dorsett Drive,Myrtle Beach,SC,29577,33.68295,-78.957675
Sandhills Bank,Myrtle Beach Inernational Drive Bran,Full Service Brick and Mortar Office,610 International Drive,Myrtle Beach,SC,29579,33.76079344,-78.85953206
Sandhills Bank,Sandhills Bank,Full Service Brick and Mortar Office,1020 Highway 17 North,North Myrtle Beach,SC,29582,33.837723,-78.667281
Sandhills Bank,Windy Hill,Full Service Brick and Mortar Office,4400 Hwy 17 South,North Myrtle Beach,SC,29582,33.801174,-78.7330665
CoastalStates Bank,Bluffton Village,Full Service Brick and Mortar Office,7 Thurmond Way,Bluffton,SC,29910,32.2457037,-80.85734638
CoastalStates Bank,Coastalstates Bank,Full Service Brick and Mortar Office,5 Bow Circle,Hilton Head Island,SC,29928,32.162598,-80.767881
CoastalStates Bank,Main Street,Full Service Brick and Mortar Office,98 Main Street,Hilton Head Island,SC,29926,32.21668355,-80.72170068
CoastalStates Bank,New Orleans Road,Limited Service Loan Production Office,18 New Orleans Road,Hilton Head Island,SC,29928,32.15737125,-80.75496772
CoastalStates Bank,Sun City,Full Service Brick and Mortar Office,30 William Pope Drive,Okatie,SC,29909,32.29703816,-80.94952533
The Park National Bank,Anderson Main,Full Service Brick and Mortar Office,304 North Main Street,Anderson,SC,29621,34.505559,-82.650501
The Park National Bank,Carolina Alli Bk,Full Service Brick and Mortar Office,200 South Church Street,Spartanburg,SC,29306,34.94647689,-81.93031375
The Park National Bank,Easley,Full Service Brick and Mortar Office,6501 Calhoun Memorial Highway,Easley,SC,29640,34.821387,-82.585143
The Park National Bank,Old Pinnacle Bank Of South Carolina,Full Service Brick and Mortar Office,937 North Pleasantburg Drive,Greenville,SC,29607,34.86480232,-82.35747327
The Park National Bank,Pinnacle Bank Of South Carolina Bran,Full Service Brick and Mortar Office,10515 Anderson Road,Easley,SC,29642,34.77482988,-82.48819915
The Bank of Clarendon,Santee,Full Service Brick and Mortar Office,8850 Old Hwy 6,Santee,SC,29142,33.48784744,-80.47651046
The Bank of Clarendon,South Dukes,Full Service Brick and Mortar Office,11 South Dukes Street,Summerton,SC,29148,33.60710728,-80.34958751
The Bank of Clarendon,Sumter,Full Service Brick and Mortar Office,235 West Wesmark Boulevard,Sumter,SC,29150,33.95100793,-80.38529625
The Bank of Clarendon,The Bank Of Clarendon,Full Service Brick and Mortar Office,106 South Brooks Street,Manning,SC,29102,33.6936297,-80.2106832
The Bank of Clarendon,Wyboo Banking Office,Full Service Brick and Mortar Office,2609 Players Course Drive,Manning,SC,29102,33.5855005,-80.21759986
The Bank of South Carolina,Mt Pleasant,Full Service Brick and Mortar Office,1337 Chuck Dawley Boulevard,Mount Pleasant,SC,29464,32.807268,-79.850745
The Bank of South Carolina,Summerville,Full Service Brick and Mortar Office,100 North Main Street,Summerville,SC,29483,33.02069816,-80.17462468
The Bank of South Carolina,The Bank Of South Carolina,Full Service Brick and Mortar Office,256 Meeting Street,Charleston,SC,29401,32.783283,-79.931736
The Bank of South Carolina,West Ashey Office,Full Service Brick and Mortar Office,2027 Sam Rittenberg Boulevard,Charleston,SC,29407,32.793354,-80.028648
First National Bank of Pennsylvania,Blacksburg,Full Service Brick and Mortar Office,207 West Cherokee Street,Blacksburg,SC,29702,35.12009727,-81.518198
First National Bank of Pennsylvania,Gaffney,Full Service Brick and Mortar Office,217 North Granard Street,Gaffney,SC,29341,35.0745379,-81.64960166
First National Bank of Pennsylvania,Meeting Street,Full Service Brick and Mortar Office,317 Meeting Street,Charleston,SC,29401,32.786325,-79.9345485
First National Bank of Pennsylvania,Tega Cay,Full Service Brick and Mortar Office,1738 Gold Hill Road,Fort Mill,SC,29708,35.06077086,-80.99334794
Oconee Federal Savings and Loan Association,111 West Windsor Street,Full Service Brick and Mortar Office,111 West Windsor Street,Westminster,SC,29693,34.66618732,-83.09840768
Oconee Federal Savings and Loan Association,813-123 By-Pass,Full Service Brick and Mortar Office,813 By Pass 123,Seneca,SC,29678,34.696899,-82.965609
Oconee Federal Savings and Loan Association,Broad Street,Full Service Brick and Mortar Office,204 W North Broad St,Walhalla,SC,29691,34.76690948,-83.06732688
Oconee Federal Savings and Loan Association,Oconee Federal Savings And Loan Asso,Full Service Brick and Mortar Office,115 East North 2nd Street,Seneca,SC,29678,34.687449,-82.953909
Bank of the Lowcountry,Bank Of The Lowcountry,Full Service Brick and Mortar Office,1100 North Jefferies Boulevard,Walterboro,SC,29488,32.9164326,-80.66739647
Bank of the Lowcountry,Forest Hills,Full Service Brick and Mortar Office,110 Forest Hills Road,Walterboro,SC,29488,32.90602223,-80.66706573
Bank of the Lowcountry,Ravenel,Full Service Brick and Mortar Office,6225 Savannah Highway,Ravenel,SC,29470,32.776452,-80.2443105
Bank of the Lowcountry,Ridgeland,Full Service Brick and Mortar Office,8058 Main Street,Ridgeland,SC,29936,32.47917963,-80.97623879
Blue Ridge Bank,Blue Ridge Bank,Full Service Brick and Mortar Office,100 East Main Street,Walhalla,SC,29691,34.764642,-83.0655405
Blue Ridge Bank,Bountyland Road,Full Service Brick and Mortar Office,Bountyland Rd,Seneca,SC,29672,34.70014918,-83.00789679
Blue Ridge Bank,Walhalla,Full Service Brick and Mortar Office,100 North John Street,Walhalla,SC,29691,34.76405357,-83.05949848
Blue Ridge Bank,Westminister,Full Service Brick and Mortar Office,200 West Windsor Street,Westminster,SC,29693,34.667064,-83.09889
Bank of York,Bank Of York,Full Service Brick and Mortar Office,13 W Liberty St,York,SC,29745,34.99452031,-81.24292607
Bank of York,Bethel-Lake Wylie,Full Service Brick and Mortar Office,4955 Charlotte Hwy,Clover,SC,29710,35.115615,-81.0726975
Bank of York,East Liberty Street,Full Service Brick and Mortar Office,East Liberty Street Extension,York,SC,29745,34.98600894,-81.22242744
Bank of York,York County,Full Service Brick and Mortar Office,Highway 274,Rock Hill,SC,29730,35.00271021,-81.09934411
First Federal Bank,Messenger Service,Limited Service Messenger Office,36 Sea Island Parkway,Beaufort,SC,29902,32.41971766,-80.66203821
First Federal Bank,Port Royal,Full Service Brick and Mortar Office,1700 Ribaut Road,Port Royal,SC,29935,32.3844852,-80.69165573
First Federal Bank,Sea Island,Full Service Brick and Mortar Office,36 Sea Island Parkway,Beaufort,SC,29907,32.41971766,-80.66203821
First Capital Bank,Bennettsville,Full Service Brick and Mortar Office,207 Highway 15-401 By-Pass East,Bennettsville,SC,29512,34.60645213,-79.68397079
First Capital Bank,Charleston Main,Full Service Brick and Mortar Office,304 Meeting Street,Charleston,SC,29401,32.786001,-79.9336035
First Capital Bank,Downtown Summerville,Full Service Brick and Mortar Office,227 S. Cedar Street,Summerville,SC,29483,33.01926935,-80.17793557
Select Bank & Trust Company,Blacksburg,Full Service Brick and Mortar Office,203 West Cherokee Street,Blacksburg,SC,29702,35.12036429,-81.51761804
Select Bank & Trust Company,Rock Hill,Full Service Brick and Mortar Office,201 Oakland Drive,Rock Hill,SC,29730,34.9317586,-81.02508011
Select Bank & Trust Company,Six Mile,Full Service Brick and Mortar Office,115 N. Main Street,Six Mile,SC,29682,34.80547726,-82.81924239
Entegra Bank,Anderson,Full Service Brick and Mortar Office,602 North Main Street,Anderson,SC,29621,34.508673,-82.650933
Entegra Bank,Chesnee,Full Service Brick and Mortar Office,110 Alabama Avenue,Chesnee,SC,29323,35.1481682,-81.86040462
Entegra Bank,Greenville Main,Full Service Brick and Mortar Office,501 Roper Mountain Road,Greenville,SC,29615,34.84548,-82.3095495
Bank OZK,Bluffton,Full Service Retail Office,"3 Clark Summit Drive, Suite 100",Bluffton,SC,29910,32.26446,-80.8558425
Bank OZK,Hilton Head Island,Full Service Brick and Mortar Office,1036 William Hilton Parkway,Hilton Head Island,SC,29928,32.15632937,-80.76056717
Bank of Greeleyville,Bank Of Greeleyville,Full Service Brick and Mortar Office,73 Main Street,Greeleyville,SC,29056,33.57140665,-79.98883418
Bank of Greeleyville,Kingstree,Full Service Brick and Mortar Office,209 Martin Luther King Jr Blvd,Kingstree,SC,29556,33.66193102,-79.82101853
Beacon Community Bank,Beacon Community Bank,Full Service Brick and Mortar Office,"578 East Bay Street, Suite D",Charleston,SC,29403,32.793102,-79.9314885
Beacon Community Bank,Houston Northcutt,Full Service Brick and Mortar Office,966 Houston Northcutt Blvd,Mount Pleasant,SC,29464,32.798916,-79.890822
"Abbeville First Bank, SSB","Abbeville First Bank, Ssb",Full Service Brick and Mortar Office,205 South Main St,Abbeville,SC,29620,34.17567644,-82.37695156
"Abbeville First Bank, SSB",Calhoun Falls Office,Full Service Brick and Mortar Office,254 East Savannah Street,Calhoun Falls,SC,29628,34.09091745,-82.59289836
"1st Federal Savings Bank of SC, Inc.","1st Federal Savings Bank Of Sc, Inc.",Full Service Brick and Mortar Office,300 Robertson Boulevard,Walterboro,SC,29488,32.92208637,-80.67528802
"1st Federal Savings Bank of SC, Inc.",Edisto Island,Full Service Brick and Mortar Office,428 Highway 174,Edisto Island,SC,29438,32.51980084,-80.29975108
Dedicated Community Bank,Dedicated Community Bank,Full Service Brick and Mortar Office,202 Cashua Street,Darlington,SC,29532,34.30442583,-79.86900605
Dedicated Community Bank,Florence,Full Service Brick and Mortar Office,2016 North Hoffmeyer Road,Florence,SC,29501,34.19151333,-79.80812396
Carolina Trust Bank,Clover,Full Service Brick and Mortar Office,124 North Main Street,Clover,SC,29710,35.112069,-81.224793
Carolina Trust Bank,Lake Wylie,Full Service Brick and Mortar Office,5196 Charlotte Highway,Clover,SC,29710,35.11908,-81.082359
"Citizens Building and Loan, SSB","Citizens Building And Loan, Ssb",Full Service Brick and Mortar Office,229 Trade Street,Greer,SC,29651,34.936785,-82.2257685
"Citizens Building and Loan, SSB",Landrum,Full Service Brick and Mortar Office,100 South Edgewood Avenue,Landrum,SC,29356,35.17746295,-82.1775956
HomeTrust Bank,Pelham Road Office,Full Service Brick and Mortar Office,8599 Pelham Road,Greenville,SC,29615,34.851924,-82.23021
HomeTrust Bank,Woodruff Road Office,Full Service Brick and Mortar Office,499 Woodruff Road,Greenville,SC,29607,34.83582861,-82.335096
Spratt Savings and Loan Association,Great Falls,Full Service Brick and Mortar Office,800 Dearborn St.,Great Falls,SC,29055,34.56862027,-80.89000718
Spratt Savings and Loan Association,Spratt Savings And Loan Association,Full Service Brick and Mortar Office,1613 J. A. Cochran Blvd,Chester,SC,29706,34.69613499,-81.19295012
OPTUS Bank,Optus Bank,Full Service Brick and Mortar Office,1545 Sumter Street,Columbia,SC,29201,34.00686698,-81.03428298
Iberiabank,Downtown Greenville,Full Service Brick and Mortar Office,110 East Court Street Suite 101,Greenville,SC,29601,34.84796496,-82.39785025
FineMark National Bank & Trust,Charleston,Full Service Brick and Mortar Office,865 Island Park Drive,Charleston,SC,29492,32.86322771,-79.90533003
Pee Dee Federal Savings Bank,Pee Dee Federal Savings Bank,Full Service Brick and Mortar Office,106 East Court Street,Marion,SC,29571,34.17901971,-79.39976893
"Pickens Savings and Loan Association, FA","Pickens Savings And Loan Association, Fa",Full Service Brick and Mortar Office,205 E Cedar Rock St,Pickens,SC,29671,34.88274346,-82.70582293
Home Federal Savings and Loan Association,Home Federal Savings And Loan Associ,Full Service Brick and Mortar Office,2990 Main Highway,Bamberg,SC,29003,33.2976791,-81.0347785
Thrivent Trust Company,Greenville,Limited Service Trust Office,9 Halton Green Way,Greenville,SC,29607,34.83712787,-82.33546814
Woodruff Federal Savings and Loan Association,Woodruff Federal Savings And Loan As,Full Service Brick and Mortar Office,247 North Main Street,Woodruff,SC,29388,34.74141283,-82.03871157
JPMorgan Chase Bank,Clemson Tiger Blvd,Full Service Brick and Mortar Office,"1075 Tiger Blvd, Ste B",Clemson,SC,29631,34.691364,-82.834128
Mutual Savings Bank,Mutual Savings Bank,Full Service Brick and Mortar Office,330 West Carolina Ave,Hartsville,SC,29550,34.37217014,-80.07863827
ServisFirst Bank,Charleston,Full Service Brick and Mortar Office,701 East Bay Street,Charleston,SC,29403,32.797656,-79.9346835
Peoples Bank,North Charleston Loan Production Off,Limited Service Loan Production Office,"4401 Belle Oaks Drive, Suite 210",North Charleston,SC,29405,32.840136,-80.021853
Kingstree Federal Savings and Loan Association,Kingstree Federal Savings And Loan A,Full Service Brick and Mortar Office,101 East Mill Street,Kingstree,SC,29556,33.6652654,-79.83065948
Wilmington Trust,Charleston Office,Limited Service Trust Office,4000 Faber Place Dr,North Charleston,SC,29405,32.845311,-80.0198685
